name,street,city,state,zip
Katherine E Price,888 Fourth,Hinesville,GA,31313
Rachel T Evans,5534 Fifth,South Lyon,MI,48178-3532
Vincent P Nelson,9367 First,Grand Island,NE,68801
Randy R Watson,13363 Fifth,Beulaville,NC,28518-8741
Logan G Davis,14789 Main,Tallassee,TN,37878-5020
Roger T Wright,15115 Cedar,Newark,NJ,07103-4988
Jeremy J Kelly,15300 First,Davis City,IA,50065
Mark A Turner,11604 Seventh,Summitville,IN,46070
Amber J James,10785 Fifth,Dublin,GA,31021
Vincent H Jackson,2100 Cedar,Polaris,MT,59746-4201
Laura G Anderson,13366 Third,Oak Island,NC,28465
Henry W Brooks,13169 Maple,Oklahoma City,OK,73164
Patrick Z Patel,12089 Elm,Whitlash,MT,59545-0173
Diane P Jimenez,14149 Cedar,Victoria,TX,77901-2130
Charles I Evans,3206 First,Washington,DC,20219
Hannah S Parker,19764 Fourth,Camarillo,CA,93010-7599
Jack Y Gray,18555 Seventh,Clayton,IN,46118
Ruth L Collins,8260 Cedar,APO,NY,09114
Terry R Morris,19749 Lake,Grahamsville,NY,12740-2539
Catherine N Morales,12665 Oak,Little Rock,AR,72295-7560
Sean A Adams,11571 Maple,Saint Paul,MN,55112-9490
Susan U Allen,14601 Fourth,Lakeland,LA,70752-0735
Donna A Clark,17080 Evergreen,Dixon,NM,87527-5186
Raymond I Perez,11095 Fourth,New York,NY,10011-7584
Linda Y Jones,5806 Fourth,Belgrade,MO,63622
Victoria Z Thompson,8323 Pine,Republic,OH,44867
Robert D Clark,11825 Fifth,Sturdivant,MO,63782
Timothy W Davis,15522 Fourth,Mount Sterling,MO,65062-5130
Thomas F Nguyen,19965 Park,Carthage,NC,28327-4815
Marie U Hughes,16167 Pine,Havana,AR,72842-1319
Elizabeth A Mendoza,4425 Evergreen,Saratoga,NC,27873-2260
Rose V Murphy,7751 Park,Everest,KS,66424-1927
Bruce U Phillips,10947 Park,Wiscasset,ME,04578-1475
Thomas S Sanchez,1075 Seventh,Newtown Square,PA,19073-4789
Brandon Q Patel,11060 Park,Guilford,IN,47022-8641
Judith X Wright,14560 Park,Stuttgart,AR,72160
Billy A Martinez,8850 Fourth,Pasadena,TX,77507
Arthur B Ramirez,3720 Third,Saint Clair Shores,MI,48082
Sean A Diaz,17329 Pine,San Francisco,CA,94172
Debra O Foster,8513 Seventh,Rural Ridge,PA,15075
Frances I Morgan,6814 Fifth,Yates City,IL,61572
Jessica J Torres,16098 Eighth,Hanover,PA,17334-9343
Kathryn I Ruiz,19597 Ninth,Panama City,FL,32417
David I Morales,680 Washington,Cuba City,WI,53807
Nicholas R Jones,1673 Pine,Sterling,OK,73567-7901
Madison H Murphy,1280 Fifth,Macksville,KS,67557-2803
Grace Y Wright,13750 Park,Sonora,CA,95370
Brittany Z Peterson,8466 Main,Charlotte,NC,28222
Amanda D Stewart,6114 Washington,Waukesha,WI,53188-2855
Brittany H Martinez,11598 Maple,Rome,IA,52642-8561
James V Turner,12572 Cedar,Pownal,VT,05261-1132
Lauren R Martinez,16625 First,Saint Paul,MN,55133-8296
Louis O Wright,711 Seventh,Sturtevant,WI,53177
Brandon T Gray,19615 Elm,Chestertown,MD,21690
Nicholas W Lopez,14012 Sixth,Greeley,CO,80638
Jacqueline A Harris,7006 Eighth,Cherokee,IA,51012-7743
Melissa B Perez,3767 Eighth,Garnerville,NY,10923
Kelly K Parker,9155 First,Washington,DC,20422
Christian L Anderson,7819 Fifth,Clopton,AL,36317
Joseph K Diaz,7850 Oak,Banner,WY,82832
George V Garcia,11672 Oak,Davenport,IA,52801
Richard E Brown,19795 Third,Oak Island,NC,28465-1171
Betty M Reyes,8214 Elm,Iliff,CO,80736-7120
Benjamin R Kim,14522 Fourth,Laurel,IA,50141
Marge N Mendoza,17980 First,Rutland,ND,58067
David O Hill,10500 Maple,Mexia,TX,76667
John B King,16784 Lake,Hilliard,OH,43026-5603
John L Gray,14677 Cedar,Idamay,WV,26576-4652
Kenneth I Castillo,15803 Sixth,Martins Ferry,OH,43935-5375
Julia E Mendoza,3461 Oak,Hartford,CT,06126
Lauren G Taylor,19177 View,Luray,KS,67649-9879
Eric M Reyes,9268 Seventh,Alma,AR,72921
John M Gray,16688 Evergreen,Pinckard,AL,36371-4273
Brenda W Rodriguez,16470 Washington,Spring Arbor,MI,49283-5379
Jason U Adams,8227 Pine,Vero Beach,FL,32967
Kelly O Hill,13760 Eighth,Parkersburg,WV,26102
Billy O Young,8197 Second,Clairton,PA,15025-3144
Kelly X Sanders,5251 Fourth,Omer,MI,48749
David N Simpson,11248 Lake,Wilmington,DE,19808-0639
Austin B Phillips,13660 Seventh,La Joya,TX,78560-7503
Sean D Stewart,4482 Second,Temple,TX,76508-6377
Bart U James,15394 Second,Carson,CA,90895-6759
Jessica C Garcia,17705 Main,Verona,ND,58490
Steven D Cook,19599 Fourth,Magnolia,NJ,08049
Victoria G Murphy,9958 Eighth,Bode,IA,50519
Roger N Cruz,987 Evergreen,Gary,IN,46407-4625
Frank X Ortiz,6413 Elm,Plato,MO,65552-2906
Rachel I Flores,16574 Lake,Sagamore Beach,MA,02562
Evelyn G Murphy,1485 Eighth,Arlington,TX,76004-5051
Theresa V Walker,12149 Ninth,Bishop,CA,93514-2647
Ralph Z Kim,13488 Cedar,Mounds,OK,74047
Christine M Gomez,19003 Fifth,Surrency,GA,31563
Katherine U Perez,14501 Elm,Yosemite National Park,CA,95389-3995
Mark M White,14736 Second,Joaquin,TX,75954
Sandra L Scott,15707 Second,Congers,NY,10920
Michael Z Carter,14681 Park,Brazeau,MO,63737
Sophia H Brooks,19577 Fifth,Kelso,MO,63758-6743
George E Hill,8773 First,Akers,LA,70421-2002
Michelle W Allen,18863 Main,Bethesda,MD,20811
James Y Cruz,11278 Cedar,Jones Mills,PA,15646-6275
Benjamin N Foster,17419 Lake,Atmore,AL,36502-1385
Gary P Simpson,15636 Main,Poteau,OK,74953
Megan V Myers,6654 Third,Owensboro,KY,42304-9196
Joshua N Lewis,240 Park,Speed,NC,27881
Walter U Torres,1431 Maple,McCammon,ID,83250
Pamela L Rodriguez,3103 Pine,Pilot Grove,IA,52648-0836
Zachary V Miller,2596 Sixth,Equinunk,PA,18417
Charlotte P Adams,15571 Second,Menifee,CA,92585-6440
Isabella X Roberts,7937 Second,Arlington,MA,02476
Ralph S Martin,9412 View,Oklahoma City,OK,73196
Virginia O James,15778 First,Griffithville,AR,72060
Bobby Y Morales,5128 View,Ganado,TX,77962
Judy P Phillips,15193 Third,Hope,AR,71801-6973
Brenda W Alvarez,4358 Lake,Kingston,MO,64650
Scott R Campbell,5903 View,Berlin,NY,12022-8177
Johnny E Gray,10514 Park,Malvern,PA,19355
Logan G Parker,13453 Sixth,Nocona,TX,76255-5976
Emma S Alvarez,12027 Oak,Chicago,IL,60603
Michelle Y James,17694 Fifth,Lost Springs,WY,82224
Christine M Foster,18007 Seventh,Julian,NE,68379
Benjamin Q Ward,8529 First,Derby,NY,14047
Elijah D Reed,1051 Sixth,Moran,WY,83013
Christian Z Evans,2198 Main,Nemo,SD,57759
Brian X Torres,216 Fifth,New Haven,CT,06538
Robert S Hernandez,7247 Second,Brockport,NY,14420-2978
Joyce Z Roberts,5540 Elm,Pittsboro,MS,38951-5139
William J Miller,1583 Elm,Dodson,MT,59524-1613
Sara C Morales,19140 Sixth,Macomb,MI,48044
Margaret I Moore,19658 Third,Jerome,MO,65529
Homer K Long,1605 Elm,Willernie,MN,55090
Robert Y Ross,819 Sixth,Anderson,CA,96007
Arthur Q Williams,14678 Ninth,Verdi,NV,89439-9988
Laura L Lee,7508 Evergreen,McShan,AL,35471
Lauren I Hill,14729 Fifth,Shoshoni,WY,82649-3509
Christian G Torres,15242 Cedar,Monetta,SC,29105
Cynthia Z Jones,18780 Elm,Whitefield,ME,04353-2014
Ashley I Lewis,1978 Pine,Navesink,NJ,07752-1335
Lawrence F Long,4693 Ninth,Houston,TX,77090-9668
Kathleen R Mitchell,15335 Cedar,South West City,MO,64863-6494
Maggie B Alvarez,10343 Lake,Moultonborough,NH,03254
Kenneth S Castillo,8424 Sixth,Apalachicola,FL,32329-4850
James S James,3505 View,SaintJohn,VI,00831
Kyle Z Edwards,15834 Park,Washington,DC,20436
Barbara F Myers,16682 Elm,Toms River,NJ,08756-7696
Marge A Edwards,11015 Seventh,Cranberry,PA,16319
Kyle W Ramirez,16639 Maple,Zaleski,OH,45698
Heather H Cox,6445 Lake,Renick,MO,65278
Christian R Ruiz,10917 Seventh,Calera,OK,74730
Brittany I Mitchell,17907 Hill,Wausa,NE,68786
Jason F Mitchell,18780 Washington,Tampa,FL,33612-5071
James J Gray,296 Maple,Racine,WI,53401
Rebecca N Hill,2156 First,Hanover,NH,03755-1578
Elizabeth B Bailey,18205 Third,Carlisle,AR,72024-8784
Kevin Y Nelson,6412 Third,West Grove,PA,19390-0835
Joseph J Morris,14427 Third,Clarksburg,TN,38324
Sandra P Martin,6730 Eighth,Chicago Heights,IL,60411-7955
Carolyn W Anderson,9957 Evergreen,Orange City,IA,51041
Amy W Lewis,12770 Ninth,Opelika,AL,36804
Kathleen Y Anderson,16321 Park,Valley Grove,WV,26060
Terry N Reed,5452 Evergreen,New Rochelle,NY,10804-0714
Debra I Hill,19793 View,Creston,IA,50801-9160
Arthur S Rogers,7246 Evergreen,Woodward,OK,73801-6642
Raymond C Myers,19612 Fourth,Salinas,PR,00751-8354
Paul A James,18628 Eighth,Chocowinity,NC,27817-2582
Michael F Miller,2381 Lake,Warm Springs,GA,31830-1458
Alice A Cook,6360 Oak,Ehrhardt,SC,29081
Brian Q Gutierrez,14659 Seventh,West Elkton,OH,45070-6320
Jordan Z Morales,8551 Evergreen,Westover,MD,21890-9180
Lauren Y Reed,4604 Second,Fresno,CA,93704
Michelle L Simpson,9677 Evergreen,Clayton,WI,54004
Joyce J Gray,6012 First,Port Wing,WI,54865-7135
Frances B Myers,4283 Fifth,Indianapolis,IN,46203-4194
Eugene S Cox,13159 Hill,Charleston,SC,29416-8279
Steven G Green,1721 Hill,Harleyville,SC,29448
Justin Y Ortiz,17704 Maple,Sarasota,FL,34243
Nicole W Flores,10975 Oak,Fox,OK,73435
Marge Q Peterson,19609 Elm,Reading Center,NY,14876-4297
Christine J Williams,956 Hill,Camden on Gauley,WV,26208
Nicole E Gonzales,3336 Sixth,Sanger,CA,93657
Joe B Howard,360 Seventh,Exeter,ME,04435
Zachary J Chavez,18767 Washington,Phoenix,AZ,85017-0910
Albert G Watson,6313 Maple,Pembroke,GA,31321
Christine L Ortiz,11609 Elm,Clifton Forge,VA,24422
Theresa P Rogers,6470 Third,Albany,NY,12246-1704
Gary I Ward,5624 Fifth,Union Mills,IN,46382-8708
Michael N Morales,9250 Maple,Chualar,CA,93925-8500
Joshua C Williams,7580 Cedar,Commerce,GA,30530-6116
Harold A Brooks,10548 Seventh,Weldon,IA,50264-0042
Harold H Sanders,16818 Elm,Williamsport,TN,38487
Janice Z Long,15014 Evergreen,Evansville,IN,47701-9283
Dylan A Cook,8026 Ninth,Norway,IA,52318
Thomas E Kim,329 Seventh,Kelley,IA,50134-2214
Alexis A Morgan,17652 Ninth,Tingley,IA,50863-6553
Jesse I White,14784 Maple,Chelsea,MI,48118-5222
Benjamin B Simpson,12356 Ninth,Fritch,TX,79036-0595
Dylan K Thomas,843 Lake,Elkton,TN,38455-7259
Samantha F Clark,647 Main,Ernest,PA,15739-1092
Bobby X Kelly,18003 Hill,Hot Springs Village,AR,71910
Sharon U Rivera,8462 View,Godley,TX,76044-4162
Laura K Perez,19215 Sixth,Walker,MO,64790
Hannah S Long,16710 Hill,Arlington,TX,76004-5026
Betty I Hughes,17991 Main,Waldorf,MD,20604-0186
Patrick F Thomas,12261 Elm,Salt Lake City,UT,84124
Steven U Ramos,15127 First,Wolf Lake,IL,62998
Evelyn F Wood,12068 Fifth,Morgantown,WV,26507
Roger E Hall,11800 Ninth,Sloan,NV,89054-9661
Alice Q Jackson,18513 Seventh,Chromo,CO,81128-5571
Heather P Moore,924 Fifth,Kinmundy,IL,62854-1656
Maggie G Allen,548 Oak,Van Lear,KY,41265
Roger W Phillips,19096 Pine,Saint Paul,MN,55145-9497
Susan G Foster,3077 Fifth,Cookson,OK,74427
Lisa X Baker,19289 Main,Atkinson,NC,28421
Teresa Y Jackson,12563 Hill,Cima,CA,92323
Sophia H Williams,10764 View,Good Hope,IL,61438
Natalie V Jackson,3248 Third,Wilmington,NC,28411
Gerald G Brooks,1133 Lake,Overland Park,KS,66224
Sara Q Alvarez,11838 Hill,Glasgow,MT,59230
Judy R Ross,4129 Lake,Garards Fort,PA,15334
Stephanie C Green,10307 Evergreen,Manassas,GA,30438-6234
Samantha B Foster,5247 Seventh,Lexington,KY,40517-0529
Sophia T Reyes,17193 Evergreen,Laguna Hills,CA,92654-9657
Diane P Clark,13954 Maple,Toledo,OH,43615
Jonathan R Hall,12585 Lake,Houston,TX,77224
Ashley F Martin,4166 Second,Oil City,PA,16301-1553
Kelly M Reyes,10992 Second,Mirando City,TX,78369
Homer W Johnson,6800 Hill,Fredericktown,PA,15333-3557
Donald S Campbell,16266 Ninth,Roseland,LA,70456-1978
Hannah B Long,18123 Second,Walnut Grove,CA,95690
Scott N Edwards,8928 Main,Roxie,MS,39661-3863
Noah Q Hughes,4998 Park,Farley,MO,64028
Barbara K Howard,6644 Evergreen,Marshall,VA,20115
Logan L Hernandez,225 Sixth,Magna,UT,84044-7269
Rachel R Foster,6570 Pine,Loraine,TX,79532
Frank D Sanders,5453 Maple,Lubbock,TX,79412
Joan M Martin,17718 Hill,Albuquerque,NM,87113-7670
Melissa D Clark,18469 Second,Oak Park,IL,60304
Bobby K Brown,13924 Sixth,Battleboro,NC,27809
Christine Y Rivera,396 Washington,Kennett Square,PA,19348
Frank E Lewis,12382 Sixth,Marathon,TX,79842
Dennis D Rodriguez,16139 First,Blossom,TX,75416-1984
Keith Z Johnson,16226 Main,Riverside,CA,92521
Katherine X Perez,1058 Fifth,Marysville,PA,17053-1760
Ashley Z Hill,7341 Evergreen,Trenton,NJ,08625-8620
Homer N Walker,15127 Oak,San Tan Valley,AZ,85143-8805
Teresa Q Wilson,17438 Fifth,Denison,TX,75020-1116
Angela T Cooper,13800 Eighth,Markham,IL,60428
Jack C Taylor,18289 Oak,Lake Creek,TX,75450
Andrew H Alvarez,8729 Elm,Bradleyville,MO,65614-2137
Wayne F Rogers,7952 Second,Harrisville,NY,13648
Janet K Anderson,5922 Washington,Silver City,NM,88061
Benjamin F Ramirez,8345 Elm,Justin,TX,76247-7412
Teresa P Ortiz,13377 Pine,Etowah,TN,37331
Eric V Cruz,18401 First,San Francisco,CA,94188
Eugene S Nelson,4437 Main,Allison,PA,15413-1614
Elizabeth W Lee,6754 Main,Watrous,NM,87753-6060
Frances T Phillips,12539 Pine,Marietta,GA,30061
Janet L Mitchell,13252 View,McLain,MS,39456-8325
Madison M Phillips,3833 Sixth,New Orleans,LA,70156
Margaret K Adams,779 Ninth,Baltimore,MD,21203
Michael D Green,426 Park,New Hope,KY,40052-0042
Austin Q Diaz,15439 Lake,Stockton,CA,95210-1502
Richard V Cook,17702 Evergreen,Ellabell,GA,31308-2160
Jack O Carter,18290 Seventh,Avalon,WI,53505-0087
Amanda D Castillo,5041 Eighth,Lanark,WV,25860
Dennis N Chavez,15656 Main,Pittsburgh,PA,15283-5603
Mark B Myers,14236 Eighth,Tehachapi,CA,93561
Cheryl X Murphy,18180 Fifth,Boonton,NJ,07005-0275
Lawrence Z Thomas,9216 Cedar,Roxboro,NC,27573-3082
Judy A Foster,3702 Third,Riesel,TX,76682-8828
Stephen Q Hill,12603 View,Windom,MN,56101-2177
Wayne V Clark,11143 Main,Guide Rock,NE,68942-4524
Emily X Patel,5236 First,Spring Run,PA,17262-1355
David T Nelson,4359 Second,Topeka,KS,66647-9793
Benjamin C Rivera,19388 Second,DPO,FL,34067
Scott G Evans,15505 View,Naguabo,PR,00718
Noah E Morgan,7048 Seventh,Bloomer,WI,54724
Stephanie U Moore,1162 Park,Nashville,OH,44661-1749
Dorothy L Turner,8187 Third,Arlee,MT,59821-7758
Logan R Thomas,17118 Main,Franklinville,NY,14737
Gloria S Ruiz,6642 Elm,Cowdrey,CO,80434
Jack L Rogers,16551 Lake,Bemidji,MN,56601-9264
Dylan C Cruz,3437 Maple,Portsmouth,VA,23701
Roger U Cooper,18597 First,Bakersfield,CA,93301-7596
Charlotte S Parker,1096 Third,Claiborne,MD,21624-6540
Shirley T Mendoza,1265 Second,Arthur City,TX,75411-7254
Bobby H Reed,17926 Lake,Montgomery,AL,36132
Christopher B Sanders,19514 Washington,San Diego,CA,92163-5575
Joe I Harris,8 Fifth,South Bound Brook,NJ,08880
Kathryn A Moore,10611 Pine,Sycamore,AL,35149-9228
James E Brooks,12749 First,Bynum,NC,27228
Lawrence L Sanchez,13285 Pine,Wyoming,WV,24898
Teresa D Myers,10533 Pine,Bloxom,VA,23308-2367
Stephanie T Myers,16891 Oak,Agoura Hills,CA,91376-2041
Danielle Y Harris,7945 Elm,Playa del Rey,CA,90296
Frank J Howard,2689 Third,Eastover,SC,29044
Albert O Mendoza,10601 Eighth,Belmont,WI,53510-6897
Judy T Parker,14037 Evergreen,Brownsville,MD,21715-2126
Christina L Ruiz,17587 View,Galt,IA,50101
Barbara G Smith,6059 Ninth,Webster,NY,14580-4181
Kenneth A Clark,6436 Oak,Renick,MO,65278-1896
Amber W Scott,15237 Seventh,Buffalo,NY,14228-7024
Deborah C Cox,16541 Hill,Force,PA,15841
Aaron U Martin,9642 Main,Cresson,PA,16630
Virginia N Anderson,12022 Hill,Birch Run,MI,48415
Robert F Gonzales,3698 View,Hawk Springs,WY,82217-0171
Joyce J Martin,12799 View,Dexter,GA,31019-5840
Isabella A Chavez,7504 First,Dry Creek,LA,70637-2473
Michelle A Ramirez,9893 First,Groom,TX,79039-3713
Julia Z Nguyen,10943 Seventh,Yanceyville,NC,27379-7347
Deborah G Peterson,18944 Sixth,Caldwell,KS,67022
Margaret A Ward,11220 View,Pearl,MS,39208-7180
Emily R Carter,3700 Main,Dolgeville,NY,13329-7915
Joan L Price,4325 Fourth,Geneva,IL,60134
Andrew O Allen,2155 View,Cobbtown,GA,30420
Danielle P Thomas,3251 Fifth,Marble Rock,IA,50653-7953
Deborah B Rivera,15443 Pine,Fredonia,AZ,86022
Michelle T Moore,9982 Washington,Seneca,NE,69161-3007
Lauren K Williams,5324 Park,Land O Lakes,WI,54540
Melissa I Morris,5334 Oak,Duncannon,PA,17020
Sara W Stewart,13542 Seventh,Brinktown,MO,65443
Jennifer V Gomez,555 Third,Solon,OH,44139-0626
Judy O Wilson,16867 Sixth,Holmes Beach,FL,34218
Sarah O Murphy,17737 Maple,North Troy,VT,05859
Sophia X Collins,11602 Lake,Middle Village,NY,11379-8888
Alexis L Ortiz,14319 Pine,Bliss,NY,14024
Katherine E Garcia,15058 Park,Oriskany,NY,13424
John Z Green,1174 Lake,Moccasin,CA,95347
Lisa K Myers,837 Fifth,Bourbon,IN,46504-5319
Betty L Cook,17316 Park,Wernersville,PA,19565-1852
Deborah C Robinson,18291 Eighth,Long Beach,CA,90822
Diane G White,11619 Main,New York,NY,10282-9237
Amanda Y Long,15283 Lake,Wessington Springs,SD,57382
Joe Z Myers,10609 Park,Aurora,NE,68818
Beverly Z Lewis,1020 Third,Danville,IA,52623
Roger Z Lewis,16668 Elm,Kansas City,MO,64113-0728
Gloria Y Adams,6906 Second,Upland,CA,91784
Heather D Torres,7036 Eighth,Albuquerque,NM,87115
Arthur J Harris,11989 Oak,Hawkins,WI,54530-4394
Alice F Richardson,3299 Eighth,Charleston Air Force Base,SC,29404-8391
Jeremy W Walker,5695 Maple,Potwin,KS,67123-8707
William S Phillips,19321 Evergreen,Swiss,WV,26690-3545
Grace I Ramos,361 Washington,Liebenthal,KS,67553
Arthur M Mendoza,18603 Lake,Henrico,VA,23255
Rose V Phillips,1564 Second,West Barnstable,MA,02668-9721
Janice L Allen,4829 Fourth,Eggleston,VA,24086-7480
Evelyn H Brooks,11713 Eighth,Vero Beach,FL,32968-2165
Ralph Z Castillo,1315 Maple,Saint Johns,FL,32259
Judith U Green,13796 Pine,Powderly,TX,75473-3259
Brandon V Harris,19155 Seventh,Delanson,NY,12053
Helen X Price,13317 Seventh,Lumber City,GA,31549-3980
Cynthia W Jones,14484 Maple,Lubbock,TX,79452-2666
Sophia R Rogers,10499 Evergreen,Winthrop Harbor,IL,60096-3260
Bryan Q Murphy,11400 Eighth,McKeesport,PA,15133
Kyle H Clark,8295 Eighth,Blounts Creek,NC,27814
Lawrence U Johnson,17987 Park,Manchester,OK,73758
Christine B Myers,10118 Sixth,Sacramento,CA,94271-7470
Diane B Bailey,19673 First,Kasson,MN,55944
Gerald C Peterson,11248 Ninth,Christmas,FL,32709-7489
Noah H Cox,1862 Main,Saint Stephens,AL,36569-1037
Jack G Wilson,16548 Elm,Manistee,MI,49660
Jacob W Walker,18294 Hill,Treloar,MO,63378-7676
Jessica Z Collins,5889 Pine,Sciota,IL,61475-1833
Robert A Gonzales,10234 Washington,New Eagle,PA,15067-5507
Alexis F Garcia,14626 First,Burnsville,MN,55306
Ruth A Gomez,13574 Seventh,Kirkwood,NY,13795-9370
Christopher E Anderson,15098 Seventh,Reidsville,NC,27323-1469
Philip D Wood,18426 Fifth,Louisville,KY,40295
Jason C Wood,17974 Elm,Henrico,VA,23294
Roger Y Johnson,15417 Main,APO,NY,09010-2681
Stephen L Nguyen,12107 Maple,Philadelphia,PA,19178-4237
Andrew X Wood,19244 First,Darling,MS,38623-6881
Evelyn A Carter,13019 Elm,East Montpelier,VT,05651-9127
Sophia X Brown,1085 First,Galloway,WV,26349-5411
Emily J Long,6737 Ninth,Peoria,IL,61607
Ethan N Evans,16855 Second,Hookerton,NC,28538
Amber E Brown,17499 Third,Wanatah,IN,46390
Pamela Z Brown,8459 Evergreen,Houston,TX,77046
Emily R Martinez,9633 Oak,Arthur,IL,61911
Stephanie D Parker,1762 Maple,New England,ND,58647-3077
Deborah G Diaz,13288 Washington,Richfield,ID,83349-4542
Karen I Robinson,869 Main,Casa,AR,72025-4482
Jason S Moore,12696 Eighth,Springfield,IL,62761-8742
Noah K Wright,10896 Evergreen,Hayesville,IA,52562-3077
John D Cook,17203 Main,Soddy Daisy,TN,37379-7050
Dylan R Reyes,19917 View,Freeport,ME,04032
Dylan L Morales,13945 Maple,Fontana Dam,NC,28733
Deborah Z Gutierrez,13513 Hill,Houston,TX,77084
Jennifer K Lopez,4705 Third,Pengilly,MN,55775-3419
Albert Z Evans,17022 Eighth,Nashville,IN,47448-6524
Frank W Rogers,4589 Fourth,Bessie,OK,73622-3358
Beverly W Peterson,19377 Park,Tennessee Colony,TX,75861
Nathan U Morales,17915 Evergreen,Prather,CA,93651-1699
Patrick I Alvarez,7626 Lake,Fromberg,MT,59029-4225
Willie V Kelly,19417 View,Martin,MI,49070-5937
Dennis G Clark,7856 Main,Louisville,KY,40212-5223
Daniel X Scott,18600 Main,Olney,MO,63370
Margaret O Jones,4890 Cedar,Norwood,NY,13668-9987
Jacob H Reed,15904 Cedar,Preston,CT,06365
Kevin W Cook,14880 Washington,Hobbsville,NC,27946-6241
Lisa P Murphy,14580 Pine,Boise,ID,83713
Amanda F Murphy,2220 Maple,Bayboro,NC,28515-8258
Sara V Chavez,9528 View,Arlington,VA,22202-2532
Douglas D Gutierrez,18536 First,Austin,AR,72007-3414
Jeffrey W Chavez,18759 Hill,Council,ID,83612-3441
Joyce W Hill,12311 Second,Molino,FL,32577-7090
Catherine I Ortiz,16861 Lake,Nashville,TN,37217-5815
Laura D Lewis,10300 First,Pleasant Grove,CA,95668
Mary W Thompson,9836 View,Houma,LA,70360
Nicholas P Williams,672 Ninth,Harris,MI,49845-9840
Amanda G Lopez,1517 Ninth,West Green,GA,31567
Diana V James,12617 Maple,Chilcoot,CA,96105
Kimberly Q Johnson,19160 Pine,Delmont,NJ,08314-8852
Marge B Jones,19406 Fifth,Tecumseh,NE,68450
Kimberly K Mendoza,8862 Fourth,Stanford,CA,94305
John B Rodriguez,13180 Cedar,Perkasie,PA,18944
Alan A King,3214 View,Arispe,IA,50831
Mark M Nguyen,1338 First,Rushmore,MN,56168-1963
Rose F Castillo,6893 Eighth,Charlotte,NC,28255
Dennis G Thomas,6911 Eighth,Dallas,TX,75250-7810
Jason D Kim,16369 Lake,Arcadia,IN,46030-7789
Donna M Richardson,3760 Pine,Blytheville,AR,72315-5359
Logan M Lopez,1315 Fourth,Gadsden,AL,35905
Jeremy E Nelson,5350 Ninth,Sebewaing,MI,48759-8306
Jennifer W Jones,11253 Maple,Watertown,NY,13601
Deborah I Brooks,7041 Third,East Lansing,MI,48826
Roger V Morgan,4127 Hill,Burke,NY,12917-4843
Thomas B Scott,12543 Lake,Kissimmee,FL,34746
Jacob L Young,14962 Ninth,Sebec,ME,04481-3325
Diane P Edwards,6508 Lake,Glenshaw,PA,15116
Brian W Reyes,7623 Third,Cynthiana,OH,45624
Amanda N Walker,219 View,Auburn,MA,01501-1619
Eric R Long,10958 Hill,Houston,TX,77272-2875
Diane U Allen,383 Evergreen,Venus,TX,76084-4542
Deborah W Cruz,18966 Oak,Chicago,IL,60685-2429
Samantha X Ross,15658 Eighth,Homer,IL,61849-3630
Walter M Clark,13376 View,Melvin,TX,76858-5080
Andrea S Murphy,11210 Sixth,Collierville,TN,38027
Jennifer J Moore,14883 Third,Stoddard,NH,03464-3094
Brandon T Lee,13139 Washington,Edgar,MT,59026-8970
Joan Q Roberts,12665 First,Lexington,MS,39095-5603
Laura K Sanchez,16044 Fifth,Willow Creek,MT,59760-8273
Karen S Price,5337 Lake,Long Beach,CA,90846
Kyle Q Sanchez,657 Oak,Gatesville,TX,76596-4438
Dylan H Evans,11385 Eighth,Okolona,AR,71962-0108
Judy R Ramirez,9700 Main,Incline Village,NV,89451-7151
Brenda R Myers,11338 Elm,Newark,NJ,07102-5773
James D Murphy,11577 Maple,Atlanta,GA,30337
Jose Q Davis,11099 View,Grand Junction,TN,38039-6626
Walter C Myers,3006 Lake,Blair,WI,54616-8324
Martha L Rivera,15594 Park,Bradley,MI,49311-7351
Grace D Lee,2457 Fifth,Salem,OH,44460-2587
Marilyn K Allen,15078 Pine,Riverside,CA,92504-8192
Jerry Q Johnson,14510 Maple,Ringgold,PA,15770
Bruce V Scott,154 Cedar,West Orange,NJ,07052-0892
James D Edwards,10168 Maple,Bernard,ME,04612
Mark K Lopez,15380 Seventh,DPO,NY,09488
Dennis F Anderson,15131 Maple,Los Molinos,CA,96055-1108
Kimberly M Ruiz,11307 Third,Reno,NV,89521
Timothy D Bailey,17684 Lake,Empire,MI,49630-4813
Debra A Patel,7098 Ninth,Goshen,VA,24439-8306
Carol U Torres,13653 Pine,Beverly,KS,67423
Douglas L Parker,1469 Ninth,Gretna,FL,32332
Lauren P Clark,17857 First,Dallas,TX,75234-9590
Daniel F Parker,7865 Second,Five Points,CA,93624
David V White,3521 Second,Pasadena,CA,91101
Arthur L Jackson,14744 Hill,Neelyville,MO,63954-3465
William W Ramos,5875 Cedar,Sartell,MN,56377
Carolyn I Cooper,14303 View,Huntsville,TN,37756
Donald F Reyes,2855 Eighth,Ward,CO,80481
Victoria W Mendoza,17260 Sixth,Cordova,TN,38016
George L Jones,9181 View,Myton,UT,84052-1216
Patricia D Morris,10720 Pine,Glenn,CA,95943-5523
Brandon A Richardson,15369 Maple,Loves Park,IL,61130-1913
Natalie Q Thompson,5066 Elm,Austin,TX,78711
Nicholas G Patel,19293 Seventh,Chicago,IL,60659
Amber Z Scott,7786 Evergreen,Seibert,CO,80834
Jason G Ross,7444 Third,New Richland,MN,56072-9951
Austin R Mitchell,3986 Sixth,Mill Village,PA,16427
Kayla A Castillo,9556 Hill,Payson,IL,62360-3606
Eugene K Reyes,18664 Elm,Bethlehem,PA,18017-4410
Beverly K Murphy,6042 Park,Hazlehurst,MS,39083
Tyler K Smith,11976 Evergreen,Morristown,OH,43759-7359
Laura B Reyes,17910 View,Agency,MO,64401
Lisa D Jones,218 Maple,Kirbyville,TX,75956-5113
Karen I Richardson,15936 Washington,Vanderwagen,NM,87326-3284
Brenda P Brooks,15635 Maple,Algonquin,IL,60102-8361
Sarah S Rogers,9516 Lake,Riga,MI,49276
Benjamin A Kim,4403 View,Garrison,MN,56450-5507
Ethan H Castillo,4830 Washington,Centerville,TN,37033-4027
Logan D Baker,7247 Park,Risingsun,OH,43457
Billy V James,19839 First,Pleasant Hill,LA,71065-3549
Kathleen O Morris,18889 Pine,Cincinnati,OH,45221
Beverly M Nelson,6367 Maple,Craigville,IN,46731-2000
Christina A Harris,12321 View,Woodside,NY,11377
Logan E Hughes,14171 Fifth,Sacramento,CA,94259
Lawrence X Reyes,4352 Evergreen,Grand Forks,ND,58207-3812
Peter F Martinez,9882 Third,Blue Island,IL,60406
Beverly E Gutierrez,17682 View,San Diego,CA,92109
Sophia B Nguyen,16738 Evergreen,Crossville,TN,38557-4684
Wayne K Nguyen,3677 Lake,Ashton,WV,25503
Sophia Q Hughes,11245 Ninth,Earleville,MD,21919-1916
Hannah K Hall,8373 Washington,Mount Calvary,WI,53057
Pamela F Stewart,311 Park,Maxatawny,PA,19538-6611
Kevin W Roberts,13055 Second,Jamesville,NC,27846-9727
Brittany E Young,12882 Sixth,Sea Cliff,NY,11579
Stephanie H Jimenez,10087 Ninth,Shanks,WV,26761
Randy E King,2341 Sixth,Long Beach,CA,90822-7793
Elizabeth M Taylor,18961 Park,Wickett,TX,79788-1752
Steven B Ward,11024 Lake,FPO,FL,34088
Noah D Simpson,229 Lake,Wallback,WV,25285
Nancy J Collins,12411 Maple,Heilwood,PA,15745
Ryan N Allen,1238 Eighth,Hale,MI,48739-7242
Dorothy B Martin,19069 Pine,Pulaski,VA,24301-2041
Alexis A Kim,2823 Eighth,Bristol,FL,32321-5057
Debra O Long,4161 Oak,Akers,LA,70421
Jordan M Watson,4764 Park,Peckville,PA,18452
Billy Y Wood,9159 Fifth,Cherryville,NC,28021-4151
Thomas V Garcia,10736 Ninth,Lompoc,CA,93438-3835
Lisa J Kelly,7902 Sixth,Avenel,NJ,07001
Brian Y Reed,17582 Third,Ann Arbor,MI,48103-4895
Justin D Gomez,3683 Fourth,Newport News,VA,23628
Abigail L Castillo,15024 Park,West Millbury,MA,01586
Cynthia D Harris,15289 Fourth,Flourtown,PA,19031-9197
Julia T Baker,9900 Pine,Sandy Lake,PA,16145-9152
Amber P Gonzales,7966 Evergreen,Simms,TX,75574-3408
Jordan W King,10857 Fourth,Pandora,TX,78143-3980
Ronald V Thompson,11941 Fifth,Newhall,IA,52315-5698
Jacqueline M Gomez,6205 Eighth,Wetumpka,AL,36092
Nathan P Carter,5739 Second,Whitefield,ME,04353
Doris D Kelly,18817 Lake,Cuervo,NM,88417
Madison X Rogers,1991 Lake,Boise,ID,83702
Gerald C Smith,15570 Sixth,Odessa,TX,79766
Brenda D Evans,16421 Pine,Runge,TX,78151
Bobby Y Harris,1018 View,Milford,VA,22514
Larry C Reyes,6573 Maple,DPO,NJ,09976-5692
Abigail W Howard,6836 Fourth,Canton,TX,75103
Noah U Green,5383 Fourth,New Hampton,MO,64471-4177
Margaret J Gray,19082 Lake,Charleston,WV,25365-7885
Pamela Z Smith,6681 Lake,McAlpin,FL,32062-1006
Katherine M Ortiz,14850 Lake,Marianna,WV,24859
Eugene E Chavez,14540 Oak,Pennington,NJ,08534-0779
Jacob T Sanders,12514 Evergreen,Georgetown,NY,13072-6536
Amy L Carter,7935 Main,Richmond,VA,23219-9425
Samantha G Richardson,8078 Main,Eagle River,WI,54521-4349
Margaret W Ramos,2300 View,Smithers,WV,25186-8517
Gloria A Simpson,629 Evergreen,Penuelas,PR,00624
Teresa Q Flores,10335 Maple,Fort Dick,CA,95538-4571
Doris V Gray,320 Elm,Potts Grove,PA,17865-6936
Louis T Mitchell,15668 Main,Ironton,OH,45638
Jeffrey M Rogers,15278 Washington,Orrtanna,PA,17353-9079
Mark H Johnson,18535 Oak,Williamsburg,KY,40769
Brenda V Torres,2734 Park,Eagle Pass,TX,78852
Lawrence H Roberts,4637 Cedar,Glendale,AZ,85307
Michael K Carter,14476 View,Vershire,VT,05079
Roy Q Evans,4504 Main,Sydney,FL,33587
Hannah J Rodriguez,9854 Sixth,Greeleyville,SC,29056
Brittany Q Alvarez,16616 Main,Prairieburg,IA,52219
Pamela H Morales,16734 Seventh,Elk Rapids,MI,49629
Grace S Cooper,8540 Maple,Jenkins,MN,56456
Billy L Scott,8605 Eighth,Independence,MO,64057-9733
Linda C Stewart,18284 Sixth,Bloomingdale,OH,43910
Deborah T King,12712 Hill,Appomattox,VA,24522-7386
Christina I Brown,19826 Oak,Freeport,MN,56331-0475
Donald F Rodriguez,4429 Lake,June Lake,CA,93529-0660
Diane P Hall,8308 Park,Fort Recovery,OH,45846-1409
George Y Smith,7208 Pine,Corpus Christi,TX,78404
Bobby V Chavez,16516 Cedar,Alton,KS,67623-4714
Lisa W Bailey,15879 Evergreen,Kanarraville,UT,84742-0600
Karen J Sanchez,16635 Park,Stanley,WI,54768-7500
Michelle C Jimenez,5081 Evergreen,Ozark,IL,62972
Cynthia T Cox,9903 Main,Tampa,FL,33620
Douglas D Adams,16234 Second,Emmett,KS,66422-6230
Victoria O Diaz,13867 Third,Coral Gables,FL,33114
Joe N Bailey,7404 Ninth,Laguna Hills,CA,92653-2041
Judy K Gutierrez,15664 Eighth,Germantown,KY,41044
Madison Y Jackson,6616 First,Hume,VA,22639-5437
Ruth P Mitchell,10101 Sixth,Cocoa Beach,FL,32932-9845
Jennifer I Morris,15278 Second,Salem,OH,44460
Larry Q Robinson,11336 Hill,Maxatawny,PA,19538
Virginia Q Jimenez,3818 Lake,Clifton,NJ,07011-4146
Laura M Adams,9075 Lake,Fort Worth,TX,76190-5594
Patrick G Ross,8193 Third,Winterville,NC,28590-7408
Victoria C Diaz,13760 Cedar,Aguada,PR,00602
Alan X Jimenez,9730 Washington,Albuquerque,NM,87154
Sharon F Roberts,19461 View,FPO,NY,09512
Barbara Y Morales,8042 Ninth,Orlando,FL,32885
Jeremy O Carter,12091 Seventh,Sargent,NE,68874
William J Nelson,1532 Lake,Boston,MA,02241-5126
Diane N Cook,16721 Oak,Bronx,NY,10456
Joseph S Flores,15812 Main,Wassaic,NY,12592-0558
Amanda D Ortiz,17017 Third,Rockwood,PA,15557
Nathan L Flores,17983 Ninth,Harrington,DE,19952
Barbara H Campbell,4919 Eighth,Pasadena,CA,91188-1520
Teresa V Ward,7780 First,Texarkana,TX,75505-9066
Kimberly I Wright,11779 Elm,Pavilion,NY,14525-5064
Joshua T Lopez,3364 Third,Muskego,WI,53150-4466
Steven C Campbell,16199 Sixth,Monsey,NY,10952-3648
Jerry E Ruiz,12659 Lake,West Monroe,NY,13167
Robert Z Hernandez,8456 View,Truxton,NY,13158-3560
Diane I Sanchez,8101 Evergreen,Copake Falls,NY,12517
Jacob Q Castillo,5525 Cedar,San Diego,CA,92140
Noah H Cook,14335 Ninth,Winkelman,AZ,85192
Samantha K Lewis,9943 Park,Enterprise,AL,36331
Doris K Williams,2661 Hill,Lorain,OH,44052-5314
Frances P Bennet,10419 Hill,Cordova,MD,21625
Ralph M Bailey,11601 View,Corsicana,TX,75109-1232
Jacqueline Z Brown,18268 Second,Driscoll,TX,78351-1127
Alice T Morales,16171 Hill,Severn,NC,27877-9785
Dorothy D Young,3587 Elm,Bay City,MI,48708
Patrick S Davis,1853 Fifth,Rosanky,TX,78953
Gloria S Parker,3959 Fourth,Whitman,MA,02382
Sarah W Johnson,2076 Sixth,Elvaston,IL,62334
Kimberly B Green,15517 Main,Muscoda,WI,53573
Shirley N Ruiz,18856 First,Arthur,IL,61911
Christian W Ward,13949 Pine,Centerville,IA,52544-3597
Teresa E Myers,10831 Third,Saginaw,MI,48603-1667
Ronald X Bailey,13004 Sixth,Ireland,IN,47545-6788
Daniel Q Smith,8590 Maple,Larned,KS,67550
Kathryn K White,17517 Pine,Valley Springs,AR,72682
Philip L Price,3572 Lake,Beebe Plain,VT,05823
Henry E Sanders,15778 Fifth,Sugarcreek,OH,44681
Rebecca R Diaz,12677 Second,Macon,GA,31216-6116
Russell P Johnson,1413 Cedar,Pearland,TX,77584
Benjamin K Thomas,8672 Second,Deer Lodge,MT,59722
Nicole Y Wilson,2510 Pine,Egeland,ND,58331
Homer J Price,12516 Pine,Washington,DC,20551-9006
George C Foster,7092 Fourth,Vernon,MI,48476-6645
Jack N King,14701 Main,Woxall,PA,18979-7401
Christian Y Davis,11930 Washington,Lexington,KY,40515
Patricia K Lee,8994 Third,Victory Mills,NY,12884
Sarah H Martin,19827 Eighth,Red Lion,PA,17356-9937
George D Reyes,9151 Washington,Clarksville,NY,12041
Linda E Mitchell,14802 Cedar,Glassport,PA,15045
Kayla X Cruz,10567 Oak,Verona,VA,24482-4521
Alan G Wilson,17312 Sixth,Halifax,VA,24558
Scott Y Wilson,12829 Lake,Randall,KS,66963-1436
Denise U Campbell,13931 Fourth,Des Moines,IA,50329
Denise B Rodriguez,328 Main,Star Lake,NY,13690-8236
Frances N Gonzales,1810 Main,Eagle,CO,81631
Sean T Richardson,15445 First,Ashland,AL,36251-1572
Karen U Rogers,4333 Cedar,Milner,GA,30257-6623
Christian Y Watson,7635 Sixth,Miami,FL,33184-4006
Rose V Johnson,3943 Seventh,Valley Forge,PA,19496
Samuel B Ortiz,9850 Hill,Marmora,NJ,08223-2450
Arthur T Turner,12781 Fourth,New Rochelle,NY,10804-3632
Deborah M Kelly,2910 Oak,Solon,IA,52333-2982
Raymond T Torres,16176 Elm,Pascagoula,MS,39569
Rebecca R Simpson,16073 View,Rhodell,WV,25915
Brenda B Mendoza,72 Cedar,Camp,AR,72520-9808
Keith K Jones,19619 Eighth,Petersburg,IN,47567
Sara Z Ortiz,4571 Elm,Brooks,KY,40109
Anna D Reyes,17430 Oak,Austin,TX,78764-6392
Kelly H Bailey,2010 Park,Castanea,PA,17726
Joyce A Wood,11370 Ninth,Southport,ME,04576-5393
Debra D Carter,1947 Park,Pittsburgh,PA,15214
Nancy W Reed,1499 Lake,March Air Reserve Base,CA,92518-0610
Kenneth U Morales,11396 Second,Westerville,NE,68881-5742
Mark L Ramos,1298 Park,Flagstaff,AZ,86001
Kayla U Jimenez,280 Washington,Harshaw,WI,54529
Christine G Ortiz,14941 View,Ashland,MO,65010-3882
Jordan N Stewart,6721 Lake,Goodlettsville,TN,37072
Terry L Jimenez,4678 Ninth,Fresno,CA,93727
Cynthia O King,6894 Second,Twin Falls,ID,83303
Jacob X Reyes,5339 First,Jacksonville,FL,32260-8957
David Y Wood,1320 View,Northampton,PA,18067
Danielle K Thompson,9155 Washington,Amherst,OH,44001-7741
Michelle X Hernandez,17405 Eighth,Russellville,TN,37860-0367
Bobby S Collins,15474 Elm,Daytona Beach,FL,32124-7099
Elizabeth B Edwards,19316 Cedar,Dalzell,SC,29040-9517
Karen X Robinson,12910 Ninth,Los Angeles,CA,90072
Ethan H Brooks,13344 Fourth,San Juan,PR,00922
Aaron D Lopez,9334 Second,Baltimore,MD,21278
Randy E Lewis,6603 Sixth,Lakin,KS,67860
Wayne X Wilson,201 Fifth,Southard,OK,73770-5891
Terry L Turner,1303 Lake,Baton Rouge,LA,70817-5365
Angela D Stewart,9223 Second,Swanton,NE,68445
Debra W Richardson,10719 Cedar,FPO,FL,34091
Gary R Campbell,4825 First,Arlington,VA,22240
Peter D Lewis,1987 Park,Balsam Grove,NC,28708
Marilyn A Hughes,7828 Hill,Vidalia,LA,71373
Christine H Miller,13170 Lake,Amagansett,NY,11930-8341
Kathryn U Allen,13348 Pine,Duluth,GA,30096
Ruth U Harris,634 Second,Gaylord,KS,67638
Kyle L Lee,15913 First,Troy,AL,36081-5442
Kyle Y Jones,6040 Oak,Wewahitchka,FL,32449-1218
Angela P Mendoza,3569 First,Dayton,KY,41074
Jordan E Long,17577 View,DPO,NY,09467
Louis R Diaz,4458 Hill,East Lansing,MI,48824-4429
Kathryn U Reyes,10072 Pine,Gilboa,WV,26671
Elijah G Gomez,19413 Washington,Brooklyn,MS,39425-6606
Jack I Wood,9397 First,Judith Gap,MT,59453
Peter R Patel,7273 Third,Reynolds,NE,68429
Gabriel D Morris,8305 Park,Raynesford,MT,59469
Philip G Chavez,19264 Seventh,Oldtown,ID,83822
Marilyn S Cox,5994 Second,Buffalo,NY,14273-2335
Pamela T Rogers,13870 Eighth,Winston Salem,NC,27108-2448
Andrew M Lee,2942 Fifth,Darden,TN,38328
Alice Y Kim,3703 Second,Sarasota,FL,34239-3267
Noah F Rogers,9416 Pine,Mannsville,KY,42758
Joyce S Rodriguez,4523 Maple,Pearland,TX,77581-9611
Janice E King,16262 First,South Elgin,IL,60177
Frances B White,8070 Hill,Vienna,GA,31092
Bruce S Taylor,11625 Hill,Enterprise,LA,71425-5038
Homer K Castillo,2630 First,Minneapolis,MN,55425-7983
Kimberly Y Gray,8795 View,Sturgeon Bay,WI,54235-0898
Justin P Phillips,15006 Second,Newport,NY,13416-0954
Nicholas Y Brooks,29 View,Red Rock,TX,78662
Stephen O King,2360 Evergreen,East Dixfield,ME,04227-6943
Billy T Turner,789 Sixth,FPO,NY,09570-0918
Anthony N Wright,4654 Maple,Cebolla,NM,87518
Jennifer O Flores,16175 Sixth,Camp Creek,WV,25820-1392
Kathleen S Reed,19280 First,Martinsville,OH,45146-2748
Brian H Clark,7949 View,Kenvil,NJ,07847-0734
Carl I Brown,8183 Main,Bonita Springs,FL,34133-7950
Ryan L Hernandez,11950 Evergreen,APO,CA,96548
Gary Q Sanchez,6095 Pine,Defiance,MO,63341-8257
Noah F Cox,3484 Oak,Mound Valley,KS,67354-5263
Lisa X Richardson,10095 Seventh,Pequea,PA,17565
Bruce Z Murphy,4914 Second,Pocahontas,MO,63779-2736
Kathleen M Hernandez,1052 Washington,Girard,KS,66743-6744
Christine W Gutierrez,17938 Cedar,Pound,WI,54161-0006
Raymond G Patel,10554 Eighth,Henrietta,TX,76365
Timothy I Reed,9099 Main,Elmwood,WI,54740-9850
Joan G Ruiz,1153 Second,Lyndeborough,NH,03082-0940
Carolyn F Martin,1557 Main,Georgiana,AL,36033
Homer Y Rivera,17276 View,Culbertson,MT,59218-6064
Pamela W Parker,17107 Third,Haddon Heights,NJ,08035-1600
Danielle T Edwards,822 Main,Glengary,WV,25421
Virginia R Robinson,13172 Sixth,McDonald,KS,67745
Jonathan P Kim,3804 Lake,Nogal,NM,88341
Jacob W Patel,2463 Hill,El Paso,TX,79908
Beverly O Mitchell,11641 Eighth,Garfield,KY,40140-9091
Joshua F King,7493 Park,Stony Brook,NY,11790
Jonathan X Peterson,7507 Lake,Wasco,IL,60183
Patrick I Martinez,6896 View,Toledo,OH,43614
Michael C Rogers,18241 Oak,Saint Joe,IN,46785-9310
Emma T Gomez,14494 Maple,Cushing,ME,04563
Nancy F Nelson,6842 Pine,Woodstock,IL,60098
Shirley T Miller,17642 Maple,Baytown,TX,77521-0884
Russell Z Allen,18826 Elm,Phenix,VA,23959
Danielle D Watson,1536 Oak,Evart,MI,49631
Noah W Campbell,19114 Hill,Fort Worth,TX,76102-2711
Jean L Stewart,8792 Pine,Burtrum,MN,56318-6046
Rose U Torres,3697 Evergreen,Petersburg,VA,23805
Rachel X Mitchell,6345 Maple,Vidal,CA,92280
Jacqueline J Richardson,17652 Sixth,New Orleans,LA,70183
Ethan U Myers,3877 Maple,New Milton,WV,26411
Virginia U Wood,16361 Fifth,Boerne,TX,78006-8992
Alice B Perez,19000 Main,Lac du Flambeau,WI,54538
Roy T Gray,3738 First,Pinopolis,SC,29469
Virginia W Ruiz,10007 Fourth,Cheshire,OH,45620
Christian I Martin,5848 View,Hobbsville,NC,27946-8309
Bryan W Evans,6981 Oak,Durham,NY,12422-5104
Jonathan Z Johnson,17731 Seventh,Dallas,TX,75355
Gregory T White,8243 Elm,Gill,CO,80624-8421
Maria B Patel,18508 Lake,Warrenville,IL,60555
Frances B Johnson,16828 Seventh,Washington,DC,20001-4830
Kenneth Q Cox,12859 Evergreen,Hamilton,OH,45015-3024
Sandra J Martinez,9063 Cedar,McGregor,ND,58755-0933
Adam E Alvarez,16091 Park,Toluca Lake,CA,91610
Jesse A Miller,15721 Lake,Woodland,PA,16881
Roy E Long,15140 Main,Roseland,VA,22967
Scott P Garcia,2297 Lake,Wykoff,MN,55990-6289
Virginia X Wilson,14854 Elm,Augusta,ME,04333-0549
Ronald X Cox,12746 Ninth,Marquette,WI,53947-8740
Emma L Rogers,4888 Hill,Brooklyn,NY,11225-4317
Brenda W Torres,7084 Cedar,Sonora,KY,42776-3925
Raymond O Rodriguez,8388 Eighth,Nimitz,WV,25978-4068
Denise U Hill,15216 View,Clermont,FL,34715
Rachel D Cooper,11604 Second,Scottsdale,AZ,85260-6360
Noah P Mitchell,8618 Oak,Kemmerer,WY,83101
Katherine K Miller,11418 Fifth,Boyds,MD,20841-7925
Steven E Gomez,6133 Elm,Nash,TX,75569
Patricia A Ward,13875 Lake,Lonsdale,MN,55046
Charlotte N Rivera,7660 Hill,Divide,MT,59727-5328
John P Sanders,3998 Oak,El Paso,TX,88577
Carol H Roberts,6365 Third,Flushing,MI,48433-0361
Helen O Turner,9841 Evergreen,Cincinnati,OH,45212
Willie O Anderson,17519 Lake,Auburn,IL,62615-2115
Lawrence V Gonzales,8188 Seventh,Loveland,OH,45140
Jeremy U Rivera,19972 Ninth,Somers Point,NJ,08244
Alexander L Gonzales,15701 Oak,Baldwin City,KS,66006
Susan T Alvarez,16297 Park,El Paso,TX,88577-5650
Sophia G Thompson,2866 Washington,Woodbury,VT,05681
Arthur S Murphy,3985 Seventh,Sloughhouse,CA,95683
James H Wood,8572 Elm,Ferrisburgh,VT,05456-4107
Megan D Scott,14588 Evergreen,Marston,MO,63866-8740
Alexis C Murphy,18936 Eighth,Christoval,TX,76935-6016
Jeremy H Gomez,7046 Washington,Delmont,PA,15626-3688
Donald N Hill,17574 Fourth,Flint,TX,75762-8971
Beverly B Morris,1399 Second,Manchester,NH,03103-6718
Jennifer D Collins,17578 Seventh,Silver Grove,KY,41085
Andrew S Williams,5880 Lake,Amsterdam,OH,43903
Nicholas V Kelly,4869 Lake,Santa Maria,CA,93458-4805
Joyce F Peterson,4065 Ninth,Mar Lin,PA,17951-0213
Paul P Turner,4566 Washington,Bell,FL,32619
Gerald P Miller,6608 View,Lucama,NC,27851-2968
Lawrence U White,5030 Lake,Adair,IA,50002
Kevin R Cooper,6064 Eighth,Oakwood,IL,61858
Deborah U Kelly,13710 Lake,Stout,OH,45684
Roger T Baker,11920 Pine,New York,NY,10164
Cheryl G Rivera,16004 Pine,Goffstown,NH,03045
Michael A Ortiz,7170 Pine,Gatewood,MO,63942
Patrick E Chavez,11832 Pine,Standish,CA,96128-9190
James Y Patel,901 First,Wisner,LA,71378-5478
Paul B Johnson,12451 Oak,Vista,CA,92084
Wayne P Thompson,19404 Washington,Athens,TN,37303
Gabriel K Sanchez,5482 Park,Sewickley,PA,15143-7279
Beverly M Ramos,4674 Eighth,Belleair Beach,FL,33786
Ryan S Wilson,17621 Second,Picacho,NM,88343
Jack S Young,16619 Maple,Dakota,IL,61018-0563
Marge G Flores,13946 Pine,Knightstown,IN,46148-1200
Gloria N Kelly,5579 Lake,Cummaquid,MA,02637-2604
Joshua Q Baker,4971 Cedar,Lexington,OK,73051
Julie O Johnson,13330 Hill,Eldorado,OK,73537-2565
Lawrence X Smith,11380 Sixth,Pittsfield,PA,16340-1290
Hannah S Evans,19365 Cedar,Ormond Beach,FL,32174-5818
Patricia T Mendoza,3332 Elm,Beckville,TX,75631-8542
Isabella D Peterson,5166 Washington,Morehead,KY,40351-9359
James G Morris,17271 Evergreen,Prairie Hill,TX,76678-1665
Benjamin L Bennet,3061 Seventh,Mount Dora,FL,32756-5673
Danielle N Perez,16745 First,Emerado,ND,58228-1172
Gerald N Ortiz,15956 Oak,Maybell,CO,81640-3506
Nancy E Cruz,17241 Evergreen,Van Dyne,WI,54979
Bruce B Collins,845 Eighth,Pittsfield,VT,05762-9729
Nathan C Cook,4507 Second,Grandview,TN,37337-5589
Michelle F Moore,2721 Main,Marina del Rey,CA,90295-3491
Sophia K Bennet,8014 Evergreen,Pittsburg,CA,94565
Daniel I Gonzales,19683 Fourth,Hollywood,FL,33026
Donna S Reyes,2562 View,Newburyport,MA,01950
Brenda E Hill,15753 Fifth,Buckeye,AZ,85326-0408
Timothy H Howard,2757 Seventh,Lawrenceville,NY,12949
Megan F Peterson,4682 Main,De Soto,IL,62924
Kayla D Diaz,12826 Evergreen,San Diego,CA,92186-1995
Sophia L Gutierrez,13772 Oak,Madisonville,TN,37354
Jacob K Murphy,442 Main,Charleston,MO,63834
Peter U Phillips,19653 Ninth,Twin Peaks,CA,92391-2313
Bobby J Murphy,6596 Seventh,Breaks,VA,24607
Jacob D Hughes,14933 Seventh,Grantsburg,WI,54840-0707
Kayla I Cook,8776 Fifth,Union City,GA,30291
Charlotte I Turner,7131 Cedar,Big Bend,WV,26136-1330
Patrick H Gutierrez,11203 Third,Riverton,WY,82501
Juan U Howard,8110 Ninth,Lewisville,OH,43754-3894
Charlotte C Miller,5872 Third,Glenwood,IL,60425
Kayla J Harris,7001 Eighth,Wannaska,MN,56761
Victoria S Gonzales,7285 Maple,Auburn,WY,83111
Hannah S Diaz,15610 Elm,Bruce Crossing,MI,49912
Carl V Torres,10997 Lake,Montello,NV,89830-5104
Janet V Turner,5306 Fourth,Greenville,MI,48838
Louis F Foster,240 Fifth,Cheboygan,MI,49721
Cynthia H Kim,9316 Fourth,Center,MO,63436
Randy S Gutierrez,4873 Fourth,New York,NY,10258-4103
Anna R Rodriguez,2568 Sixth,Wolfe City,TX,75496
Amanda Q Robinson,18916 Washington,Dacula,GA,30019
Amy Q Thomas,4499 Main,Millville,WV,25432-6018
Alan T Gutierrez,14361 Elm,Cuba,MO,65453
Brian X Simpson,12208 Washington,Childwold,NY,12922
Aaron Z Parker,4640 Fourth,Mountain Home,ID,83647-7655
Natalie Q Cruz,13104 Sixth,Skidmore,MO,64487
Linda K Jones,533 Maple,Albuquerque,NM,87104
Terry G Hill,13897 Ninth,Shreveport,LA,71133
Larry R Morales,12767 Hill,Denver,CO,80232
Evelyn W Anderson,18418 Oak,Vichy,MO,65580
Kathryn K Hill,15702 First,Pawnee,TX,78145-0895
Thomas G Perez,2239 Pine,Blockton,IA,50836-7963
Carol H Sanchez,18069 Maple,Wildie,KY,40492-5639
Douglas L Ruiz,14011 Pine,Center Barnstead,NH,03225
Amanda X Peterson,13985 Sixth,Andes,NY,13731-4905
John L Mendoza,1780 Oak,Clyman,WI,53016
Kenneth G Jackson,14427 Pine,San Diego,CA,92161-9277
Patricia X Parker,4783 Pine,Commerce,TX,75429-3685
Nicholas L Castillo,10985 Cedar,Evansville,IN,47708
Homer A Jackson,2299 Fourth,Corpus Christi,TX,78408
Stephanie M Roberts,3398 Evergreen,FPO,NY,09712
Linda G Collins,14048 Hill,Glen,WV,25088
Christian C Diaz,14930 Seventh,Kenmare,ND,58746
Margaret F Reyes,16244 Sixth,Pickwick Dam,TN,38365-6850
Henry U James,9167 View,Fort Bridger,WY,82933
Theresa I Stewart,19165 Fifth,Asheville,NC,28810
Rachel E Hernandez,1749 Eighth,Arcola,IL,61910
Christian C Turner,17000 Hill,Pickerel,WI,54465
Melissa B Patel,7406 Pine,Pacific Palisades,CA,90272-7857
Brandon I Thompson,3547 View,Raymond,SD,57258
Johnny W Robinson,4141 Fourth,Alexandria,VA,22301-5037
Joan N Ramirez,135 View,Lansing,MI,48911
Charles T Gutierrez,3183 Lake,New Creek,WV,26743-8302
Jacqueline F Cooper,893 Park,Flower Mound,TX,75022-9855
Roger U Ruiz,4935 Fifth,Ames,IA,50012
Natalie B Richardson,4728 Second,Washington,DC,20091
Peter K Edwards,3352 Eighth,Kansas City,MO,64161
Patricia M Green,9002 Hill,Paxton,NE,69155
Zachary T Thomas,18045 Maple,Longwood,FL,32750
Jean U Green,7412 Maple,Rockdale,TX,76567-3871
Ann Y Gonzales,208 Third,Miami,FL,33116-9390
Ralph E Howard,7365 Maple,Bainbridge,GA,39818
Hannah Q Hall,8628 Oak,Red Bud,IL,62278-2625
Kimberly V Jimenez,9680 Evergreen,Lee Center,IL,61331
Denise R Ward,3225 Third,Fort Buchanan,PR,00934
Doris T Richardson,8564 Lake,Independence,LA,70443-7963
Stephen L Ruiz,15178 Seventh,Meriden,CT,06450
Bryan H Allen,11246 Main,Wilton,CA,95693-1278
Austin S Edwards,15696 Fifth,Luck,WI,54853-7290
Grace H Simpson,2115 Lake,Washington,DC,20043-6815
Christina T Lee,18749 Sixth,Sistersville,WV,26175
Joshua Z Phillips,10218 Washington,Peever,SD,57257-0279
Patricia D Richardson,14819 Hill,Streamwood,IL,60107-4562
Deborah K Morgan,12248 Pine,Los Osos,CA,93412
Walter L Campbell,16842 Third,Amherst,CO,80721-0934
Kathryn E Hughes,5398 Cedar,Belmont,NY,14813-2982
Catherine T Brooks,3118 Hill,New York,NY,10026
Isabella J Cox,19995 Fourth,Novi,MI,48374-3463
Walter Y Clark,3880 Cedar,Sigel,IL,62462-3880
Jessica D Adams,5759 First,East Hartland,CT,06027-5107
Tyler H Hill,12210 Elm,Sweet Briar,VA,24595
Margaret F Young,12740 Maple,Madison,MS,39110
Vincent P Morales,14504 Maple,Norfolk,VA,23529-4084
Ann J Howard,668 Maple,Columbus,OH,43214
Logan K Alvarez,2878 Elm,Agoura Hills,CA,91301-2615
Frank Q Lee,19179 Fourth,Conchas Dam,NM,88416
Sarah G Martin,15589 Sixth,Vinegar Bend,AL,36584-5947
Stephanie A Simpson,13513 Park,Rockford,IL,61108-8690
Michelle V Moore,19583 Pine,State University,AR,72467
Gloria J Brooks,14329 Evergreen,Cincinnati,OH,45226-8579
Willie C Clark,15363 Elm,Versailles,NY,14168
Janice K Ramos,12201 Maple,Topeka,KS,66605-6518
Susan B Jimenez,13365 Oak,Arvada,WY,82831
Lawrence K Hernandez,8343 Seventh,Holman,NM,87723-8479
Ronald K Hughes,8535 Washington,APO,NY,09469
Julia I Myers,19177 Seventh,Anaheim,CA,92808-9722
Nicholas U Collins,13270 Fifth,Hedrick,IA,52563-5643
Patricia T Campbell,18435 Park,Igo,CA,96047
Marilyn U Campbell,19346 Eighth,Stockland,IL,60967
Katherine B Wright,12068 Maple,Springfield,MO,65803-9741
Russell Y Mitchell,5968 Pine,Keene,NH,03435
Susan N Kim,1812 Sixth,Lafayette,LA,70504-0064
Donna Y Rivera,1420 Pine,Weatherford,OK,73096
Martha Q Clark,11482 Main,Buffalo,NY,14203
Anthony Y Carter,385 Elm,Whitney,NE,69367
Jordan M James,12645 Elm,Wolcott,IN,47995
Homer I Lewis,18857 Seventh,Myrtle Beach,SC,29587
Charlotte F Hughes,18159 Pine,Saint Clair,MI,48079-7619
Linda Z Edwards,16725 Washington,Gunnison,UT,84634
Raymond G Robinson,10917 Fifth,Chicago,IL,60641-6181
Megan R Watson,12580 Eighth,Paskenta,CA,96074
Laura C Rivera,3925 Fourth,West Stockholm,NY,13696-0573
Homer P Roberts,5426 Cedar,Inglewood,CA,90304
Pamela H Rivera,12635 Third,Sharpsburg,MD,21782
David D Cooper,15978 Fourth,Somerset,IN,46984
Ronald X Cox,18033 Lake,Columbia,SC,29219-5756
Jesse W Hall,4251 Oak,Shreveport,LA,71115
George I Perez,12942 First,Pittsburgh,PA,15281-9639
Christina O Hughes,7124 Cedar,Monterey,IN,46960
Bruce M Thomas,14019 Second,FPO,NY,09516-6304
Jerry G Williams,6313 Hill,Keytesville,MO,65261
Jesse D Scott,15914 Eighth,Cincinnati,OH,45280-2898
Isabella K Lopez,10148 Pine,Spencertown,NY,12165-3922
Brittany V Campbell,5531 Seventh,Magnolia,OH,44643-3994
Kimberly R Nguyen,11177 Fifth,Ashfield,PA,18212-9612
Thomas H Morgan,17394 Lake,Berkeley,CA,94707
Scott L Gutierrez,10146 Fifth,Clarkridge,AR,72623
Lisa M Anderson,3300 First,Lakehead,CA,96051
Austin S Gomez,8467 Third,Elizaville,NY,12523
Thomas W Nelson,4852 Hill,Pepin,WI,54759-8961
Ann S Martin,9776 Fifth,Pierceton,IN,46562-5875
Linda D Evans,3424 View,Washington,DC,20460
Zachary Q Nelson,10510 Evergreen,Lady Lake,FL,32158
Nancy Q Chavez,1353 Lake,Orlando,FL,32834-3247
Samuel P Davis,1689 Fifth,Moosup,CT,06354-5419
Amanda S Hill,3782 Sixth,Miami,FL,33169
Peter N Flores,3795 Oak,Poway,CA,92064-1492
Angela Q Jackson,2982 Fifth,Hopkinton,MA,01748
Carl A Torres,7167 Park,South Roxana,IL,62087
James W Young,18033 Second,Balko,OK,73931-1873
Anna H Watson,8180 Maple,Tyler,TX,75710-1600
Angela M Young,15872 Second,San Marcos,TX,78666-4397
Nicole Q Rodriguez,3751 Ninth,Springfield,MA,01138
Kayla W Nguyen,8195 Main,East Wallingford,VT,05742
Terry I Cooper,10640 Maple,Warner Robins,GA,31088-3158
David P Miller,16106 Oak,Conroe,TX,77302
Brittany O Martin,5029 Oak,Watkins,MN,55389
Jeremy J Adams,1435 Sixth,Mary D,PA,17952
Eric I Alvarez,12571 Lake,Heidenheimer,TX,76533
Margaret A Martin,8611 Hill,Arena,WI,53503
Paul W James,14691 Oak,Kittery,ME,03904-1086
Joseph O Jackson,3857 Sixth,Dahlonega,GA,30533-8679
Aaron D Morales,5539 Main,Grants,NM,87020-1435
Amanda S Flores,11421 Park,Fort Lauderdale,FL,33308
Christina I Reed,8554 Pine,Estell Manor,NJ,08319-3936
Rose M Gonzales,16362 Maple,Chireno,TX,75937-6182
Christian U Green,2640 Sixth,Chapin,IA,50427-3608
Dylan K Rivera,2327 Third,Fullerton,ND,58441
Roger M Lewis,1126 Fourth,Silver Lake,MN,55381-4504
Wayne V Patel,10963 Seventh,Holiday,FL,34692
Donald Y Mendoza,11845 Hill,Waseca,MN,56093
Wayne F Reyes,18199 Second,Saltillo,TN,38370
Kelly H Williams,19155 Main,Haworth,OK,74740
Austin F Lopez,15400 Third,Dividing Creek,NJ,08315-5358
Ryan O Hill,8855 Evergreen,Lorain,OH,44055
Margaret S Turner,4547 Seventh,Overgaard,AZ,85933
Janice R Rivera,6406 Park,Slingerlands,NY,12159-9097
Steven V Cook,11929 Fifth,Odem,TX,78370
Frances N Harris,4337 Oak,Saginaw,MI,48601
Doris X Rivera,5973 Eighth,Warrenton,MO,63383-2392
Homer I Cox,6694 Second,Dallas Center,IA,50063
Arthur D Castillo,8616 Cedar,Epworth,GA,30541
Jessica F Clark,6672 Elm,Pulaski,PA,16143
Rose U Edwards,9519 Oak,Saint Petersburg,FL,33784-6364
Ronald W Mitchell,16852 Park,Notrees,TX,79759-2733
Gerald X Bennet,3708 Maple,San Jose,CA,95116-6882
Jean Y Watson,1814 Pine,Letona,AR,72085-9858
Ryan D Foster,15323 Ninth,Iron City,TN,38463-0434
Noah A Richardson,19068 Sixth,Parker,AZ,85344
Steven L Collins,269 First,Hebron,MD,21830-5767
Robert W Ruiz,5095 Washington,Sublette,KS,67877
Bryan C Clark,16241 Oak,North Salt Lake,UT,84054
Marge X Carter,16902 View,Concordville,PA,19340-6747
Alexander X Taylor,18764 Evergreen,Chicago,IL,60652-7487
Deborah J Brown,2980 Sixth,Iota,LA,70543
Susan B Hughes,13749 Seventh,Paramus,NJ,07653-5799
Elizabeth Y Jimenez,14814 Cedar,Arecibo,PR,00613
Patrick P Murphy,8150 Maple,Elton,WI,54430-5125
Andrew U Long,17871 Second,Boise,ID,83702-4730
Frank L Wilson,15939 Third,Boca Grande,FL,33921-0830
Edward Y Parker,9288 Fourth,Glen Ridge,NJ,07028
Michelle K Jones,8847 Lake,Washington,DC,20594-3921
Sharon W Peterson,5168 Fourth,Magnetic Springs,OH,43036
Kathleen E Cruz,12334 Pine,Crum Lynne,PA,19022-2853
Marge H Sanchez,2237 Sixth,Salt Lake City,UT,84171-3376
Maria I Adams,3195 Fifth,Plainville,IN,47568-5143
Rachel K Brooks,17773 Hill,Melvin,MI,48454-4358
Gloria B Rivera,17096 Park,Tar Heel,NC,28392-0985
Teresa T Nguyen,8629 Hill,Patch Grove,WI,53817-4483
Helen P Harris,15533 Oak,Charlotte,NC,28287-2718
Lauren C Martinez,3371 Ninth,Denver,CO,80220
Christine N Morales,14694 Main,Pittsburgh,PA,15251-3660
Carl T Roberts,10777 Seventh,Douglas,WY,82633-3079
Kayla L Flores,11469 Elm,Rodanthe,NC,27968-0250
Susan O Allen,17239 Second,West Nyack,NY,10994
Gary B Gonzales,15722 Sixth,Morgantown,KY,42261-6520
Lauren O Wright,14597 Evergreen,Glennville,CA,93226-0649
Johnny G Patel,2639 Elm,Dixon Springs,TN,37057
Douglas P Morris,11997 Maple,Port Richey,FL,34668
Megan Z Foster,12914 Evergreen,Clarksville,AR,72830-5155
Melissa T Price,17049 Washington,Maidens,VA,23102-4359
Cheryl E Campbell,4184 First,Hundred,WV,26575
Dylan D Williams,18202 Washington,Boise,ID,83726
Samuel J James,1766 Ninth,Swink,CO,81077-6572
Eric Y Ruiz,14266 Park,Carthage,MS,39051-1142
Kathleen W Campbell,13911 First,Cedar City,UT,84720
Stephen P Smith,15182 Fifth,Greenville,NC,27858-4255
Olivia L Gutierrez,11707 Pine,De Soto,GA,31743
Keith D Wilson,7897 Washington,Gouldsboro,PA,18424
Bryan P Myers,10247 View,Molino,FL,32577
Frank W Richardson,3436 Elm,New Kingstown,PA,17072-9121
Brian V Cook,16780 Elm,Albuquerque,NM,87192
Wayne Y Foster,17442 Eighth,Deane,KY,41812
Willie E Green,3275 Evergreen,Sutton,MA,01590
Julia V Cook,14091 Lake,Fernandina Beach,FL,32035-2579
Sean B Turner,18895 Park,Albion,MI,49224-7976
Rose I Peterson,3923 Park,Wessington Springs,SD,57382
Benjamin A Davis,8532 Sixth,Trimble,MO,64492
Lauren R Lewis,18730 Fourth,Cameron,MT,59720-4080
Karen Y Adams,14814 Washington,Round Rock,TX,78682
Patricia C Brown,310 First,Washington,DC,20410
Kyle Y Chavez,14236 Eighth,Seneca Rocks,WV,26884
Jacqueline U Torres,7767 Seventh,Hobe Sound,FL,33475
Noah C Hall,605 Oak,West Van Lear,KY,41268
Teresa I White,16509 Second,Green Castle,MO,63544
Maggie E Jones,17542 Third,Witherbee,NY,12998-2557
Brian Z Lewis,4573 Ninth,Alpena,SD,57312-7679
Isabella K Turner,18883 Washington,Whitehall,MT,59759
Jose K Collins,9163 Main,Memphis,TN,38127-7260
Diane V Price,3229 Evergreen,Fort Lauderdale,FL,33310-4245
Patrick A Campbell,8598 Seventh,Dover,AR,72837
Edward T Mendoza,12951 Evergreen,Prophetstown,IL,61277
Amy M Thomas,10094 Park,Fisher,PA,16225-0356
Charles G Reed,8884 Pine,Oxford,GA,30054
Carl E Lewis,7587 First,Scandia,MN,55073
Patricia W Jones,17863 Elm,Wimberley,TX,78676-6746
Zachary Q Kelly,6172 Seventh,Rapidan,VA,22733
Jessica U Edwards,1503 Seventh,Lakewood,IL,62438
Billy X Taylor,6888 First,Salt Lake City,UT,84143-3681
Natalie J White,11445 Second,Rock Spring,GA,30739
Heather M Edwards,661 Maple,Dayton,OH,45406-7462
Bobby U Cruz,14256 Pine,Rodessa,LA,71069-2389
Homer T Peterson,16679 Sixth,Searsport,ME,04974-9500
Nancy I Murphy,15766 Second,Longview,TX,75601-4122
Peter T Turner,1220 Lake,Salem,NY,12865-9774
Anna W Edwards,431 Eighth,Glen Arbor,MI,49636
Denise J Gonzales,9119 Cedar,Tomahawk,WI,54487
Janice C Bennet,9604 Fourth,Woodston,KS,67675
Alexis M Diaz,15278 Maple,Derby Line,VT,05830-4888
Jennifer O Long,1700 Second,Montgomery,AL,36132-0534
Christina E Watson,531 Evergreen,Lubbock,TX,79414-2227
Matthew V Ramos,7684 Oak,Pease,MN,56363-1936
Russell O Robinson,14897 First,Newberry,SC,29108
Noah M Rivera,16464 Washington,Campbell,CA,95008-7665
Diane R Roberts,7821 Third,Dayton,PA,16222
Karen L Watson,2046 View,Lewisville,TX,75077
Maria Z Alvarez,18547 First,East Millsboro,PA,15433-8171
Brittany Y Ross,1579 First,Forest Park,GA,30297-5903
Kelly R Patel,11993 Washington,Macy,NE,68039
Linda A Rogers,9567 Lake,Honeoye,NY,14471
Mark G Ruiz,4196 Main,Venice,FL,34284-9982
Cynthia H Hernandez,19846 Maple,French Settlement,LA,70733-9449
Ralph X Howard,2459 Maple,Palmdale,CA,93550
Ashley X Flores,14405 Third,Washington,DC,20076
Stephen G Ramos,678 Fifth,Waterport,NY,14571-0324
James I Edwards,4176 Hill,Atlanta,GA,30371-8828
Bryan U Stewart,2181 View,APO,NY,09824
Steven W Roberts,12757 Cedar,Mahomet,IL,61853-1727
Jack Q Miller,6713 Evergreen,Alto Pass,IL,62905-4676
James G Ward,12416 Elm,Jadwin,MO,65501
Emily U Jimenez,11692 Fourth,Prescott,IA,50859
Ralph I Williams,3503 Elm,Ford Cliff,PA,16228-1343
Joseph P Rivera,3808 Fifth,Fort Leonard Wood,MO,65473
Isabella X Harris,9437 Eighth,National City,CA,91950-1250
Roy P Hill,13997 Park,Arlington,TX,76003
Martha H Edwards,3025 Fifth,Bronx,NY,10469-5613
Madison D Wilson,1775 Hill,Savannah,GA,31414-4094
Kelly L Torres,16485 Oak,Ocala,FL,34472
Julia Q Thompson,11253 Elm,Hattiesburg,MS,39406
Cheryl G Parker,8994 Seventh,Hoopeston,IL,60942
Isabella A Cook,9378 Hill,Sinclair,WY,82334
Kimberly V Rivera,12850 Seventh,Manasquan,NJ,08736
Marilyn M Jackson,19117 Hill,Eastanollee,GA,30538
Kyle Y Allen,48 Third,Morristown,NJ,07963-4338
Marilyn N Reed,5396 Cedar,Nicktown,PA,15762
Benjamin L Stewart,11182 Evergreen,Anita,PA,15711-5168
Willie P Alvarez,14428 Second,Tennessee Colony,TX,75886-2468
Johnny Y Ruiz,17102 Seventh,Helvetia,WV,26224
Alice N Moore,4956 Hill,Rector,AR,72461-6470
Henry J Taylor,13916 Main,Norwood,VA,24581
Willie G Bennet,13767 Oak,Joliet,IL,60431-0741
Ashley P Ward,16976 First,Atlanta,GA,30306
Helen T Hill,1044 Elm,Syracuse,NY,13203-4546
Patrick R James,2037 View,Gaithersburg,MD,20898
Andrea B Wright,12256 Fourth,Morning Sun,IA,52640-1520
Timothy I Wilson,9006 Evergreen,Birmingham,AL,35242-4993
Melissa M Reed,613 Fourth,Washington,DC,20019-8747
Amy D Simpson,11958 Lake,Convent,LA,70723
Denise J James,824 Oak,Enloe,TX,75441-1083
Bryan P Howard,3588 Ninth,Chula Vista,CA,91911
Andrea H King,11638 Second,Harrisonburg,VA,22807
Joan P Edwards,1601 Cedar,Texhoma,OK,73949-7345
Harold Z Turner,16164 Fourth,Indianapolis,IN,46224-2830
Carl L Hall,14646 Maple,Wanblee,SD,57577
Joseph X Turner,67 Elm,San Antonio,TX,78293
Johnny B Murphy,14704 Washington,Hooper,UT,84315-0372
Cheryl K Hill,12982 Ninth,Clearwater,FL,33757
Joyce W Long,11396 Elm,Houston,TX,77048
Maggie P Gonzales,1033 Second,Oxon Hill,MD,20745
Christian B Mitchell,1296 First,Highland Park,IL,60035-0517
Patricia L Reed,13779 Fifth,DPO,NY,09739-3888
Juan V Collins,2699 Lake,Fairmont,WV,26554
Judy K Rodriguez,12226 Fifth,Woodsville,NH,03785
Gary R Lopez,12554 Main,Los Angeles,CA,90042
Douglas T Morris,9300 Hill,Mendota,IL,61342-2567
Anna S Roberts,12789 Fifth,Durant,OK,74701-1923
Mark W Gray,17527 Lake,Hialeah,FL,33011
Gabriel C Martin,3239 Second,Palm Harbor,FL,34682-5796
Albert W Sanders,1621 Park,Reidsville,NC,27323
Brian O Edwards,19435 Park,Decatur,IL,62525-9441
Patricia B King,19571 Eighth,Murray,IA,50174-1560
Mark V Phillips,4411 Fifth,Rogersville,AL,35652-9050
Christina E Watson,1148 Oak,Gaffney,SC,29341-3301
Bryan G Scott,13243 Fourth,Holmes,PA,19043-7657
Joyce P Lopez,5889 Eighth,Pompano Beach,FL,33062-7660
Stephen R White,6291 Eighth,Hixson,TN,37343
Isabella S Martin,4096 Ninth,Bath,MI,48808-0526
Olivia P Young,12415 Ninth,Riner,VA,24149
Gary N James,8667 Elm,East Bethany,NY,14054-3751
Emily X Gonzales,14972 Park,Hunter,NY,12442
Brenda L Collins,4724 Pine,Sterling,KS,67579-2190
Betty T Ward,18534 Pine,Saint Paul,MN,55155-9640
Joyce A Rivera,8341 Park,Riverton,IA,51650
Brittany N Howard,2762 Evergreen,Brussels,IL,62013
Peter P Robinson,17518 Elm,Forestville,WI,54213-0151
Rose I Anderson,17077 Hill,Sacramento,CA,95864
Sarah L Wood,7082 Hill,Huntsville,AL,35816
Matthew A Hernandez,15044 Lake,Haileyville,OK,74546-1679
Logan J Torres,2455 Fourth,Steamboat Springs,CO,80477-4925
Jack U Martinez,17796 Seventh,Sheridan,CA,95681
John T Torres,15811 Fourth,Victoria,IL,61485
Samantha W Bailey,15987 Pine,San Luis Obispo,CA,93401-7880
Anna A Price,5662 Second,San Diego,CA,92177-5685
Daniel M Lee,11717 Eighth,Falmouth,MI,49632
Jose X Gomez,11503 Evergreen,Rockton,PA,15856-5185
Janet P Thomas,8447 First,Springhill,LA,71075-0632
Gloria X Lee,8404 Evergreen,Valdosta,GA,31604
Willie G White,4596 Ninth,Pittsburgh,PA,15222-4378
Benjamin S Carter,10048 Lake,Shelby,NC,28150-7661
Scott K Torres,10078 Cedar,Knoxville,TN,37921
Marilyn X Taylor,9316 Park,Monroe,GA,30656-5266
Thomas W Gray,19867 First,Rockford,IL,61101-5737
Michael S Thompson,12790 Fourth,Stanford,IL,61774
Larry V Walker,16321 Park,Asheville,NC,28814-5687
Jennifer J Bennet,13790 Washington,Denton,TX,76201
Michelle I Rodriguez,659 Third,Sarasota,FL,34230
James L Parker,7417 Sixth,Norton,TX,76865
Carolyn B Harris,14428 Oak,Great Falls,SC,29055-6213
Steven I Evans,5440 Pine,Jacksonville,FL,32234
Deborah O Evans,14821 Hill,Early,IA,50535-2950
Rachel X Hill,17200 Washington,Guaynabo,PR,00966-0865
Eric Z Rogers,60 Fourth,Blount,WV,25025-8621
Andrew A Brooks,1962 Elm,Harleigh,PA,18225-9147
Lisa A Jones,3946 First,APO,NY,09855-5530
Teresa N Collins,10035 Sixth,Oakton,VA,22124
John Y Alvarez,13845 Evergreen,Foosland,IL,61845-3113
Julie H Garcia,7474 Maple,Chickasha,OK,73023-3896
Cheryl M Morgan,14506 Fourth,Terre Haute,IN,47804-8374
Sharon W Simpson,11206 Elm,El Paso,TX,88567-7989
Sean N Garcia,6787 Fifth,Sealy,TX,77474
Jeremy V Anderson,6660 Eighth,Mount Eden,KY,40046
Angela Q Gutierrez,3993 Cedar,Kansas City,MO,64118-4400
Alice I Martinez,19973 Sixth,Austin,TX,78719-7476
Andrew A Phillips,11096 Sixth,Cynthiana,IN,47612-3049
Susan F Clark,18485 Maple,Prospect,VA,23960
Jessica F Gomez,8693 Seventh,Newhebron,MS,39140-0396
Harold H Edwards,16898 Washington,Rogers,NE,68659-5923
Douglas F Chavez,17036 Park,Wood Dale,IL,60399-2556
Pamela V Bailey,11472 Hill,Sharon,SC,29742-2824
Benjamin E Hughes,7185 Fourth,El Paso,TX,79936
Christopher Q Edwards,5023 Seventh,San Diego,CA,92191
Doris D Watson,15269 Main,Oakland,CA,94614-0248
Donna Y Ross,1098 Third,New Deal,TX,79350-3393
Keith Z Bennet,6589 Main,Parrott,VA,24132-5749
Frances P Bailey,4200 Elm,Flagtown,NJ,08821-0948
Maggie M Walker,17362 First,Bartow,FL,33830-8418
Nicole N Gomez,1611 Ninth,Zephyrhills,FL,33539
Roy U Nguyen,14332 Main,Jackson Heights,NY,11372
Joshua S Young,816 Elm,New Holstein,WI,53061
Julie I Anderson,4634 Park,Catharine,KS,67627
Alexis A Ramos,10957 Lake,Denton,TX,76204-2066
Daniel F Hughes,17572 Pine,Hodgenville,KY,42748
Jeremy O Cook,17720 Third,Grover Hill,OH,45849-2364
Shirley H Foster,7215 Fourth,Richfield,UT,84701-2876
Joshua I Simpson,4277 View,Kissimmee,FL,34746-3540
Ruth T Davis,16559 Cedar,New Lisbon,IN,47366
Debra K Campbell,4288 Park,Oscoda,MI,48750-7520
Lisa P Cox,18366 Park,Haverhill,MA,01835
Jeremy T Evans,8354 Oak,Allendale,IL,62410
Laura D Johnson,2086 Second,East Bend,NC,27018
Justin H Brown,11565 Third,Oakwood,IL,61858-4974
Mark S Ward,11626 View,Shenandoah Junction,WV,25442-3948
Kayla C Hall,19203 Eighth,Stevenson,AL,35772-2965
Homer Q Morris,12010 Fifth,Charlotte,NC,28246-2531
Jesse G Myers,13335 Seventh,Concan,TX,78838-6658
Dylan X Phillips,3601 Hill,Frederica,DE,19946
Homer D Wilson,15498 Park,Silverthorne,CO,80498
Linda G Richardson,13024 Fifth,Greeneville,TN,37745
Jose B Ward,17392 Hill,Dundee,KY,42338-1054
Mary W Hernandez,5736 Ninth,Leming,TX,78050
Bobby B Murphy,19432 Elm,Scotia,CA,95565-9606
Angela X Lewis,1687 View,Bronx,NY,10460-6641
Harold A Edwards,3478 Ninth,Bottineau,ND,58318-0285
Tyler K Flores,2260 Third,Jacksonville,FL,32257
Joe N Alvarez,2389 Main,Omaha,NE,68109
Jean X Gonzales,12100 Evergreen,Lansing,MI,48901-6794
Catherine U Morales,13013 Pine,Jigger,LA,71249
Jonathan L Ortiz,18976 Main,Heidelberg,MS,39439
James I Rodriguez,10293 First,East Texas,PA,18046
Arthur S White,2895 Fourth,Marston,MO,63866
Jessica D Thompson,12017 Oak,Pueblo,CO,81005
Pamela A Anderson,5335 Fifth,Mulga,AL,35118
Susan W Robinson,14483 Eighth,Elizabeth,NJ,07208-7839
Linda T Adams,4942 Main,Jacumba,CA,91934-6695
Logan J Foster,7855 Maple,New York,NY,10017
Edward T Bennet,5603 Cedar,Moneta,VA,24121
Wayne M Scott,8355 Fifth,Waterford,MI,48328-9571
Brandon J Miller,11534 Pine,Baton Rouge,LA,70826
Benjamin Q Garcia,16220 Fifth,San Francisco,CA,94142
Kayla V Morris,1008 Fourth,Union Lake,MI,48387
Jack L Parker,4924 Ninth,Hillsdale,IN,47854-8306
Marie Q Torres,5619 Pine,Highland Lakes,NJ,07422-3231
Daniel Q Turner,12908 View,Hancock,ME,04640
Theresa H Rodriguez,2841 View,Armada,MI,48005-4080
Judith I Chavez,769 First,Franklinton,NC,27525
Sean X Kelly,529 Second,Joplin,MT,59531
Brittany H Scott,8712 First,Mammoth Cave,KY,42259-3554
Jessica J Kelly,13544 Evergreen,Baton Rouge,LA,70879
Judy I Young,7972 Lake,Brooksville,MS,39739-3964
Andrew F Price,18041 Cedar,Buffalo,NY,14221-9135
Lauren K Castillo,16873 Pine,Arkdale,WI,54613
Michael M Phillips,5488 Sixth,Napa,CA,94559
Danielle O Jones,4621 Fifth,El Paso,TX,88530
John E Hernandez,11597 First,Jacksonville,AL,36265-3853
Martha R Walker,5540 Cedar,Naples,FL,34103
Carl G Roberts,4827 Sixth,Dawson,GA,39842
Isabella K Carter,5558 Hill,South Lima,NY,14558-1424
Donald J Nelson,15009 Pine,San Diego,CA,92112
Brian E Reyes,15703 Park,Newport,ME,04953
Evelyn I Ortiz,16488 Fifth,Raleigh,NC,27607
Billy G Lopez,8497 Ninth,Webster,MA,01570-7588
Kelly Y Sanders,8240 Washington,Gainesville,FL,32606-9187
Larry H Martinez,11737 Third,Pinehill,NM,87357-9501
Jennifer L Harris,4087 Lake,Carol Stream,IL,60132
Albert N Ortiz,5185 Ninth,La Quinta,CA,92248-8623
Isabella A Cooper,4639 Elm,Collins,IA,50055-7330
Wayne J Richardson,269 Hill,Louisville,KY,40203-3034
Janice R Ruiz,4560 Fourth,APO,NY,09009
Rachel R Rivera,16306 View,Quapaw,OK,74363
Rachel K Moore,2215 Ninth,Fredericksburg,VA,22402
Ralph P Howard,10229 Oak,Jacksonville,FL,32217-4183
Gabriel J Collins,8799 Third,Scottville,NC,28672
Jeremy P Rivera,15846 Hill,New Smyrna Beach,FL,32170-9745
Donald P Wood,6521 Evergreen,Red Bluff,CA,96080
Gabriel X James,7784 Fifth,La Belle,PA,15450
Sharon S Bennet,3665 Maple,Farmland,IN,47340
William L Ramos,13387 Elm,Bethpage,NY,11714-6142
Virginia S Gray,7590 Main,La Mesa,CA,91944-2191
Nancy P Gutierrez,17159 Eighth,Lynchburg,SC,29080-6237
Kyle N Hughes,19426 Sixth,Stow,NY,14785
Joe W Kim,16207 Seventh,White Bird,ID,83554-8764
Scott N Ward,10096 Sixth,Breda,IA,51436-5567
Sarah T Moore,14584 Seventh,Jamestown,KY,42629
Gloria V Foster,2814 Third,Waco,TX,76711-6133
Juan W Adams,16602 Evergreen,Rumford,RI,02916
Aaron V Hall,14995 Second,Louisville,NE,68037
Andrea P Mendoza,7430 Maple,Aurora,NC,27806
Johnny K Foster,13247 Main,Haviland,OH,45851
Marie V Baker,11769 Eighth,Bonifay,FL,32425
Janet D Adams,14683 Cedar,Castana,IA,51010-4079
Nicole H Gray,3692 Eighth,Franklin,ME,04634
Vincent T Ramirez,19627 Cedar,Moore Haven,FL,33471-8544
Rachel R Bennet,7169 Lake,Knightstown,IN,46148
Michelle K Thompson,16929 Sixth,Houston,TX,77065
Peter R Alvarez,15016 Maple,Myrtle Beach,SC,29587
Doris X Myers,1712 Hill,Hawkeye,IA,52147-5498
Rebecca R Harris,19015 Cedar,Buckner,MO,64016-9388
Maggie Y Green,12780 Hill,Flint,MI,48553-1684
Abigail D Foster,3475 Second,Crane,MT,59217-8629
Michael X Bennet,16416 Fourth,Earlimart,CA,93219
Deborah K Miller,9775 Elm,Driscoll,ND,58532
Lisa W Brown,19477 Second,East Saint Louis,IL,62206-1539
Gary R Perez,6446 Sixth,Birchwood,WI,54817-9486
Julia T James,1082 Second,Cave City,AR,72521
Stephanie M Morgan,14821 Washington,Greenbush,WI,53026
Mary F Hill,11195 Main,Grand Rapids,MI,49548
Natalie U Ross,11966 Lake,Alhambra,IL,62001
Bart M Wright,1116 Seventh,West Point,IA,52656
Robert D Gutierrez,19609 Main,Danville,KY,40423-9977
Adam Y Morgan,2206 Fourth,Newfolden,MN,56738
Theresa X Bailey,19469 Seventh,Francestown,NH,03043
William F Nguyen,1805 Fifth,Hobart,IN,46342
George Z Reed,15810 Pine,Satsuma,AL,36572
Russell K Edwards,10689 Oak,Houston,TX,77005
Bobby N Bailey,2038 View,Sandy,UT,84070
Roger N Turner,19051 Maple,Chestnut Mound,TN,38552
Laura C Hill,4589 Eighth,Fairlea,WV,24902-4016
Lisa O Castillo,3072 Oak,Auburn,NE,68305-9589
Randy C Richardson,10212 Evergreen,Merritt Island,FL,32954-4024
Joyce M Rogers,8232 Oak,Colorado Springs,CO,80915
Jesse E Brooks,18649 Sixth,Silverdale,PA,18962
Elizabeth J Wright,18980 Maple,Mays,IN,46155-2003
Jean S Brown,9029 Sixth,Rocky Point,NY,11778
Stephen T Lee,19911 Sixth,Twin Brooks,SD,57269
Jesse Q Foster,16458 Oak,Roanoke,VA,24002-8212
Ralph A Brown,18988 Hill,Sprague,NE,68438-4822
Alice N Gray,7388 Evergreen,Houck,AZ,86506-9789
Louis N Jones,11625 Eighth,Forest Hill,LA,71430-4581
Lawrence A Mendoza,5680 Eighth,Chiefland,FL,32626-5412
Alexander X Walker,15314 Eighth,Marshall,VA,20116-1193
Amber Z Alvarez,477 Main,Morrowville,KS,66958-3834
Douglas N Chavez,1511 Washington,Hunlock Creek,PA,18621
Logan D Ward,5526 Washington,Ellsworth,OH,44416-5439
Nancy B Gray,1715 Third,Saint Louis,MO,63132-1831
Marge F Castillo,8487 Seventh,Shiprock,NM,87420
Evelyn I Torres,4203 Evergreen,Kinston,AL,36453-2917
Matthew F Harris,11679 Maple,Bradley,OK,73011
Stephen H Foster,14024 Main,Dallas,TX,75229-6139
Kelly L Cox,3172 Hill,Creston,NC,28615
Melissa F Turner,1557 Pine,Cascilla,MS,38920-2508
Kathleen E Adams,13618 Ninth,Cameron,TX,76520
Gregory K Cruz,18184 Fourth,Gate,OK,73844
Denise Z Walker,6977 Ninth,Brooklyn,MI,49230-5482
Kelly H Perez,16259 Maple,Paw Paw,MI,49079
Maria B Wood,13236 Second,Blue,AZ,85922
Patricia V Diaz,10480 Maple,Washington,DC,20035
Zachary N Simpson,4659 Fifth,San Juan,PR,00931-5305
Scott O Castillo,7694 View,Clayton,LA,71326-0987
Natalie Y Brown,2725 Maple,Gainesville,FL,32605-9901
Ruth J Jackson,8835 Lake,Macedon,NY,14502
Wayne I Nguyen,17462 Fourth,Chicago,IL,60623
Katherine U Hall,15399 Hill,Whitlash,MT,59545-6406
Samantha L Cooper,511 Washington,De Soto,IA,50069
Ryan E Jackson,11627 Eighth,Balko,OK,73931
Katherine P Johnson,19392 Fourth,Robinson Creek,KY,41560-1522
Bruce H Morris,15721 Seventh,Lexington,GA,30648
Jordan E Foster,54 Eighth,Lafayette,OH,45854-4710
Philip P Walker,4394 Second,Chambersburg,PA,17202
Keith A Thompson,8262 Fourth,Huddleston,VA,24104-0336
Marge J Peterson,2877 Lake,Mexico,ME,04257
Rebecca X Wilson,17387 Main,Washington,DC,20599-6321
Diane C Gonzales,10062 Elm,Corning,CA,96021
Ronald Q Taylor,13104 Park,Mulhall,OK,73063
Sophia O Moore,15048 Pine,Lakeside,NE,69351
Angela Z Evans,19105 Oak,Union Grove,AL,35175-3271
Eric P Cooper,17898 Hill,Henderson,TN,38340-6937
Kathleen W Allen,15081 Third,Bismarck,ND,58504-8675
Susan A Bailey,3069 Fourth,West,MS,39192
Jason S Sanchez,1226 Fourth,Pineville,PA,18946-9646
Juan M Price,17236 Cedar,Pocomoke City,MD,21851-3842
Kayla G Reyes,14132 Fifth,Monroe,NY,10949-2302
Karen S Edwards,18257 Seventh,Dallas,TX,75374-3684
Jose X Walker,34 Park,South Lyon,MI,48178
Cynthia W Johnson,17259 Third,Washington,DC,20522
Nancy W Richardson,8372 Pine,Hamilton,KS,66853
Arthur K Harris,5478 Lake,Des Moines,IA,50369-9639
David J Rogers,2057 Evergreen,Susanville,CA,96127
Christopher W Miller,15809 Maple,Payson,IL,62360-6692
Paul G Cox,11879 Main,Los Angeles,CA,90039-0778
Bryan V Morales,19784 Lake,Eola,IL,60519-3789
Debra K Alvarez,15672 Main,Nielsville,MN,56568
Doris N Myers,18582 Park,Guilford,CT,06437
Larry E Jimenez,16382 Second,Hammond,LA,70402-1506
Donna N Clark,492 Fifth,Meriden,NH,03770
Jonathan G James,1691 Elm,Madison,TN,37116-7307
Cynthia S Morgan,3779 Oak,Askov,MN,55704
Samantha X Parker,3238 Maple,Topmost,KY,41862-8515
Jonathan O Bennet,17128 Park,Robert,LA,70455-4376
Natalie A Diaz,2170 Fifth,DPO,NY,09490-6930
Brian D Bennet,8722 Oak,Canyon,CA,94516
Scott W Castillo,15009 Seventh,Fresno,CA,93747-2004
George R White,17878 Cedar,Harper,WV,25851-6844
Frances G Ruiz,18581 Fifth,Lawrenceville,PA,16929
Nancy A Ramirez,5514 Elm,West Orange,NJ,07052-9331
Eric X Myers,19151 Seventh,Murfreesboro,TN,37127
Paul D Howard,18209 Second,Green Road,KY,40946
Scott V Sanchez,7851 Seventh,Croton on Hudson,NY,10520-1859
Kimberly V Bennet,10119 Third,Cleveland,TX,77327-4414
Joan C Diaz,2147 Pine,Perkins,MI,49872-1179
Jonathan O Lewis,4148 Elm,Johnsonburg,PA,15845-0196
Eric R Rodriguez,18653 Maple,Decker,MI,48426
Adam M Chavez,8395 Second,Palisades Park,NJ,07650
Gerald O Stewart,19327 Main,Coolidge,KS,67836-6413
Jacob O Clark,10672 Eighth,Hurley,WI,54534-3827
Gregory Q Peterson,3517 Ninth,Stryker,OH,43557-6054
Roy X White,14769 Main,Henryville,PA,18332-6484
Amber D Gonzales,8998 Fifth,Clarkesville,GA,30523-9692
David E Harris,15719 Fifth,China Village,ME,04926-4379
Jacob E Castillo,10815 Main,Houghton,NY,14744-3305
Denise U Jimenez,11659 Pine,Winston Salem,NC,27152
Margaret S Diaz,3803 Eighth,Renfro Valley,KY,40473-2940
Bruce O Sanchez,5566 Washington,Aguanga,CA,92536
Janet R Wilson,8283 Hill,Sheridan,TX,77475
Diana J Smith,12179 Maple,Buffalo,NY,14220
Wayne R Martinez,10361 Lake,Beckville,TX,75631-2660
Jacob C Wright,13857 Hill,Cedarpines Park,CA,92322
Beverly X Cook,11435 Elm,Massapequa Park,NY,11762-5212
Louis F Kim,13295 Park,Larkspur,CA,94977
Raymond O Myers,18131 Sixth,Sacramento,CA,94211
Martha U King,6318 Washington,Kevin,MT,59454-3623
Christina R Turner,16846 Third,Berger,MO,63014
Frank G Rivera,14061 Fifth,East Haddam,CT,06423-1188
Dorothy I Patel,14331 Seventh,Durham,NC,27705-7549
Jessica E Diaz,16060 Third,Fort Ann,NY,12827-6530
Catherine R Smith,17469 Oak,Jamestown,MO,65046-7098
Russell U Ortiz,15120 Ninth,Montrose,GA,31065-6526
Maggie O Hernandez,838 Maple,Tilleda,WI,54978-5334
Sean U Sanchez,7517 View,Cambridge,MA,02140
Brenda G Johnson,18651 Sixth,Carson City,MI,48811
Walter W Richardson,13971 Fifth,Hyrum,UT,84319
Cheryl G Garcia,10651 First,Moccasin,MT,59462
Kathleen G Taylor,1799 Lake,Lone Jack,MO,64070
Arthur F Williams,2101 Cedar,Midfield,TX,77458-4273
Danielle P Adams,4531 Oak,Dayton,OH,45433-4208
Julia A Scott,16511 Main,Spartanburg,SC,29301
Kathleen P Cox,12345 Seventh,Albuquerque,NM,87116-5187
William A Baker,15545 Washington,Washington,DC,20576-0367
Madison R Long,11691 Cedar,Hopewell Junction,NY,12533
Jean H Harris,18397 Main,Columbus,NC,28722
Randy G Lopez,6483 Fourth,Maumelle,AR,72113
Ann O Martin,13470 Seventh,Fort Lauderdale,FL,33348-2575
Adam Y Rivera,2455 Maple,Litchfield,MN,55355-6025
