{"distinct": [[{"name": "amy f thomas", "street": "9299 cedar", "city": "shawnee on delaware", "state": "pa", "zip": "18356"}, {"name": "emily long", "street": "3323 third blvd", "city": "providence", "state": "ri", "zip": "02909"}], [{"name": "jennifer j davis", "street": "9483 lake", "city": "mcgregor", "state": "tx", "zip": "766576787"}, {"name": "jack murphy", "street": "1217 elm dr", "city": "little rock", "state": "ia", "zip": "51243"}], [{"name": "denise b gonzales", "street": "19366 lake", "city": "fentress", "state": "tx", "zip": "786220860"}, {"name": "natalie stewart", "street": "17541 hill dr", "city": "minneapolis", "state": "mn", "zip": "55421"}], [{"name": "alexis f ortiz", "street": "7611 view", "city": "vandemere", "state": "nc", "zip": "285871219"}, {"name": "gregory phillips", "street": "4645 hill pkwy", "city": "brentwood", "state": "ny", "zip": "11717"}], [{"name": "alexis x cruz", "street": "15014 seventh", "city": "manassas", "state": "va", "zip": "201134364"}, {"name": "philip chavez", "street": "815 park pl", "city": "cresskill", "state": "nj", "zip": "07626"}], [{"name": "willie m campbell", "street": "5472 fourth", "city": "woodman", "state": "wi", "zip": "538272744"}, {"name": "david chavez", "street": "16561 seventh pl", "city": "morse", "state": "tx", "zip": "79062"}], [{"name": "gary y carter", "street": "740 evergreen", "city": "natural bridge", "state": "va", "zip": "245783760"}, {"name": "kevin foster", "street": "7165 pine way", "city": "masonville", "state": "co", "zip": "80541"}], [{"name": "kayla i james", "street": "11435 sixth", "city": "concordia", "state": "ks", "zip": "669012035"}, {"name": "harold price", "street": "1132 lake dr", "city": "colorado springs", "state": "co", "zip": "80918"}], [{"name": "patrick z king", "street": "8788 second", "city": "lenexa", "state": "ks", "zip": "66227"}, {"name": "katherine walker", "street": "878 cedar way", "city": "fulton", "state": "sd", "zip": "57340"}], [{"name": "rachel k lee", "street": "14512 lake", "city": "rockville", "state": "ri", "zip": "02873"}, {"name": "alexis baker", "street": "3135 maple pkwy", "city": "ames", "state": "ia", "zip": "50014"}], [{"name": "joe m ruiz", "street": "10521 evergreen", "city": "pennsauken", "state": "nj", "zip": "081109709"}, {"name": "roy scott", "street": "9030 sixth blvd", "city": "jasper", "state": "mo", "zip": "647558137"}], [{"name": "linda k evans", "street": "14134 evergreen", "city": "stamford", "state": "vt", "zip": "053520708"}, {"name": "sean rivera", "street": "15793 eighth pkwy", "city": "macy", "state": "ne", "zip": "68039"}], [{"name": "julia q moore", "street": "752 maple", "city": "james city", "state": "pa", "zip": "167349300"}, {"name": "natalie reed", "street": "19758 second way", "city": "long green", "state": "md", "zip": "21092"}], [{"name": "thomas g cook", "street": "8136 ninth", "city": "killeen", "state": "tx", "zip": "765435407"}, {"name": "daniel taylor", "street": "16879 evergreen dr", "city": "pleasureville", "state": "ky", "zip": "40057"}], [{"name": "mary v mendoza", "street": "19359 hill", "city": "colchester", "state": "vt", "zip": "05439"}, {"name": "adam price", "street": "344 cedar ct", "city": "mcclure", "state": "oh", "zip": "43534"}], [{"name": "aaron d hill", "street": "4243 park", "city": "coram", "state": "mt", "zip": "59913"}, {"name": "donald gray", "street": "11655 ninth ct", "city": "savanna", "state": "il", "zip": "61074"}], [{"name": "jacob s jimenez", "street": "10927 sixth", "city": "columbus", "state": "ga", "zip": "319981469"}, {"name": "peter alvarez", "street": "19970 washington blvd", "city": "thousand island park", "state": "ny", "zip": "13692"}], [{"name": "maria m turner", "street": "10595 view", "city": "ethel", "state": "wv", "zip": "25076"}, {"name": "joyce moore", "street": "1521 elm pl", "city": "covington", "state": "ga", "zip": "300147186"}], [{"name": "gregory o king", "street": "10069 first", "city": "shrewsbury", "state": "nj", "zip": "07702"}, {"name": "john gray", "street": "19508 eighth dr", "city": "boswell", "state": "in", "zip": "47921"}], [{"name": "roger v gutierrez", "street": "1659 eighth", "city": "los angeles", "state": "ca", "zip": "90076"}, {"name": "olivia evans", "street": "13521 sixth blvd", "city": "fpo", "state": "ca", "zip": "96543"}], [{"name": "barbara j reed", "street": "9313 lake", "city": "sycamore", "state": "ks", "zip": "67363"}, {"name": "ann walker", "street": "2868 ninth way", "city": "manitou", "state": "ky", "zip": "424368730"}], [{"name": "kathleen b mitchell", "street": "5470 maple", "city": "winter park", "state": "fl", "zip": "327909513"}, {"name": "karen jimenez", "street": "10819 cedar ct", "city": "margate city", "state": "nj", "zip": "084027128"}], [{"name": "mark m morgan", "street": "9359 seventh", "city": "counce", "state": "tn", "zip": "38326"}, {"name": "alexander morales", "street": "16048 oak pkwy", "city": "denver", "state": "co", "zip": "80210"}], [{"name": "samantha y morgan", "street": "14469 third", "city": "brighton", "state": "ia", "zip": "525409149"}, {"name": "cynthia williams", "street": "11038 first pkwy", "city": "hillsboro", "state": "nm", "zip": "88042"}], [{"name": "ryan p moore", "street": "13097 first", "city": "munger", "state": "mi", "zip": "48747"}, {"name": "samantha hernandez", "street": "690 eighth ct", "city": "tome", "state": "nm", "zip": "87060"}], [{"name": "larry f parker", "street": "10494 second", "city": "bristow", "state": "ok", "zip": "740100881"}, {"name": "joseph cox", "street": "14000 park dr", "city": "winthrop", "state": "ny", "zip": "13697"}], [{"name": "janet f watson", "street": "6782 fourth", "city": "beckwourth", "state": "ca", "zip": "96129"}, {"name": "sarah hall", "street": "7799 view ln", "city": "rosholt", "state": "wi", "zip": "54473"}], [{"name": "jacqueline e long", "street": "18755 eighth", "city": "brookville", "state": "oh", "zip": "453097864"}, {"name": "kevin robinson", "street": "14595 fourth ct", "city": "manteca", "state": "ca", "zip": "95337"}], [{"name": "rachel i white", "street": "9364 fifth", "city": "washington depot", "state": "ct", "zip": "067946865"}, {"name": "henry morris", "street": "18858 view rd", "city": "montrose", "state": "ca", "zip": "91021"}], [{"name": "russell q gonzales", "street": "2997 cedar", "city": "middleburg", "state": "va", "zip": "20117"}, {"name": "kyle rogers", "street": "11264 view pl", "city": "wood river", "state": "il", "zip": "62095"}], [{"name": "michael e myers", "street": "7332 third", "city": "paton", "state": "ia", "zip": "502175723"}, {"name": "deborah ortiz", "street": "17931 pine dr", "city": "san juan", "state": "pr", "zip": "00955"}], [{"name": "christina l rivera", "street": "2465 fourth", "city": "san fidel", "state": "nm", "zip": "87049"}, {"name": "terry sanchez", "street": "14434 fourth pl", "city": "tasley", "state": "va", "zip": "23441"}], [{"name": "arthur e roberts", "street": "12007 seventh", "city": "arthur city", "state": "tx", "zip": "75411"}, {"name": "victoria torres", "street": "15660 ninth pl", "city": "egan", "state": "sd", "zip": "57024"}], [{"name": "billy v young", "street": "9874 cedar", "city": "egg harbor city", "state": "nj", "zip": "08215"}, {"name": "amy baker", "street": "5341 sixth dr", "city": "houston", "state": "tx", "zip": "77044"}], [{"name": "melissa v anderson", "street": "7695 washington", "city": "new york", "state": "ny", "zip": "101608142"}, {"name": "kyle thomas", "street": "15507 first ln", "city": "ninety six", "state": "sc", "zip": "29666"}], [{"name": "frank j ortiz", "street": "13135 elm", "city": "west columbia", "state": "wv", "zip": "25287"}, {"name": "elijah king", "street": "17391 ninth way", "city": "antioch", "state": "tn", "zip": "37011"}], [{"name": "matthew w gomez", "street": "7767 third", "city": "birmingham", "state": "al", "zip": "352294213"}, {"name": "jean morales", "street": "5466 hill pl", "city": "erbacon", "state": "wv", "zip": "26203"}], [{"name": "theresa v jimenez", "street": "7637 cedar", "city": "greensboro", "state": "nc", "zip": "27405"}, {"name": "paul rodriguez", "street": "6920 second rd", "city": "guaynabo", "state": "pr", "zip": "00968"}], [{"name": "donald d rodriguez", "street": "12264 third", "city": "matheson", "state": "co", "zip": "80830"}, {"name": "ryan walker", "street": "8779 view rd", "city": "stearns", "state": "ky", "zip": "42647"}], [{"name": "pamela q smith", "street": "8144 washington", "city": "brodhead", "state": "ky", "zip": "40409"}, {"name": "evelyn simpson", "street": "18232 maple pkwy", "city": "benson", "state": "mn", "zip": "56215"}], [{"name": "joseph i hughes", "street": "4466 washington", "city": "el granada", "state": "ca", "zip": "940183612"}, {"name": "jacqueline scott", "street": "19921 elm pl", "city": "caddo", "state": "tx", "zip": "76429"}], [{"name": "robert o morgan", "street": "11970 view", "city": "sheridan", "state": "ar", "zip": "721504633"}, {"name": "joe hall", "street": "5188 seventh dr", "city": "arivaca", "state": "az", "zip": "85601"}], [{"name": "anna s adams", "street": "3145 fifth", "city": "easton", "state": "md", "zip": "21601"}, {"name": "donna myers", "street": "5366 main ln", "city": "siloam", "state": "ga", "zip": "30665"}], [{"name": "kimberly w ramos", "street": "2593 sixth", "city": "hilbert", "state": "wi", "zip": "54129"}, {"name": "isabella mendoza", "street": "8392 main ct", "city": "sacramento", "state": "ca", "zip": "94252"}], [{"name": "john k cook", "street": "15497 pine", "city": "tiff", "state": "mo", "zip": "636748979"}, {"name": "virginia stewart", "street": "3556 oak dr", "city": "toney", "state": "al", "zip": "35773"}], [{"name": "dylan e jimenez", "street": "7686 lake", "city": "albany", "state": "in", "zip": "473205065"}, {"name": "roy williams", "street": "5027 fourth blvd", "city": "waynesboro", "state": "ms", "zip": "39367"}], [{"name": "kenneth c reyes", "street": "3475 lake", "city": "rolla", "state": "mo", "zip": "654094378"}, {"name": "samantha carter", "street": "9703 lake way", "city": "munith", "state": "mi", "zip": "49259"}], [{"name": "christina w taylor", "street": "12929 elm", "city": "indian lake", "state": "ny", "zip": "12842"}, {"name": "kenneth lewis", "street": "14513 lake pkwy", "city": "el paso", "state": "tx", "zip": "79905"}], [{"name": "billy f miller", "street": "15869 ninth", "city": "hammond", "state": "la", "zip": "70401"}, {"name": "bruce anderson", "street": "19228 park blvd", "city": "fall river", "state": "ks", "zip": "67047"}], [{"name": "henry f cook", "street": "1809 washington", "city": "hagan", "state": "ga", "zip": "304292376"}, {"name": "vincent morales", "street": "13777 fourth rd", "city": "fort collins", "state": "co", "zip": "805250932"}], [{"name": "peter x carter", "street": "1936 washington", "city": "richland", "state": "mi", "zip": "49083"}, {"name": "terry cooper", "street": "19992 oak rd", "city": "concord", "state": "nc", "zip": "28027"}], [{"name": "scott l bailey", "street": "15679 pine", "city": "kissimmee", "state": "fl", "zip": "347450688"}, {"name": "jessica mitchell", "street": "7357 lake pkwy", "city": "island park", "state": "ny", "zip": "115582360"}], [{"name": "rachel b bennet", "street": "19980 pine", "city": "stow", "state": "ma", "zip": "017759661"}, {"name": "stephanie phillips", "street": "7094 seventh pkwy", "city": "the plains", "state": "oh", "zip": "45780"}], [{"name": "roger i ortiz", "street": "8348 pine", "city": "abbot", "state": "me", "zip": "044062329"}, {"name": "amanda phillips", "street": "2035 oak dr", "city": "providence", "state": "ri", "zip": "02907"}], [{"name": "hannah n garcia", "street": "323 park", "city": "houston", "state": "tx", "zip": "77205"}, {"name": "diana robinson", "street": "1436 fourth pkwy", "city": "brandamore", "state": "pa", "zip": "19316"}], [{"name": "eugene m kelly", "street": "4516 pine", "city": "mammoth spring", "state": "ar", "zip": "725543694"}, {"name": "amanda long", "street": "3761 lake pkwy", "city": "apo", "state": "ny", "zip": "09630"}], [{"name": "samuel s brown", "street": "15244 eighth", "city": "fontana", "state": "wi", "zip": "53125"}, {"name": "amy wilson", "street": "12681 park dr", "city": "red level", "state": "al", "zip": "36474"}], [{"name": "stephanie p morgan", "street": "5489 maple", "city": "golden", "state": "ms", "zip": "38847"}, {"name": "benjamin castillo", "street": "4284 sixth ct", "city": "kenly", "state": "nc", "zip": "27542"}], [{"name": "virginia d scott", "street": "7235 cedar", "city": "arvada", "state": "co", "zip": "80007"}, {"name": "samuel rodriguez", "street": "8634 pine dr", "city": "mauricetown", "state": "nj", "zip": "08329"}], [{"name": "gerald e wright", "street": "17231 view", "city": "dixon", "state": "mt", "zip": "598314308"}, {"name": "michelle long", "street": "7259 seventh pl", "city": "bartlett", "state": "ks", "zip": "67332"}], [{"name": "lisa t hill", "street": "13543 sixth", "city": "miami gardens", "state": "fl", "zip": "33056"}, {"name": "peter taylor", "street": "7511 ninth ln", "city": "conroe", "state": "tx", "zip": "77385"}], [{"name": "george p taylor", "street": "1464 maple", "city": "wolf run", "state": "oh", "zip": "43970"}, {"name": "nicole adams", "street": "13051 hill rd", "city": "junction city", "state": "ga", "zip": "318127673"}], [{"name": "theresa m morales", "street": "12688 oak", "city": "rome", "state": "ny", "zip": "13449"}, {"name": "sophia price", "street": "539 lake pkwy", "city": "pasadena", "state": "ca", "zip": "911023613"}], [{"name": "jerry a hill", "street": "5629 seventh", "city": "johnston city", "state": "il", "zip": "62951"}, {"name": "jose lopez", "street": "4173 sixth ct", "city": "archer", "state": "ia", "zip": "512319221"}], [{"name": "keith r watson", "street": "8042 seventh", "city": "oklahoma city", "state": "ok", "zip": "731452690"}, {"name": "kimberly rogers", "street": "18282 seventh blvd", "city": "highland", "state": "ny", "zip": "125284891"}], [{"name": "homer a torres", "street": "17002 view", "city": "zebulon", "state": "ga", "zip": "302953401"}, {"name": "kathleen hernandez", "street": "7465 sixth ln", "city": "elk city", "state": "ok", "zip": "736445005"}], [{"name": "keith v perez", "street": "14034 sixth", "city": "detroit", "state": "mi", "zip": "482608933"}, {"name": "richard flores", "street": "13412 main pl", "city": "south ozone park", "state": "ny", "zip": "11420"}], [{"name": "amy q scott", "street": "17816 evergreen", "city": "barrington", "state": "ri", "zip": "028060156"}, {"name": "kevin white", "street": "1213 first rd", "city": "enders", "state": "ne", "zip": "69027"}], [{"name": "christina t hill", "street": "1585 second", "city": "concordia", "state": "mo", "zip": "64020"}, {"name": "adam wood", "street": "11957 hill pl", "city": "akron", "state": "oh", "zip": "44304"}], [{"name": "charlotte w cooper", "street": "4693 fourth", "city": "weyerhaeuser", "state": "wi", "zip": "548955645"}, {"name": "austin cook", "street": "6424 ninth ln", "city": "two buttes", "state": "co", "zip": "81084"}], [{"name": "sophia e gonzales", "street": "7496 park", "city": "esperance", "state": "ny", "zip": "12066"}, {"name": "olivia cook", "street": "16397 sixth pkwy", "city": "daniels", "state": "wv", "zip": "25832"}], [{"name": "debra f garcia", "street": "13743 seventh", "city": "brookston", "state": "in", "zip": "479235970"}, {"name": "stephen gomez", "street": "11782 pine pl", "city": "martinsville", "state": "in", "zip": "46151"}], [{"name": "emma h morris", "street": "3582 ninth", "city": "hayesville", "state": "ia", "zip": "525624197"}, {"name": "michael edwards", "street": "1000 seventh ct", "city": "east tallassee", "state": "al", "zip": "360230501"}], [{"name": "billy k thompson", "street": "6094 third", "city": "mount sterling", "state": "oh", "zip": "431439200"}, {"name": "carolyn white", "street": "3167 third way", "city": "coosada", "state": "al", "zip": "36020"}], [{"name": "jeffrey x castillo", "street": "5852 park", "city": "middleville", "state": "ny", "zip": "134067652"}, {"name": "jacqueline gomez", "street": "7926 seventh way", "city": "redlands", "state": "ca", "zip": "92375"}], [{"name": "pamela e ortiz", "street": "16555 view", "city": "rutledge", "state": "al", "zip": "360715168"}, {"name": "carol adams", "street": "12206 evergreen blvd", "city": "blowing rock", "state": "nc", "zip": "28605"}], [{"name": "keith r williams", "street": "16160 seventh", "city": "buffalo", "state": "sd", "zip": "577201020"}, {"name": "beverly carter", "street": "16315 second ln", "city": "valdosta", "state": "ga", "zip": "31604"}], [{"name": "evelyn e gomez", "street": "4820 pine", "city": "memphis", "state": "tn", "zip": "381864149"}, {"name": "marilyn simpson", "street": "9837 fourth blvd", "city": "denham springs", "state": "la", "zip": "707269852"}], [{"name": "frank x king", "street": "17092 ninth", "city": "butterfield", "state": "mn", "zip": "56120"}, {"name": "jordan reed", "street": "9985 maple blvd", "city": "leblanc", "state": "la", "zip": "70651"}], [{"name": "dorothy j miller", "street": "4409 maple", "city": "encino", "state": "tx", "zip": "783533311"}, {"name": "marie bailey", "street": "15620 second blvd", "city": "wendell", "state": "id", "zip": "833557401"}], [{"name": "joan y myers", "street": "19049 cedar", "city": "brunson", "state": "sc", "zip": "29911"}, {"name": "pamela ramirez", "street": "16166 cedar blvd", "city": "seibert", "state": "co", "zip": "80834"}], [{"name": "emily h king", "street": "11909 hill", "city": "billings", "state": "mt", "zip": "59107"}, {"name": "louis perez", "street": "10064 oak blvd", "city": "guaynabo", "state": "pr", "zip": "00970"}], [{"name": "andrea j stewart", "street": "12298 evergreen", "city": "autryville", "state": "nc", "zip": "283187417"}, {"name": "benjamin price", "street": "10723 main ct", "city": "duke", "state": "ok", "zip": "735323094"}], [{"name": "pamela h hughes", "street": "7196 park", "city": "palmyra", "state": "ne", "zip": "684181253"}, {"name": "jessica wright", "street": "13370 lake ct", "city": "brookdale", "state": "ca", "zip": "95007"}], [{"name": "theresa s gutierrez", "street": "2009 main", "city": "bernice", "state": "la", "zip": "71222"}, {"name": "grace gonzales", "street": "9961 view blvd", "city": "boynton beach", "state": "fl", "zip": "33424"}], [{"name": "ann l miller", "street": "18157 pine", "city": "topeka", "state": "ks", "zip": "66616"}, {"name": "albert scott", "street": "15335 maple dr", "city": "broomall", "state": "pa", "zip": "19008"}], [{"name": "jose d wilson", "street": "891 pine", "city": "scotland", "state": "pa", "zip": "17254"}, {"name": "elijah carter", "street": "19765 seventh way", "city": "nice", "state": "ca", "zip": "954640608"}], [{"name": "amber d reed", "street": "1858 park", "city": "hubertus", "state": "wi", "zip": "530335830"}, {"name": "roy collins", "street": "3597 hill rd", "city": "fairview", "state": "ok", "zip": "73737"}], [{"name": "edward p price", "street": "1725 evergreen", "city": "essie", "state": "ky", "zip": "40827"}, {"name": "carolyn carter", "street": "7605 lake dr", "city": "brier hill", "state": "ny", "zip": "13614"}], [{"name": "barbara s rogers", "street": "17084 oak", "city": "glendale", "state": "ca", "zip": "912259535"}, {"name": "deborah ross", "street": "19829 pine ct", "city": "lorton", "state": "ne", "zip": "68382"}], [{"name": "julie q stewart", "street": "7212 hill", "city": "north wales", "state": "pa", "zip": "194556168"}, {"name": "frank james", "street": "19821 third way", "city": "eva", "state": "tn", "zip": "383338375"}], [{"name": "angela k edwards", "street": "19173 hill", "city": "houston", "state": "tx", "zip": "770253336"}, {"name": "anna roberts", "street": "4031 seventh pkwy", "city": "patoka", "state": "il", "zip": "62875"}], [{"name": "alice t edwards", "street": "2770 maple", "city": "mulhall", "state": "ok", "zip": "730637505"}, {"name": "nicholas roberts", "street": "17007 oak dr", "city": "houston", "state": "tx", "zip": "77065"}], [{"name": "alexander p martinez", "street": "2697 fifth", "city": "haynesville", "state": "la", "zip": "71038"}, {"name": "lawrence torres", "street": "5918 maple pl", "city": "canton", "state": "oh", "zip": "447353015"}], [{"name": "frances q miller", "street": "17912 lake", "city": "groveoak", "state": "al", "zip": "35975"}, {"name": "amber taylor", "street": "8975 oak blvd", "city": "meeker", "state": "co", "zip": "816416347"}], [{"name": "dennis p patel", "street": "4274 eighth", "city": "las vegas", "state": "nv", "zip": "89180"}, {"name": "patricia thompson", "street": "9495 pine ct", "city": "south jordan", "state": "ut", "zip": "84095"}], [{"name": "stephanie w reed", "street": "1179 first", "city": "south chatham", "state": "ma", "zip": "02659"}, {"name": "anthony parker", "street": "812 pine ln", "city": "picacho", "state": "az", "zip": "85141"}], [{"name": "joshua t ortiz", "street": "2122 elm", "city": "grimstead", "state": "va", "zip": "230649478"}, {"name": "george baker", "street": "10085 main pl", "city": "hillview", "state": "il", "zip": "62050"}], [{"name": "doris k ward", "street": "868 lake", "city": "sheldon", "state": "wi", "zip": "547665768"}, {"name": "amber myers", "street": "7534 park way", "city": "jacksonville beach", "state": "fl", "zip": "322505814"}], [{"name": "charlotte g taylor", "street": "7456 maple", "city": "viola", "state": "id", "zip": "838724596"}, {"name": "isabella howard", "street": "4067 main pkwy", "city": "cambridge", "state": "ma", "zip": "021397643"}], [{"name": "peter t morales", "street": "11779 seventh", "city": "readyville", "state": "tn", "zip": "371497228"}, {"name": "angela carter", "street": "11915 maple dr", "city": "barronett", "state": "wi", "zip": "548130443"}], [{"name": "katherine u cox", "street": "20 view", "city": "paul smiths", "state": "ny", "zip": "12970"}, {"name": "debra hughes", "street": "17695 main ct", "city": "randlett", "state": "ok", "zip": "735626019"}], [{"name": "kimberly e carter", "street": "93 park", "city": "honey brook", "state": "pa", "zip": "193443182"}, {"name": "joyce king", "street": "15708 seventh blvd", "city": "ashby", "state": "ma", "zip": "01431"}], [{"name": "adam s young", "street": "6794 washington", "city": "norfolk", "state": "va", "zip": "23510"}, {"name": "barbara rivera", "street": "18558 elm dr", "city": "salem", "state": "ar", "zip": "725761203"}], [{"name": "michael d mendoza", "street": "14450 oak", "city": "rhinelander", "state": "wi", "zip": "54501"}, {"name": "arthur alvarez", "street": "6036 elm way", "city": "norman", "state": "ok", "zip": "73070"}], [{"name": "madison p gutierrez", "street": "19400 pine", "city": "indianapolis", "state": "in", "zip": "462560523"}, {"name": "denise johnson", "street": "3461 sixth rd", "city": "elgin", "state": "il", "zip": "60124"}], [{"name": "gregory u james", "street": "14579 ninth", "city": "lewiston", "state": "ca", "zip": "96052"}, {"name": "rebecca james", "street": "6917 sixth way", "city": "fort smith", "state": "ar", "zip": "72902"}], [{"name": "jeffrey l martinez", "street": "17027 maple", "city": "alma", "state": "ar", "zip": "729217547"}, {"name": "doris wood", "street": "12440 washington rd", "city": "fort wayne", "state": "in", "zip": "46867"}], [{"name": "louis n wilson", "street": "4833 pine", "city": "goldenrod", "state": "fl", "zip": "327332598"}, {"name": "marilyn lopez", "street": "5538 second rd", "city": "manteca", "state": "ca", "zip": "95336"}], [{"name": "isabella l simpson", "street": "19166 pine", "city": "memphis", "state": "tn", "zip": "38197"}, {"name": "sarah rodriguez", "street": "19766 main pkwy", "city": "royal oak", "state": "mi", "zip": "48073"}], [{"name": "jacob q reed", "street": "15383 eighth", "city": "limekiln", "state": "pa", "zip": "19535"}, {"name": "gerald peterson", "street": "15713 ninth pkwy", "city": "columbus", "state": "ks", "zip": "66725"}], [{"name": "maggie w foster", "street": "14978 ninth", "city": "lejunior", "state": "ky", "zip": "40849"}, {"name": "bart watson", "street": "5477 fifth ct", "city": "menifee", "state": "ca", "zip": "92586"}], [{"name": "grace u price", "street": "15392 pine", "city": "rhinelander", "state": "wi", "zip": "545013606"}, {"name": "ruth ramos", "street": "17312 second pl", "city": "mcleod", "state": "mt", "zip": "59052"}], [{"name": "kathleen g mendoza", "street": "16892 ninth", "city": "laconia", "state": "nh", "zip": "03247"}, {"name": "christina robinson", "street": "1729 main blvd", "city": "fulda", "state": "mn", "zip": "56131"}], [{"name": "bruce r morales", "street": "3509 third", "city": "redlands", "state": "ca", "zip": "92374"}, {"name": "john king", "street": "14019 evergreen dr", "city": "santa monica", "state": "ca", "zip": "90408"}], [{"name": "andrea s hernandez", "street": "14181 first", "city": "corpus christi", "state": "tx", "zip": "784049914"}, {"name": "wayne castillo", "street": "9630 ninth ct", "city": "kinsman", "state": "il", "zip": "60437"}], [{"name": "kathleen d hill", "street": "9403 washington", "city": "tulsa", "state": "ok", "zip": "741696924"}, {"name": "christine brooks", "street": "6113 fifth dr", "city": "peoria", "state": "il", "zip": "616388962"}], [{"name": "sandra z flores", "street": "11380 seventh", "city": "ulysses", "state": "ky", "zip": "412641049"}, {"name": "noah morgan", "street": "18227 cedar ct", "city": "sacramento", "state": "ca", "zip": "95828"}], [{"name": "marge y morgan", "street": "15277 cedar", "city": "french village", "state": "mo", "zip": "630366255"}, {"name": "mary lee", "street": "10937 pine pkwy", "city": "greendale", "state": "wi", "zip": "53129"}], [{"name": "amy p wright", "street": "16441 fourth", "city": "hollister", "state": "fl", "zip": "32147"}, {"name": "david miller", "street": "4290 cedar blvd", "city": "glen ellen", "state": "ca", "zip": "954428504"}], [{"name": "mark n sanders", "street": "7907 pine", "city": "barnet", "state": "vt", "zip": "058214940"}, {"name": "teresa scott", "street": "6530 view rd", "city": "sumerduck", "state": "va", "zip": "22742"}], [{"name": "scott z mendoza", "street": "2042 fifth", "city": "lexington", "state": "ky", "zip": "405160526"}, {"name": "ralph ward", "street": "13159 lake ct", "city": "strandburg", "state": "sd", "zip": "57265"}], [{"name": "julie r taylor", "street": "14110 park", "city": "deerfield", "state": "va", "zip": "244321469"}, {"name": "frank young", "street": "11456 pine blvd", "city": "london", "state": "ky", "zip": "40742"}], [{"name": "edward n allen", "street": "19643 washington", "city": "upatoi", "state": "ga", "zip": "318293304"}, {"name": "brian baker", "street": "5895 fifth ct", "city": "galveston", "state": "tx", "zip": "77553"}], [{"name": "gloria i ward", "street": "7543 third", "city": "brighton", "state": "mi", "zip": "481162534"}, {"name": "ryan diaz", "street": "10287 fourth ct", "city": "milford", "state": "mi", "zip": "48380"}], [{"name": "brenda v thomas", "street": "17593 oak", "city": "creola", "state": "oh", "zip": "45622"}, {"name": "daniel anderson", "street": "19088 fourth pl", "city": "fresno", "state": "ca", "zip": "93888"}], [{"name": "bryan r thomas", "street": "4375 pine", "city": "miller", "state": "ne", "zip": "68858"}, {"name": "terry martinez", "street": "7569 fourth ln", "city": "henderson", "state": "nv", "zip": "890021903"}], [{"name": "jeremy h peterson", "street": "245 ninth", "city": "miller", "state": "sd", "zip": "57362"}, {"name": "rebecca jackson", "street": "8336 lake pl", "city": "newmanstown", "state": "pa", "zip": "17073"}], [{"name": "noah h hall", "street": "17428 pine", "city": "springfield", "state": "il", "zip": "627664667"}, {"name": "richard adams", "street": "12457 second dr", "city": "labelle", "state": "fl", "zip": "33935"}], [{"name": "adam z murphy", "street": "1707 main", "city": "washington", "state": "dc", "zip": "20212"}, {"name": "brandon brown", "street": "7819 lake ct", "city": "greenbrier", "state": "ar", "zip": "72058"}], [{"name": "richard t lewis", "street": "11598 washington", "city": "downers grove", "state": "il", "zip": "60516"}, {"name": "anna adams", "street": "1076 view ct", "city": "new durham", "state": "nh", "zip": "03855"}], [{"name": "matthew d adams", "street": "6563 fourth", "city": "windsor", "state": "nj", "zip": "08561"}, {"name": "john chavez", "street": "11368 fifth ct", "city": "kingsford", "state": "mi", "zip": "49802"}], [{"name": "justin w nelson", "street": "5889 main", "city": "efland", "state": "nc", "zip": "27243"}, {"name": "martha collins", "street": "12722 cedar ln", "city": "mingo junction", "state": "oh", "zip": "43938"}], [{"name": "karen p lee", "street": "11814 ninth", "city": "new york", "state": "ny", "zip": "101749203"}, {"name": "andrea parker", "street": "7373 view ln", "city": "pontotoc", "state": "tx", "zip": "76869"}], [{"name": "joseph r kelly", "street": "14580 fifth", "city": "mckinnon", "state": "wy", "zip": "829384871"}, {"name": "bruce turner", "street": "7461 elm way", "city": "blakeslee", "state": "oh", "zip": "43505"}], [{"name": "jeremy b gray", "street": "10527 evergreen", "city": "benson", "state": "mn", "zip": "56215"}, {"name": "john watson", "street": "18694 pine rd", "city": "las vegas", "state": "nv", "zip": "891739359"}], [{"name": "jesse i rodriguez", "street": "1236 view", "city": "dodgeville", "state": "mi", "zip": "499215468"}, {"name": "gregory clark", "street": "6642 oak pl", "city": "palo", "state": "mi", "zip": "48870"}], [{"name": "jacqueline c richardson", "street": "3969 third", "city": "brookhaven", "state": "ms", "zip": "396036844"}, {"name": "walter cruz", "street": "2555 pine rd", "city": "aurora", "state": "il", "zip": "60505"}], [{"name": "heather q gray", "street": "15968 lake", "city": "smithfield", "state": "pa", "zip": "15478"}, {"name": "jacqueline nelson", "street": "8657 maple pkwy", "city": "carolina", "state": "pr", "zip": "009813172"}], [{"name": "jennifer f simpson", "street": "9372 washington", "city": "moscow", "state": "ia", "zip": "52760"}, {"name": "lisa baker", "street": "4854 sixth pkwy", "city": "lykens", "state": "pa", "zip": "17048"}], [{"name": "sophia u martinez", "street": "10795 lake", "city": "greensboro", "state": "vt", "zip": "058418820"}, {"name": "debra clark", "street": "5469 second ct", "city": "east hartford", "state": "ct", "zip": "061086360"}], [{"name": "kimberly p roberts", "street": "15372 washington", "city": "machipongo", "state": "va", "zip": "23405"}, {"name": "timothy carter", "street": "14263 maple pkwy", "city": "greenfield", "state": "ok", "zip": "73043"}], [{"name": "grace t adams", "street": "1053 second", "city": "woodlawn", "state": "va", "zip": "243814740"}, {"name": "angela harris", "street": "4239 seventh ln", "city": "elk grove village", "state": "il", "zip": "60007"}], [{"name": "harold l simpson", "street": "12034 fifth", "city": "willoughby", "state": "oh", "zip": "44096"}, {"name": "beverly cox", "street": "6185 hill rd", "city": "portland", "state": "me", "zip": "04101"}], [{"name": "deborah o johnson", "street": "3148 second", "city": "ravenna", "state": "ky", "zip": "40472"}, {"name": "andrea castillo", "street": "14018 eighth ct", "city": "harrold", "state": "tx", "zip": "76364"}], [{"name": "steven z alvarez", "street": "945 ninth", "city": "pleasantville", "state": "nj", "zip": "08232"}, {"name": "dorothy brooks", "street": "137 third rd", "city": "stanberry", "state": "mo", "zip": "64489"}], [{"name": "arthur u reyes", "street": "19430 sixth", "city": "rockport", "state": "ma", "zip": "019668842"}, {"name": "hannah lee", "street": "6295 elm way", "city": "la habra", "state": "ca", "zip": "90632"}], [{"name": "gary c sanders", "street": "19323 cedar", "city": "chester", "state": "pa", "zip": "190167881"}, {"name": "gloria murphy", "street": "5815 third pl", "city": "fpo", "state": "ny", "zip": "09620"}], [{"name": "julia d carter", "street": "308 park", "city": "huntly", "state": "va", "zip": "226407560"}, {"name": "rebecca mendoza", "street": "13926 eighth pkwy", "city": "lake city", "state": "sd", "zip": "57247"}], [{"name": "walter n thomas", "street": "19534 cedar", "city": "salt lake city", "state": "ut", "zip": "84101"}, {"name": "donald hill", "street": "9455 third rd", "city": "la grange", "state": "il", "zip": "605258850"}], [{"name": "jose t miller", "street": "251 fourth", "city": "far hills", "state": "nj", "zip": "079311865"}, {"name": "brandon ramirez", "street": "14551 cedar way", "city": "rush", "state": "co", "zip": "808332070"}], [{"name": "janet e harris", "street": "17162 hill", "city": "cedar lane", "state": "tx", "zip": "774151298"}, {"name": "richard sanchez", "street": "6696 washington pl", "city": "bellaire", "state": "oh", "zip": "43906"}], [{"name": "joe j lee", "street": "15712 lake", "city": "tampa", "state": "fl", "zip": "336749617"}, {"name": "martha cox", "street": "8054 fourth pl", "city": "vero beach", "state": "fl", "zip": "32965"}], [{"name": "katherine p clark", "street": "1330 maple", "city": "clinton", "state": "ms", "zip": "390561734"}, {"name": "bryan cox", "street": "15694 evergreen blvd", "city": "keedysville", "state": "md", "zip": "21756"}], [{"name": "isabella r lopez", "street": "14049 first", "city": "cripple creek", "state": "co", "zip": "808138760"}, {"name": "terry robinson", "street": "14159 evergreen way", "city": "davis", "state": "ca", "zip": "956165167"}], [{"name": "virginia u lee", "street": "7492 view", "city": "hazelton", "state": "id", "zip": "83335"}, {"name": "doris walker", "street": "17542 oak blvd", "city": "richmond", "state": "va", "zip": "23291"}], [{"name": "christine y lee", "street": "5220 washington", "city": "echo", "state": "mn", "zip": "56237"}, {"name": "maria campbell", "street": "1351 washington pl", "city": "iowa city", "state": "ia", "zip": "522443412"}], [{"name": "jacob a morgan", "street": "2428 second", "city": "marietta", "state": "ga", "zip": "300079454"}, {"name": "nathan jones", "street": "13159 cedar rd", "city": "nemours", "state": "wv", "zip": "24738"}], [{"name": "frances r morgan", "street": "3604 fifth", "city": "lancaster", "state": "ca", "zip": "93536"}, {"name": "vincent anderson", "street": "12961 third ct", "city": "gaithersburg", "state": "md", "zip": "208773202"}], [{"name": "lawrence m flores", "street": "18258 hill", "city": "saint donatus", "state": "ia", "zip": "52071"}, {"name": "bart gray", "street": "16127 washington way", "city": "friendsville", "state": "md", "zip": "215310628"}], [{"name": "joan j ross", "street": "2337 cedar", "city": "deerfield street", "state": "nj", "zip": "08313"}, {"name": "joseph harris", "street": "12243 maple ct", "city": "galva", "state": "ia", "zip": "51020"}], [{"name": "johnny p thomas", "street": "15172 washington", "city": "fort worth", "state": "tx", "zip": "761019995"}, {"name": "homer mitchell", "street": "19044 seventh dr", "city": "kawkawlin", "state": "mi", "zip": "48631"}], [{"name": "carolyn j ramirez", "street": "9104 park", "city": "colts neck", "state": "nj", "zip": "077228834"}, {"name": "david davis", "street": "10246 main ct", "city": "grandin", "state": "nd", "zip": "58038"}], [{"name": "william y stewart", "street": "16422 pine", "city": "clarks", "state": "ne", "zip": "686286553"}, {"name": "hannah evans", "street": "11671 maple pl", "city": "la marque", "state": "tx", "zip": "77568"}], [{"name": "noah y gomez", "street": "7326 seventh", "city": "schwenksville", "state": "pa", "zip": "194733295"}, {"name": "diane king", "street": "17866 lake blvd", "city": "bozeman", "state": "mt", "zip": "59717"}], [{"name": "scott d lewis", "street": "14505 washington", "city": "pittsburgh", "state": "pa", "zip": "15231"}, {"name": "martha hall", "street": "18143 main rd", "city": "mount pleasant", "state": "sc", "zip": "29464"}], [{"name": "paul z lopez", "street": "6992 maple", "city": "belle", "state": "wv", "zip": "250152640"}, {"name": "brenda wilson", "street": "8889 oak ln", "city": "pembroke pines", "state": "fl", "zip": "33082"}], [{"name": "andrea b rivera", "street": "3918 oak", "city": "williston", "state": "nc", "zip": "285899240"}, {"name": "nathan turner", "street": "2086 evergreen ln", "city": "columbus", "state": "ga", "zip": "31901"}], [{"name": "jessica k nelson", "street": "19501 park", "city": "palo alto", "state": "ca", "zip": "943012466"}, {"name": "brian edwards", "street": "3587 second way", "city": "washington", "state": "dc", "zip": "20444"}], [{"name": "elizabeth b ramos", "street": "880 maple", "city": "town creek", "state": "al", "zip": "356727789"}, {"name": "samuel castillo", "street": "10037 main rd", "city": "des moines", "state": "ia", "zip": "50391"}], [{"name": "samuel c nelson", "street": "15868 sixth", "city": "yellow pine", "state": "id", "zip": "836776751"}, {"name": "terry edwards", "street": "19529 main dr", "city": "irvington", "state": "il", "zip": "628483137"}], [{"name": "mary i bailey", "street": "18694 park", "city": "granger", "state": "mo", "zip": "634428667"}, {"name": "louis thompson", "street": "3898 sixth pl", "city": "rockford", "state": "il", "zip": "61112"}], [{"name": "jean n young", "street": "14643 pine", "city": "apo", "state": "ca", "zip": "963010623"}, {"name": "bryan adams", "street": "4623 hill ct", "city": "gormania", "state": "wv", "zip": "26720"}], [{"name": "margaret u peterson", "street": "830 fifth", "city": "laurel hill", "state": "nc", "zip": "28351"}, {"name": "anna hill", "street": "13208 hill ln", "city": "enochs", "state": "tx", "zip": "79324"}], [{"name": "john p cook", "street": "3902 main", "city": "elba", "state": "ny", "zip": "140582925"}, {"name": "carl wilson", "street": "11769 pine ct", "city": "florissant", "state": "mo", "zip": "63031"}], [{"name": "lisa a ramos", "street": "6656 first", "city": "wilkinson", "state": "wv", "zip": "25653"}, {"name": "sophia mitchell", "street": "13523 cedar dr", "city": "oakhurst", "state": "ok", "zip": "74050"}], [{"name": "judith f alvarez", "street": "7472 fourth", "city": "luray", "state": "tn", "zip": "38352"}, {"name": "betty evans", "street": "3933 evergreen dr", "city": "farmersburg", "state": "ia", "zip": "520474567"}], [{"name": "laura h allen", "street": "11158 pine", "city": "marion", "state": "ms", "zip": "393424682"}, {"name": "terry wilson", "street": "10522 cedar blvd", "city": "albany", "state": "ny", "zip": "12257"}], [{"name": "joseph a jackson", "street": "7234 view", "city": "burlington", "state": "vt", "zip": "05408"}, {"name": "rachel lee", "street": "9419 sixth pl", "city": "half way", "state": "mo", "zip": "65663"}], [{"name": "susan q ross", "street": "14836 view", "city": "birmingham", "state": "al", "zip": "352226474"}, {"name": "charlotte collins", "street": "5199 second blvd", "city": "vaiden", "state": "ms", "zip": "39176"}], [{"name": "zachary r ramos", "street": "13630 main", "city": "pelican", "state": "la", "zip": "710636447"}, {"name": "eugene ortiz", "street": "16182 elm ct", "city": "norfolk", "state": "va", "zip": "23518"}], [{"name": "carolyn w wright", "street": "8769 park", "city": "ladd", "state": "il", "zip": "61329"}, {"name": "patricia diaz", "street": "16656 elm ct", "city": "chariton", "state": "ia", "zip": "50049"}], [{"name": "beverly l james", "street": "19328 first", "city": "mabie", "state": "wv", "zip": "262781116"}, {"name": "vincent thomas", "street": "4547 evergreen dr", "city": "worcester", "state": "ma", "zip": "01602"}], [{"name": "roy x rivera", "street": "6409 hill", "city": "huntsville", "state": "al", "zip": "358040042"}, {"name": "amber long", "street": "2154 evergreen dr", "city": "sarasota", "state": "fl", "zip": "342424524"}], [{"name": "jesse q richardson", "street": "8520 hill", "city": "brownwood", "state": "tx", "zip": "76804"}, {"name": "ann price", "street": "13233 ninth dr", "city": "coal hill", "state": "ar", "zip": "72832"}], [{"name": "karen k morgan", "street": "6988 lake", "city": "elton", "state": "wi", "zip": "54430"}, {"name": "terry wood", "street": "11608 cedar ln", "city": "cranks", "state": "ky", "zip": "40820"}], [{"name": "judith x kelly", "street": "6258 lake", "city": "hartland", "state": "mi", "zip": "483534446"}, {"name": "dorothy young", "street": "9955 oak pl", "city": "lesterville", "state": "mo", "zip": "63654"}], [{"name": "patricia f taylor", "street": "7549 lake", "city": "huddy", "state": "ky", "zip": "415356995"}, {"name": "lisa ramirez", "street": "721 cedar pkwy", "city": "zellwood", "state": "fl", "zip": "32798"}], [{"name": "marie x moore", "street": "14486 elm", "city": "inglewood", "state": "ca", "zip": "903115067"}, {"name": "donna lee", "street": "5346 view way", "city": "jacksons gap", "state": "al", "zip": "36861"}], [{"name": "bryan z sanders", "street": "8326 third", "city": "south bend", "state": "in", "zip": "46699"}, {"name": "william alvarez", "street": "10553 cedar ln", "city": "dorchester", "state": "ma", "zip": "02125"}], [{"name": "jacqueline h walker", "street": "8206 eighth", "city": "van nuys", "state": "ca", "zip": "914080539"}, {"name": "kathryn harris", "street": "5992 washington pkwy", "city": "fort mitchell", "state": "va", "zip": "23941"}], [{"name": "philip h ramos", "street": "11450 fourth", "city": "summersville", "state": "mo", "zip": "655712348"}, {"name": "kayla clark", "street": "8484 first dr", "city": "hobgood", "state": "nc", "zip": "27843"}], [{"name": "stephen l castillo", "street": "10247 third", "city": "irvine", "state": "ca", "zip": "92614"}, {"name": "sophia long", "street": "14270 pine ln", "city": "hawley", "state": "mn", "zip": "56549"}], [{"name": "victoria q adams", "street": "8091 seventh", "city": "greenville", "state": "sc", "zip": "296162366"}, {"name": "russell sanchez", "street": "395 evergreen blvd", "city": "louisville", "state": "al", "zip": "360480591"}], [{"name": "carolyn n gutierrez", "street": "9390 seventh", "city": "houlton", "state": "me", "zip": "04730"}, {"name": "michael morales", "street": "7297 oak way", "city": "holland", "state": "ia", "zip": "50642"}], [{"name": "lisa o brooks", "street": "127 washington", "city": "boise", "state": "id", "zip": "83728"}, {"name": "brittany perez", "street": "4959 fourth pkwy", "city": "choccolocco", "state": "al", "zip": "36254"}], [{"name": "nicole d castillo", "street": "2467 main", "city": "west wareham", "state": "ma", "zip": "025766789"}, {"name": "peter smith", "street": "4505 lake dr", "city": "piney river", "state": "va", "zip": "229649683"}], [{"name": "logan j hall", "street": "3255 seventh", "city": "royse city", "state": "tx", "zip": "751899578"}, {"name": "cynthia reed", "street": "1173 evergreen blvd", "city": "riverside", "state": "pa", "zip": "17868"}], [{"name": "mark s carter", "street": "6629 hill", "city": "vienna", "state": "me", "zip": "04360"}, {"name": "janice ward", "street": "17754 lake ct", "city": "coalgate", "state": "ok", "zip": "74538"}], [{"name": "zachary o brooks", "street": "5158 third", "city": "aviston", "state": "il", "zip": "622163424"}, {"name": "amanda kelly", "street": "6654 evergreen pkwy", "city": "geneva", "state": "oh", "zip": "44041"}], {"__class__": "tuple", "__value__": [{"name": "janet perez", "street": "19844 maple", "city": "hyattsville", "state": "md", "zip": "20787"}, {"name": "ruth watson", "street": "19844 maple blvd", "city": "braceville", "state": "il", "zip": "604078815"}]}, {"__class__": "tuple", "__value__": [{"name": "austin cruz", "street": "6494 cedar", "city": "new russia", "state": "ny", "zip": "12964"}, {"name": "janice chavez", "street": "6494 cedar rd", "city": "de witt", "state": "ar", "zip": "72042"}]}, {"__class__": "tuple", "__value__": [{"name": "maggie hernandez", "street": "448 first ln", "city": "new orleans", "state": "la", "zip": "70154"}, {"name": "maggie evans", "street": "3983 third ct", "city": "new orleans", "state": "la", "zip": "701782577"}]}], "match": [[{"name": "diane q kim", "street": "8042 fourth", "city": "saint louis", "state": "mo", "zip": "63127"}, {"name": "diane kim", "street": "8042 fourth dr", "city": "saint louis", "state": "mo", "zip": "63127"}], [{"name": "jeremy a wood", "street": "19570 maple", "city": "cumbola", "state": "pa", "zip": "17930"}, {"name": "jeremy wood", "street": "19570 maple pkwy", "city": "cumbola", "state": "pa", "zip": "17930"}], [{"name": "cynthia e richardson", "street": "18478 cedar", "city": "fort worth", "state": "tx", "zip": "76199"}, {"name": "cynthia richardson", "street": "18478 cedar ln", "city": "fort worth", "state": "tx", "zip": "76199"}], [{"name": "evelyn o long", "street": "1219 third", "city": "bakerstown", "state": "pa", "zip": "150073685"}, {"name": "evelyn long", "street": "1219 third blvd", "city": "bakerstown", "state": "pa", "zip": "150073685"}], [{"name": "joan c roberts", "street": "12969 park", "city": "merrill", "state": "ia", "zip": "51038"}, {"name": "joan roberts", "street": "12969 park way", "city": "merrill", "state": "ia", "zip": "51038"}], [{"name": "doris d alvarez", "street": "1027 view", "city": "laurys station", "state": "pa", "zip": "18059"}, {"name": "doris alvarez", "street": "1027 view way", "city": "laurys station", "state": "pa", "zip": "18059"}], [{"name": "judith q smith", "street": "9631 ninth", "city": "shokan", "state": "ny", "zip": "124819285"}, {"name": "judith smith", "street": "9631 ninth ct", "city": "shokan", "state": "ny", "zip": "12481"}], [{"name": "arthur q sanders", "street": "14480 fifth", "city": "delaware", "state": "nj", "zip": "078334711"}, {"name": "arthur sanders", "street": "14480 fifth pl", "city": "delaware", "state": "nj", "zip": "078334711"}], [{"name": "dylan b garcia", "street": "12959 first", "city": "oakhurst", "state": "ca", "zip": "936440467"}, {"name": "dylan garcia", "street": "12959 first ln", "city": "oakhurst", "state": "ca", "zip": "936440467"}], [{"name": "gabriel q peterson", "street": "6957 sixth", "city": "clearmont", "state": "wy", "zip": "828354380"}, {"name": "gabriel peterson", "street": "6957 sixth ct", "city": "clearmont", "state": "wy", "zip": "828354380"}], [{"name": "emma p murphy", "street": "18943 pine", "city": "burdine", "state": "ky", "zip": "41517"}, {"name": "emma murphy", "street": "18943 pine dr", "city": "burdine", "state": "ky", "zip": "41517"}], [{"name": "susan q gomez", "street": "750 lake", "city": "millstone township", "state": "nj", "zip": "085357638"}, {"name": "susan gomez", "street": "750 lake rd", "city": "millstone township", "state": "nj", "zip": "085357638"}], [{"name": "joe s watson", "street": "15159 evergreen", "city": "corona", "state": "ca", "zip": "928784845"}, {"name": "joe watson", "street": "15159 evergreen dr", "city": "corona", "state": "ca", "zip": "92878"}], [{"name": "carol p alvarez", "street": "12890 second", "city": "brightwaters", "state": "ny", "zip": "117180806"}, {"name": "carol alvarez", "street": "12890 second rd", "city": "brightwaters", "state": "ny", "zip": "11718"}], [{"name": "austin q robinson", "street": "937 maple", "city": "north east", "state": "md", "zip": "219019326"}, {"name": "austin robinson", "street": "937 maple way", "city": "north east", "state": "md", "zip": "21901"}], [{"name": "lisa b thompson", "street": "5604 first", "city": "new haven", "state": "in", "zip": "467748931"}, {"name": "lisa thompson", "street": "5604 first dr", "city": "new haven", "state": "in", "zip": "467748931"}], [{"name": "scott z wilson", "street": "6158 first", "city": "diggs", "state": "va", "zip": "230450911"}, {"name": "scott wilson", "street": "6158 first way", "city": "diggs", "state": "va", "zip": "23045"}], [{"name": "joshua f cruz", "street": "2909 eighth", "city": "fort mohave", "state": "az", "zip": "864260762"}, {"name": "joshua cruz", "street": "2909 eighth pl", "city": "fort mohave", "state": "az", "zip": "86426"}], [{"name": "frank j harris", "street": "14470 ninth", "city": "fruitland", "state": "id", "zip": "836197345"}, {"name": "frank harris", "street": "14470 ninth pkwy", "city": "fruitland", "state": "id", "zip": "83619"}], [{"name": "jeffrey a baker", "street": "2174 view", "city": "fairacres", "state": "nm", "zip": "880330181"}, {"name": "jeffrey baker", "street": "2174 view pkwy", "city": "fairacres", "state": "nm", "zip": "88033"}], [{"name": "ashley u nelson", "street": "10074 second", "city": "lamar", "state": "sc", "zip": "290691628"}, {"name": "ashley nelson", "street": "10074 second dr", "city": "lamar", "state": "sc", "zip": "29069"}], [{"name": "theresa d thompson", "street": "5510 cedar", "city": "elgin", "state": "il", "zip": "60121"}, {"name": "theresa thompson", "street": "5510 cedar pl", "city": "elgin", "state": "il", "zip": "60121"}], [{"name": "julie d james", "street": "14023 main", "city": "greenhurst", "state": "ny", "zip": "14742"}, {"name": "julie james", "street": "14023 main dr", "city": "greenhurst", "state": "ny", "zip": "14742"}], [{"name": "matthew u walker", "street": "1203 second", "city": "oak lawn", "state": "il", "zip": "60454"}, {"name": "matthew walker", "street": "1203 second rd", "city": "oak lawn", "state": "il", "zip": "60454"}], [{"name": "johnny l hughes", "street": "626 seventh", "city": "uniondale", "state": "in", "zip": "46791"}, {"name": "johnny hughes", "street": "626 seventh ln", "city": "uniondale", "state": "in", "zip": "46791"}], [{"name": "laura o hernandez", "street": "10722 oak", "city": "hamilton", "state": "mi", "zip": "49419"}, {"name": "laura hernandez", "street": "10722 oak blvd", "city": "hamilton", "state": "mi", "zip": "49419"}], [{"name": "jacqueline q mendoza", "street": "4723 fourth", "city": "saint louis", "state": "mo", "zip": "63108"}, {"name": "jacqueline mendoza", "street": "4723 fourth way", "city": "saint louis", "state": "mo", "zip": "63108"}], [{"name": "danielle w lopez", "street": "13667 main", "city": "quaker hill", "state": "ct", "zip": "063757777"}, {"name": "danielle lopez", "street": "13667 main rd", "city": "quaker hill", "state": "ct", "zip": "06375"}], [{"name": "rose r martin", "street": "17271 eighth", "city": "atlanta", "state": "ga", "zip": "30361"}, {"name": "rose martin", "street": "17271 eighth ct", "city": "atlanta", "state": "ga", "zip": "30361"}], [{"name": "sophia x johnson", "street": "13650 park", "city": "blairsville", "state": "pa", "zip": "15717"}, {"name": "sophia johnson", "street": "13650 park blvd", "city": "blairsville", "state": "pa", "zip": "15717"}], [{"name": "william s moore", "street": "7636 second", "city": "watertown", "state": "mn", "zip": "55388"}, {"name": "william moore", "street": "7636 second pkwy", "city": "watertown", "state": "mn", "zip": "55388"}], [{"name": "sandra l morgan", "street": "4840 lake", "city": "gepp", "state": "ar", "zip": "725382661"}, {"name": "sandra morgan", "street": "4840 lake ln", "city": "gepp", "state": "ar", "zip": "725382661"}], [{"name": "jack m lee", "street": "6634 evergreen", "city": "floweree", "state": "mt", "zip": "59440"}, {"name": "jack lee", "street": "6634 evergreen way", "city": "floweree", "state": "mt", "zip": "59440"}], [{"name": "cheryl j robinson", "street": "2181 oak", "city": "amherst junction", "state": "wi", "zip": "54407"}, {"name": "cheryl robinson", "street": "2181 oak ct", "city": "amherst junction", "state": "wi", "zip": "54407"}], [{"name": "joshua r ruiz", "street": "19478 cedar", "city": "memphis", "state": "tn", "zip": "381240468"}, {"name": "joshua ruiz", "street": "19478 cedar blvd", "city": "memphis", "state": "tn", "zip": "38124"}], [{"name": "austin z hall", "street": "19626 pine", "city": "middlebrook", "state": "va", "zip": "24459"}, {"name": "austin hall", "street": "19626 pine ln", "city": "middlebrook", "state": "va", "zip": "24459"}], [{"name": "jacob v price", "street": "6940 maple", "city": "chattanooga", "state": "tn", "zip": "37421"}, {"name": "jacob price", "street": "6940 maple pl", "city": "chattanooga", "state": "tn", "zip": "37421"}], [{"name": "alexis o richardson", "street": "9409 third", "city": "knights landing", "state": "ca", "zip": "95645"}, {"name": "alexis richardson", "street": "9409 third blvd", "city": "knights landing", "state": "ca", "zip": "95645"}], [{"name": "juan j long", "street": "15857 park", "city": "menemsha", "state": "ma", "zip": "02552"}, {"name": "juan long", "street": "15857 park ct", "city": "menemsha", "state": "ma", "zip": "02552"}], [{"name": "frances b simpson", "street": "15837 cedar", "city": "catasauqua", "state": "pa", "zip": "180325839"}, {"name": "frances simpson", "street": "15837 cedar pkwy", "city": "catasauqua", "state": "pa", "zip": "18032"}], [{"name": "heather w myers", "street": "16453 elm", "city": "zion", "state": "il", "zip": "600992977"}, {"name": "heather myers", "street": "16453 elm way", "city": "zion", "state": "il", "zip": "60099"}], [{"name": "lawrence p watson", "street": "10727 view", "city": "coal creek", "state": "co", "zip": "81221"}, {"name": "lawrence watson", "street": "10727 view blvd", "city": "coal creek", "state": "co", "zip": "81221"}], [{"name": "keith a morales", "street": "16612 seventh", "city": "syracuse", "state": "in", "zip": "465675517"}, {"name": "keith morales", "street": "16612 seventh rd", "city": "syracuse", "state": "in", "zip": "465675517"}], [{"name": "sandra n gonzales", "street": "13385 pine", "city": "alston", "state": "ga", "zip": "304128558"}, {"name": "sandra gonzales", "street": "13385 pine way", "city": "alston", "state": "ga", "zip": "304128558"}], [{"name": "nathan j roberts", "street": "18857 ninth", "city": "yorktown", "state": "va", "zip": "236902778"}, {"name": "nathan roberts", "street": "18857 ninth rd", "city": "yorktown", "state": "va", "zip": "236902778"}], [{"name": "william d phillips", "street": "15118 cedar", "city": "springfield", "state": "oh", "zip": "455059883"}, {"name": "william phillips", "street": "15118 cedar ct", "city": "springfield", "state": "oh", "zip": "455059883"}], [{"name": "ralph p price", "street": "3074 main", "city": "salamanca", "state": "ny", "zip": "147797500"}, {"name": "ralph price", "street": "3074 main rd", "city": "salamanca", "state": "ny", "zip": "147797500"}], [{"name": "zachary a white", "street": "6473 ninth", "city": "lawton", "state": "pa", "zip": "18828"}, {"name": "zachary white", "street": "6473 ninth pl", "city": "lawton", "state": "pa", "zip": "18828"}], [{"name": "andrea b murphy", "street": "11917 first", "city": "madison", "state": "wi", "zip": "53726"}, {"name": "andrea murphy", "street": "11917 first way", "city": "madison", "state": "wi", "zip": "53726"}], [{"name": "carolyn u bennet", "street": "1155 hill", "city": "hewlett", "state": "ny", "zip": "115570903"}, {"name": "carolyn bennet", "street": "1155 hill ct", "city": "hewlett", "state": "ny", "zip": "115570903"}], [{"name": "vincent s smith", "street": "14658 sixth", "city": "wild horse", "state": "co", "zip": "80862"}, {"name": "vincent smith", "street": "14658 sixth pkwy", "city": "wild horse", "state": "co", "zip": "80862"}], [{"name": "noah a harris", "street": "1528 view", "city": "derrick city", "state": "pa", "zip": "16727"}, {"name": "noah harris", "street": "1528 view ln", "city": "derrick city", "state": "pa", "zip": "16727"}], [{"name": "diane q gray", "street": "12985 oak", "city": "pana", "state": "il", "zip": "62557"}, {"name": "diane gray", "street": "12985 oak ct", "city": "pana", "state": "il", "zip": "62557"}], [{"name": "jesse d sanchez", "street": "4779 park", "city": "corona del mar", "state": "ca", "zip": "92625"}, {"name": "jesse sanchez", "street": "4779 park ln", "city": "corona del mar", "state": "ca", "zip": "92625"}], [{"name": "stephen m bailey", "street": "4845 sixth", "city": "aurora", "state": "co", "zip": "80041"}, {"name": "stephen bailey", "street": "4845 sixth ct", "city": "aurora", "state": "co", "zip": "80041"}], [{"name": "arthur a clark", "street": "4294 pine", "city": "coosawhatchie", "state": "sc", "zip": "29912"}, {"name": "arthur clark", "street": "4294 pine pl", "city": "coosawhatchie", "state": "sc", "zip": "29912"}], [{"name": "emily s ruiz", "street": "2871 fourth", "city": "grand rapids", "state": "mi", "zip": "49504"}, {"name": "emily ruiz", "street": "2871 fourth pl", "city": "grand rapids", "state": "mi", "zip": "49504"}], [{"name": "olivia r hall", "street": "18940 view", "city": "emigrant gap", "state": "ca", "zip": "95715"}, {"name": "olivia hall", "street": "18940 view ln", "city": "emigrant gap", "state": "ca", "zip": "95715"}], [{"name": "heather b wood", "street": "1598 fifth", "city": "middlesex", "state": "nc", "zip": "27557"}, {"name": "heather wood", "street": "1598 fifth pkwy", "city": "middlesex", "state": "nc", "zip": "27557"}], [{"name": "samuel v roberts", "street": "13496 park", "city": "westbrook", "state": "mn", "zip": "561834980"}, {"name": "samuel roberts", "street": "13496 park rd", "city": "westbrook", "state": "mn", "zip": "56183"}], [{"name": "debra j johnson", "street": "1443 park", "city": "council grove", "state": "ks", "zip": "66846"}, {"name": "debra johnson", "street": "1443 park ct", "city": "council grove", "state": "ks", "zip": "66846"}], [{"name": "ralph x wilson", "street": "12736 pine", "city": "lake geneva", "state": "fl", "zip": "32160"}, {"name": "ralph wilson", "street": "12736 pine blvd", "city": "lake geneva", "state": "fl", "zip": "32160"}], [{"name": "noah z lee", "street": "6859 seventh", "city": "paris", "state": "ky", "zip": "403623362"}, {"name": "noah lee", "street": "6859 seventh blvd", "city": "paris", "state": "ky", "zip": "403623362"}], [{"name": "kayla k chavez", "street": "11825 main", "city": "akeley", "state": "mn", "zip": "56433"}, {"name": "kayla chavez", "street": "11825 main ln", "city": "akeley", "state": "mn", "zip": "56433"}], [{"name": "joseph f lewis", "street": "14284 seventh", "city": "omro", "state": "wi", "zip": "54963"}, {"name": "joseph lewis", "street": "14284 seventh ln", "city": "omro", "state": "wi", "zip": "54963"}], [{"name": "judith z simpson", "street": "5588 seventh", "city": "winterville", "state": "ms", "zip": "38782"}, {"name": "judith simpson", "street": "5588 seventh ct", "city": "winterville", "state": "ms", "zip": "38782"}], [{"name": "bruce b nelson", "street": "3425 seventh", "city": "fayette", "state": "ny", "zip": "13065"}, {"name": "bruce nelson", "street": "3425 seventh way", "city": "fayette", "state": "ny", "zip": "13065"}], [{"name": "virginia f hughes", "street": "1061 elm", "city": "plano", "state": "tx", "zip": "75024"}, {"name": "virginia hughes", "street": "1061 elm dr", "city": "plano", "state": "tx", "zip": "75024"}], [{"name": "alan x ramirez", "street": "2239 third", "city": "slaton", "state": "tx", "zip": "79364"}, {"name": "alan ramirez", "street": "2239 third way", "city": "slaton", "state": "tx", "zip": "79364"}], [{"name": "rebecca d cooper", "street": "19802 lake", "city": "barto", "state": "pa", "zip": "19504"}, {"name": "rebecca cooper", "street": "19802 lake dr", "city": "barto", "state": "pa", "zip": "19504"}], [{"name": "martha d morgan", "street": "12760 third", "city": "odell", "state": "ne", "zip": "684159915"}, {"name": "martha morgan", "street": "12760 third blvd", "city": "odell", "state": "ne", "zip": "68415"}], [{"name": "christina k hughes", "street": "8100 main", "city": "sublette", "state": "ks", "zip": "67877"}, {"name": "christina hughes", "street": "8100 main dr", "city": "sublette", "state": "ks", "zip": "67877"}], [{"name": "william h myers", "street": "9049 pine", "city": "henderson", "state": "wv", "zip": "251065215"}, {"name": "william myers", "street": "9049 pine pl", "city": "henderson", "state": "wv", "zip": "251065215"}], [{"name": "timothy v clark", "street": "19261 seventh", "city": "saint paul", "state": "mn", "zip": "55145"}, {"name": "timothy clark", "street": "19261 seventh ln", "city": "saint paul", "state": "mn", "zip": "55145"}], [{"name": "philip z white", "street": "9262 elm", "city": "hiawatha", "state": "ia", "zip": "52233"}, {"name": "philip white", "street": "9262 elm rd", "city": "hiawatha", "state": "ia", "zip": "52233"}], [{"name": "sandra n williams", "street": "13256 sixth", "city": "dows", "state": "ia", "zip": "500717852"}, {"name": "sandra williams", "street": "13256 sixth rd", "city": "dows", "state": "ia", "zip": "50071"}], [{"name": "logan b walker", "street": "16703 evergreen", "city": "argyle", "state": "ia", "zip": "526191763"}, {"name": "logan walker", "street": "16703 evergreen way", "city": "argyle", "state": "ia", "zip": "526191763"}], [{"name": "ann u bennet", "street": "19190 lake", "city": "malone", "state": "fl", "zip": "324458551"}, {"name": "ann bennet", "street": "19190 lake ln", "city": "malone", "state": "fl", "zip": "32445"}], [{"name": "judy q price", "street": "12925 ninth", "city": "palm springs", "state": "ca", "zip": "922628099"}, {"name": "judy price", "street": "12925 ninth pl", "city": "palm springs", "state": "ca", "zip": "922628099"}], [{"name": "adam b clark", "street": "5455 cedar", "city": "fort lauderdale", "state": "fl", "zip": "33331"}, {"name": "adam clark", "street": "5455 cedar pl", "city": "fort lauderdale", "state": "fl", "zip": "33331"}], [{"name": "evelyn u carter", "street": "18681 cedar", "city": "portsmouth", "state": "nh", "zip": "038022096"}, {"name": "evelyn carter", "street": "18681 cedar way", "city": "portsmouth", "state": "nh", "zip": "03802"}], [{"name": "brian k moore", "street": "14305 ninth", "city": "northvale", "state": "nj", "zip": "076475333"}, {"name": "brian moore", "street": "14305 ninth blvd", "city": "northvale", "state": "nj", "zip": "076475333"}], [{"name": "cheryl y jones", "street": "10869 first", "city": "tillson", "state": "ny", "zip": "12486"}, {"name": "cheryl jones", "street": "10869 first pl", "city": "tillson", "state": "ny", "zip": "12486"}], [{"name": "billy l ramirez", "street": "7037 first", "city": "loving", "state": "tx", "zip": "764604485"}, {"name": "billy ramirez", "street": "7037 first pkwy", "city": "loving", "state": "tx", "zip": "76460"}], [{"name": "charles u cook", "street": "19873 eighth", "city": "hamtramck", "state": "mi", "zip": "482121309"}, {"name": "charles cook", "street": "19873 eighth blvd", "city": "hamtramck", "state": "mi", "zip": "482121309"}], [{"name": "douglas i morgan", "street": "16086 lake", "city": "ripley", "state": "ok", "zip": "74062"}, {"name": "douglas morgan", "street": "16086 lake ct", "city": "ripley", "state": "ok", "zip": "74062"}], [{"name": "stephen e baker", "street": "11551 main", "city": "universal", "state": "in", "zip": "478846868"}, {"name": "stephen baker", "street": "11551 main way", "city": "universal", "state": "in", "zip": "478846868"}], [{"name": "harold m cook", "street": "18461 third", "city": "bull shoals", "state": "ar", "zip": "72619"}, {"name": "harold cook", "street": "18461 third rd", "city": "bull shoals", "state": "ar", "zip": "72619"}], [{"name": "katherine d martin", "street": "19865 cedar", "city": "saint louis", "state": "mo", "zip": "631309960"}, {"name": "katherine martin", "street": "19865 cedar pl", "city": "saint louis", "state": "mo", "zip": "63130"}], [{"name": "julie c sanchez", "street": "8575 third", "city": "macon", "state": "ga", "zip": "31204"}, {"name": "julie sanchez", "street": "8575 third ln", "city": "macon", "state": "ga", "zip": "31204"}], [{"name": "philip x long", "street": "4306 pine", "city": "chattahoochee", "state": "fl", "zip": "323240981"}, {"name": "philip long", "street": "4306 pine way", "city": "chattahoochee", "state": "fl", "zip": "323240981"}], [{"name": "terry z evans", "street": "17063 first", "city": "new york", "state": "ny", "zip": "100810596"}, {"name": "terry evans", "street": "17063 first rd", "city": "new york", "state": "ny", "zip": "10081"}], [{"name": "betty n chavez", "street": "13636 elm", "city": "alpena", "state": "mi", "zip": "497073645"}, {"name": "betty chavez", "street": "13636 elm ln", "city": "alpena", "state": "mi", "zip": "49707"}], [{"name": "zachary a lewis", "street": "12301 maple", "city": "blountsville", "state": "al", "zip": "350312144"}, {"name": "zachary lewis", "street": "12301 maple ln", "city": "blountsville", "state": "al", "zip": "35031"}], [{"name": "judith z howard", "street": "4883 elm", "city": "bumpass", "state": "va", "zip": "23024"}, {"name": "judith howard", "street": "4883 elm dr", "city": "bumpass", "state": "va", "zip": "23024"}], [{"name": "denise g williams", "street": "13877 cedar", "city": "clarion", "state": "ia", "zip": "505268415"}, {"name": "denise williams", "street": "13877 cedar pl", "city": "clarion", "state": "ia", "zip": "505268415"}], [{"name": "ann n james", "street": "3745 oak", "city": "new trenton", "state": "in", "zip": "470350213"}, {"name": "ann james", "street": "3745 oak ct", "city": "new trenton", "state": "in", "zip": "470350213"}], [{"name": "victoria j nelson", "street": "6074 washington", "city": "cleveland", "state": "oh", "zip": "44129"}, {"name": "victoria nelson", "street": "6074 washington rd", "city": "cleveland", "state": "oh", "zip": "44129"}], [{"name": "anna w turner", "street": "5647 lake", "city": "gustine", "state": "tx", "zip": "764556557"}, {"name": "anna turner", "street": "5647 lake blvd", "city": "gustine", "state": "tx", "zip": "764556557"}], [{"name": "joseph g jackson", "street": "15648 evergreen", "city": "commerce", "state": "tx", "zip": "75428"}, {"name": "joseph jackson", "street": "15648 evergreen pkwy", "city": "commerce", "state": "tx", "zip": "75428"}], [{"name": "aaron e brown", "street": "660 elm", "city": "bay city", "state": "tx", "zip": "774149495"}, {"name": "aaron brown", "street": "660 elm blvd", "city": "bay city", "state": "tx", "zip": "774149495"}], [{"name": "alexander x perez", "street": "16976 second", "city": "cherry creek", "state": "sd", "zip": "576227192"}, {"name": "alexander perez", "street": "16976 second pkwy", "city": "cherry creek", "state": "sd", "zip": "57622"}], [{"name": "roger z bailey", "street": "971 cedar", "city": "cynthiana", "state": "ky", "zip": "41031"}, {"name": "roger bailey", "street": "971 cedar pl", "city": "cynthiana", "state": "ky", "zip": "41031"}], [{"name": "mary z watson", "street": "7943 park", "city": "golva", "state": "nd", "zip": "58632"}, {"name": "mary watson", "street": "7943 park pkwy", "city": "golva", "state": "nd", "zip": "58632"}], [{"name": "isabella y davis", "street": "180 first", "city": "la grange", "state": "nc", "zip": "28551"}, {"name": "isabella davis", "street": "180 first ct", "city": "la grange", "state": "nc", "zip": "28551"}], [{"name": "judith l ortiz", "street": "4685 seventh", "city": "sacramento", "state": "ca", "zip": "958669663"}, {"name": "judith ortiz", "street": "4685 seventh way", "city": "sacramento", "state": "ca", "zip": "95866"}], [{"name": "michael e martin", "street": "10973 maple", "city": "grace", "state": "ms", "zip": "387454014"}, {"name": "michael martin", "street": "10973 maple rd", "city": "grace", "state": "ms", "zip": "38745"}], [{"name": "jack t davis", "street": "6662 oak", "city": "oakwood", "state": "ok", "zip": "73658"}, {"name": "jack davis", "street": "6662 oak pl", "city": "oakwood", "state": "ok", "zip": "73658"}], [{"name": "ralph m ramos", "street": "4243 pine", "city": "leroy", "state": "tx", "zip": "766548035"}, {"name": "ralph ramos", "street": "4243 pine ln", "city": "leroy", "state": "tx", "zip": "766548035"}], [{"name": "albert r martin", "street": "12278 sixth", "city": "jericho", "state": "vt", "zip": "054653015"}, {"name": "albert martin", "street": "12278 sixth blvd", "city": "jericho", "state": "vt", "zip": "054653015"}], [{"name": "donna k miller", "street": "1428 third", "city": "new river", "state": "va", "zip": "241291975"}, {"name": "donna miller", "street": "1428 third pl", "city": "new river", "state": "va", "zip": "24129"}], [{"name": "kimberly l morales", "street": "1501 sixth", "city": "minneapolis", "state": "mn", "zip": "554036583"}, {"name": "kimberly morales", "street": "1501 sixth ln", "city": "minneapolis", "state": "mn", "zip": "554036583"}], [{"name": "larry y wilson", "street": "15180 seventh", "city": "tempe", "state": "az", "zip": "85288"}, {"name": "larry wilson", "street": "15180 seventh ct", "city": "tempe", "state": "az", "zip": "85288"}], [{"name": "douglas v ramos", "street": "10091 first", "city": "kemblesville", "state": "pa", "zip": "193477833"}, {"name": "douglas ramos", "street": "10091 first dr", "city": "kemblesville", "state": "pa", "zip": "19347"}], [{"name": "patrick a scott", "street": "2205 main", "city": "derry", "state": "nm", "zip": "879332030"}, {"name": "patrick scott", "street": "2205 main ln", "city": "derry", "state": "nm", "zip": "879332030"}], [{"name": "susan c kim", "street": "4883 view", "city": "rockingham", "state": "nc", "zip": "283794014"}, {"name": "susan kim", "street": "4883 view dr", "city": "rockingham", "state": "nc", "zip": "28379"}], [{"name": "helen v price", "street": "1673 evergreen", "city": "bapchule", "state": "az", "zip": "851211983"}, {"name": "helen price", "street": "1673 evergreen rd", "city": "bapchule", "state": "az", "zip": "851211983"}], [{"name": "bart g gomez", "street": "5458 third", "city": "el paso", "state": "tx", "zip": "799272765"}, {"name": "bart gomez", "street": "5458 third rd", "city": "el paso", "state": "tx", "zip": "799272765"}], [{"name": "paul w jones", "street": "3996 park", "city": "winter park", "state": "fl", "zip": "32792"}, {"name": "paul jones", "street": "3996 park blvd", "city": "winter park", "state": "fl", "zip": "32792"}], [{"name": "zachary i white", "street": "13978 elm", "city": "wall", "state": "tx", "zip": "76957"}, {"name": "zachary white", "street": "13978 elm pl", "city": "wall", "state": "tx", "zip": "76957"}], [{"name": "logan h cruz", "street": "4881 second", "city": "stockton", "state": "ca", "zip": "952678038"}, {"name": "logan cruz", "street": "4881 second pl", "city": "stockton", "state": "ca", "zip": "95267"}], [{"name": "julia g lee", "street": "9635 second", "city": "satellite beach", "state": "fl", "zip": "32937"}, {"name": "julia lee", "street": "9635 second dr", "city": "satellite beach", "state": "fl", "zip": "32937"}], [{"name": "brandon o rodriguez", "street": "10725 third", "city": "college corner", "state": "oh", "zip": "450035672"}, {"name": "brandon rodriguez", "street": "10725 third way", "city": "college corner", "state": "oh", "zip": "450035672"}], [{"name": "justin s hughes", "street": "13466 evergreen", "city": "three forks", "state": "mt", "zip": "59752"}, {"name": "justin hughes", "street": "13466 evergreen rd", "city": "three forks", "state": "mt", "zip": "59752"}], [{"name": "vincent c ross", "street": "976 first", "city": "diamondhead", "state": "ms", "zip": "39525"}, {"name": "vincent ross", "street": "976 first pl", "city": "diamondhead", "state": "ms", "zip": "39525"}], [{"name": "patricia w thompson", "street": "8216 sixth", "city": "madera", "state": "ca", "zip": "936369113"}, {"name": "patricia thompson", "street": "8216 sixth blvd", "city": "madera", "state": "ca", "zip": "936369113"}], [{"name": "steven k anderson", "street": "5759 ninth", "city": "mendenhall", "state": "pa", "zip": "193573778"}, {"name": "steven anderson", "street": "5759 ninth ct", "city": "mendenhall", "state": "pa", "zip": "19357"}], [{"name": "gerald m gutierrez", "street": "19287 view", "city": "jackson", "state": "mt", "zip": "59736"}, {"name": "gerald gutierrez", "street": "19287 view pkwy", "city": "jackson", "state": "mt", "zip": "59736"}], [{"name": "paul e phillips", "street": "9010 maple", "city": "red cliff", "state": "co", "zip": "816498073"}, {"name": "paul phillips", "street": "9010 maple ct", "city": "red cliff", "state": "co", "zip": "81649"}], [{"name": "logan v wright", "street": "6884 eighth", "city": "rosston", "state": "ar", "zip": "71858"}, {"name": "logan wright", "street": "6884 eighth pkwy", "city": "rosston", "state": "ar", "zip": "71858"}], [{"name": "albert m sanchez", "street": "12376 oak", "city": "toledo", "state": "oh", "zip": "43667"}, {"name": "albert sanchez", "street": "12376 oak blvd", "city": "toledo", "state": "oh", "zip": "43667"}], [{"name": "brenda y evans", "street": "9415 main", "city": "bigfork", "state": "mn", "zip": "56628"}, {"name": "brenda evans", "street": "9415 main rd", "city": "bigfork", "state": "mn", "zip": "56628"}], [{"name": "patrick o cooper", "street": "12528 elm", "city": "huntington", "state": "wv", "zip": "257029380"}, {"name": "patrick cooper", "street": "12528 elm dr", "city": "huntington", "state": "wv", "zip": "25702"}], [{"name": "dylan y long", "street": "11640 elm", "city": "auburndale", "state": "ma", "zip": "024665917"}, {"name": "dylan long", "street": "11640 elm ct", "city": "auburndale", "state": "ma", "zip": "02466"}], [{"name": "jonathan c harris", "street": "2672 fifth", "city": "rome", "state": "ny", "zip": "13441"}, {"name": "jonathan harris", "street": "2672 fifth pl", "city": "rome", "state": "ny", "zip": "13441"}], [{"name": "scott t mendoza", "street": "12534 sixth", "city": "wesley chapel", "state": "fl", "zip": "33545"}, {"name": "scott mendoza", "street": "12534 sixth rd", "city": "wesley chapel", "state": "fl", "zip": "33545"}], [{"name": "roy z harris", "street": "5294 third", "city": "east quogue", "state": "ny", "zip": "11942"}, {"name": "roy harris", "street": "5294 third pl", "city": "east quogue", "state": "ny", "zip": "11942"}], [{"name": "larry k scott", "street": "14009 cedar", "city": "westport point", "state": "ma", "zip": "027919159"}, {"name": "larry scott", "street": "14009 cedar pkwy", "city": "westport point", "state": "ma", "zip": "027919159"}], [{"name": "barbara d collins", "street": "17084 view", "city": "atlanta", "state": "ga", "zip": "30317"}, {"name": "barbara collins", "street": "17084 view ct", "city": "atlanta", "state": "ga", "zip": "30317"}], [{"name": "jerry y brown", "street": "15073 ninth", "city": "new orleans", "state": "la", "zip": "70148"}, {"name": "jerry brown", "street": "15073 ninth pkwy", "city": "new orleans", "state": "la", "zip": "70148"}], [{"name": "gerald a mendoza", "street": "15689 park", "city": "north liberty", "state": "in", "zip": "465548761"}, {"name": "gerald mendoza", "street": "15689 park way", "city": "north liberty", "state": "in", "zip": "465548761"}], [{"name": "stephanie k bailey", "street": "19269 main", "city": "kansas city", "state": "mo", "zip": "641125700"}, {"name": "stephanie bailey", "street": "19269 main rd", "city": "kansas city", "state": "mo", "zip": "64112"}], [{"name": "austin v wilson", "street": "9363 third", "city": "bushnell", "state": "il", "zip": "614224626"}, {"name": "austin wilson", "street": "9363 third blvd", "city": "bushnell", "state": "il", "zip": "61422"}], [{"name": "catherine k jimenez", "street": "16533 maple", "city": "washington", "state": "dc", "zip": "204355470"}, {"name": "catherine jimenez", "street": "16533 maple way", "city": "washington", "state": "dc", "zip": "20435"}], [{"name": "ralph s wilson", "street": "18862 first", "city": "girard", "state": "il", "zip": "62640"}, {"name": "ralph wilson", "street": "18862 first pl", "city": "girard", "state": "il", "zip": "62640"}], [{"name": "judith h sanchez", "street": "1285 oak", "city": "dante", "state": "sd", "zip": "57329"}, {"name": "judith sanchez", "street": "1285 oak rd", "city": "dante", "state": "sd", "zip": "57329"}], [{"name": "dorothy f miller", "street": "13627 ninth", "city": "mannford", "state": "ok", "zip": "740442097"}, {"name": "dorothy miller", "street": "13627 ninth pl", "city": "mannford", "state": "ok", "zip": "740442097"}], [{"name": "julie g moore", "street": "13590 elm", "city": "los alamitos", "state": "ca", "zip": "90721"}, {"name": "julie moore", "street": "13590 elm dr", "city": "los alamitos", "state": "ca", "zip": "90721"}], [{"name": "donald q price", "street": "10582 sixth", "city": "tillman", "state": "sc", "zip": "29943"}, {"name": "donald price", "street": "10582 sixth pkwy", "city": "tillman", "state": "sc", "zip": "29943"}], [{"name": "carol v ruiz", "street": "10008 ninth", "city": "palm coast", "state": "fl", "zip": "32142"}, {"name": "carol ruiz", "street": "10008 ninth pl", "city": "palm coast", "state": "fl", "zip": "32142"}], [{"name": "samuel l james", "street": "137 fourth", "city": "lee vining", "state": "ca", "zip": "935410644"}, {"name": "samuel james", "street": "137 fourth way", "city": "lee vining", "state": "ca", "zip": "935410644"}], [{"name": "jason k clark", "street": "5626 pine", "city": "ogden", "state": "ut", "zip": "84415"}, {"name": "jason clark", "street": "5626 pine way", "city": "ogden", "state": "ut", "zip": "84415"}], [{"name": "maggie n campbell", "street": "14658 pine", "city": "columbus", "state": "oh", "zip": "432359797"}, {"name": "maggie campbell", "street": "14658 pine ct", "city": "columbus", "state": "oh", "zip": "43235"}], [{"name": "homer t nelson", "street": "9510 fifth", "city": "kingsley", "state": "pa", "zip": "188261056"}, {"name": "homer nelson", "street": "9510 fifth ln", "city": "kingsley", "state": "pa", "zip": "18826"}], [{"name": "judy i rogers", "street": "9937 washington", "city": "artesia wells", "state": "tx", "zip": "78001"}, {"name": "judy rogers", "street": "9937 washington ln", "city": "artesia wells", "state": "tx", "zip": "78001"}], [{"name": "emily f myers", "street": "18182 lake", "city": "longmont", "state": "co", "zip": "80503"}, {"name": "emily myers", "street": "18182 lake blvd", "city": "longmont", "state": "co", "zip": "80503"}], [{"name": "daniel n reyes", "street": "6171 view", "city": "dunkerton", "state": "ia", "zip": "506268071"}, {"name": "daniel reyes", "street": "6171 view blvd", "city": "dunkerton", "state": "ia", "zip": "50626"}], [{"name": "alice f young", "street": "609 oak", "city": "smyrna", "state": "ga", "zip": "300822297"}, {"name": "alice young", "street": "609 oak ln", "city": "smyrna", "state": "ga", "zip": "30082"}], [{"name": "jack d allen", "street": "12999 park", "city": "pinckneyville", "state": "il", "zip": "622743577"}, {"name": "jack allen", "street": "12999 park ln", "city": "pinckneyville", "state": "il", "zip": "622743577"}], [{"name": "peter u green", "street": "6896 lake", "city": "mason city", "state": "ia", "zip": "504018615"}, {"name": "peter green", "street": "6896 lake ct", "city": "mason city", "state": "ia", "zip": "504018615"}], [{"name": "jesse b clark", "street": "5882 eighth", "city": "tallahassee", "state": "fl", "zip": "323060680"}, {"name": "jesse clark", "street": "5882 eighth dr", "city": "tallahassee", "state": "fl", "zip": "32306"}], [{"name": "joyce e alvarez", "street": "9626 park", "city": "scottville", "state": "nc", "zip": "28672"}, {"name": "joyce alvarez", "street": "9626 park pl", "city": "scottville", "state": "nc", "zip": "28672"}], [{"name": "judith k wright", "street": "16299 park", "city": "cantril", "state": "ia", "zip": "52542"}, {"name": "judith wright", "street": "16299 park pkwy", "city": "cantril", "state": "ia", "zip": "52542"}], [{"name": "kyle f howard", "street": "2111 elm", "city": "dpo", "state": "ny", "zip": "09762"}, {"name": "kyle howard", "street": "2111 elm dr", "city": "dpo", "state": "ny", "zip": "09762"}], [{"name": "laura w hill", "street": "2497 seventh", "city": "petaluma", "state": "ca", "zip": "94953"}, {"name": "laura hill", "street": "2497 seventh way", "city": "petaluma", "state": "ca", "zip": "94953"}], [{"name": "helen n walker", "street": "19672 maple", "city": "salem", "state": "al", "zip": "368748405"}, {"name": "helen walker", "street": "19672 maple pkwy", "city": "salem", "state": "al", "zip": "36874"}], [{"name": "alexander n taylor", "street": "19345 sixth", "city": "bronx", "state": "ny", "zip": "10473"}, {"name": "alexander taylor", "street": "19345 sixth rd", "city": "bronx", "state": "ny", "zip": "10473"}], [{"name": "matthew s morgan", "street": "944 eighth", "city": "utuado", "state": "pr", "zip": "006411649"}, {"name": "matthew morgan", "street": "944 eighth pl", "city": "utuado", "state": "pr", "zip": "00641"}], [{"name": "patricia g simpson", "street": "9081 main", "city": "dearing", "state": "ks", "zip": "673400572"}, {"name": "patricia simpson", "street": "9081 main pl", "city": "dearing", "state": "ks", "zip": "673400572"}], [{"name": "janice b thomas", "street": "7613 third", "city": "darwin", "state": "mn", "zip": "55324"}, {"name": "janice thomas", "street": "7613 third ct", "city": "darwin", "state": "mn", "zip": "55324"}], [{"name": "kayla p jimenez", "street": "13863 pine", "city": "essex", "state": "il", "zip": "60935"}, {"name": "kayla jimenez", "street": "13863 pine rd", "city": "essex", "state": "il", "zip": "60935"}], [{"name": "joe a walker", "street": "13030 third", "city": "philadelphia", "state": "pa", "zip": "191135610"}, {"name": "joe walker", "street": "13030 third rd", "city": "philadelphia", "state": "pa", "zip": "191135610"}], [{"name": "heather i murphy", "street": "18184 cedar", "city": "santa ana", "state": "ca", "zip": "927997589"}, {"name": "heather murphy", "street": "18184 cedar dr", "city": "santa ana", "state": "ca", "zip": "92799"}], [{"name": "rachel h murphy", "street": "6471 oak", "city": "raymondville", "state": "ny", "zip": "13678"}, {"name": "rachel murphy", "street": "6471 oak rd", "city": "raymondville", "state": "ny", "zip": "13678"}], [{"name": "mark r bailey", "street": "16130 fourth", "city": "grosse ile", "state": "mi", "zip": "48138"}, {"name": "mark bailey", "street": "16130 fourth rd", "city": "grosse ile", "state": "mi", "zip": "48138"}], [{"name": "homer s johnson", "street": "11897 fifth", "city": "blocksburg", "state": "ca", "zip": "955146271"}, {"name": "homer johnson", "street": "11897 fifth pl", "city": "blocksburg", "state": "ca", "zip": "955146271"}], [{"name": "joe a green", "street": "6058 fourth", "city": "melvindale", "state": "mi", "zip": "481229595"}, {"name": "joe green", "street": "6058 fourth ct", "city": "melvindale", "state": "mi", "zip": "48122"}], [{"name": "pamela s morris", "street": "4403 eighth", "city": "ancramdale", "state": "ny", "zip": "12503"}, {"name": "pamela morris", "street": "4403 eighth blvd", "city": "ancramdale", "state": "ny", "zip": "12503"}], [{"name": "brittany g gray", "street": "10090 maple", "city": "el paso", "state": "tx", "zip": "885315247"}, {"name": "brittany gray", "street": "10090 maple blvd", "city": "el paso", "state": "tx", "zip": "885315247"}], [{"name": "timothy l morgan", "street": "9221 cedar", "city": "virginia beach", "state": "va", "zip": "23450"}, {"name": "timothy morgan", "street": "9221 cedar rd", "city": "virginia beach", "state": "va", "zip": "23450"}], [{"name": "charles w harris", "street": "13350 main", "city": "huntington", "state": "wv", "zip": "25772"}, {"name": "charles harris", "street": "13350 main pl", "city": "huntington", "state": "wv", "zip": "25772"}], [{"name": "emma c evans", "street": "12084 eighth", "city": "stratford", "state": "ok", "zip": "74872"}, {"name": "emma evans", "street": "12084 eighth rd", "city": "stratford", "state": "ok", "zip": "74872"}], [{"name": "brandon s brown", "street": "19510 lake", "city": "wellston", "state": "mi", "zip": "496895304"}, {"name": "brandon brown", "street": "19510 lake rd", "city": "wellston", "state": "mi", "zip": "496895304"}], [{"name": "frank r wilson", "street": "14592 evergreen", "city": "stonington", "state": "me", "zip": "04681"}, {"name": "frank wilson", "street": "14592 evergreen ct", "city": "stonington", "state": "me", "zip": "04681"}], [{"name": "marge a cruz", "street": "18260 evergreen", "city": "sumner", "state": "tx", "zip": "75486"}, {"name": "marge cruz", "street": "18260 evergreen rd", "city": "sumner", "state": "tx", "zip": "75486"}], [{"name": "noah q campbell", "street": "16105 sixth", "city": "new burnside", "state": "il", "zip": "629673413"}, {"name": "noah campbell", "street": "16105 sixth rd", "city": "new burnside", "state": "il", "zip": "629673413"}], [{"name": "sarah n parker", "street": "3580 elm", "city": "oakley", "state": "ca", "zip": "94561"}, {"name": "sarah parker", "street": "3580 elm rd", "city": "oakley", "state": "ca", "zip": "94561"}], [{"name": "nathan k bennet", "street": "7854 main", "city": "fargo", "state": "ok", "zip": "73840"}, {"name": "nathan bennet", "street": "7854 main blvd", "city": "fargo", "state": "ok", "zip": "73840"}], [{"name": "sara r mendoza", "street": "7723 oak", "city": "gadsden", "state": "al", "zip": "35907"}, {"name": "sara mendoza", "street": "7723 oak rd", "city": "gadsden", "state": "al", "zip": "35907"}], [{"name": "steven w ortiz", "street": "13369 oak", "city": "semmes", "state": "al", "zip": "36575"}, {"name": "steven ortiz", "street": "13369 oak dr", "city": "semmes", "state": "al", "zip": "36575"}], [{"name": "mark x watson", "street": "391 oak", "city": "pottsville", "state": "ar", "zip": "728580366"}, {"name": "mark watson", "street": "391 oak ct", "city": "pottsville", "state": "ar", "zip": "728580366"}], [{"name": "amanda p cruz", "street": "15282 lake", "city": "tomah", "state": "wi", "zip": "54660"}, {"name": "amanda cruz", "street": "15282 lake ct", "city": "tomah", "state": "wi", "zip": "54660"}], [{"name": "alexander v howard", "street": "3549 evergreen", "city": "collins", "state": "ny", "zip": "140344628"}, {"name": "alexander howard", "street": "3549 evergreen blvd", "city": "collins", "state": "ny", "zip": "14034"}], [{"name": "lauren i turner", "street": "15281 cedar", "city": "austin", "state": "tx", "zip": "78711"}, {"name": "lauren turner", "street": "15281 cedar pkwy", "city": "austin", "state": "tx", "zip": "78711"}], [{"name": "charlotte q howard", "street": "6850 washington", "city": "columbia", "state": "ia", "zip": "50057"}, {"name": "charlotte howard", "street": "6850 washington rd", "city": "columbia", "state": "ia", "zip": "50057"}], [{"name": "stephanie b castillo", "street": "13192 third", "city": "marstons mills", "state": "ma", "zip": "026484579"}, {"name": "stephanie castillo", "street": "13192 third ln", "city": "marstons mills", "state": "ma", "zip": "02648"}], [{"name": "dylan m roberts", "street": "12901 park", "city": "washington", "state": "ne", "zip": "680685745"}, {"name": "dylan roberts", "street": "12901 park ct", "city": "washington", "state": "ne", "zip": "680685745"}], [{"name": "evelyn e green", "street": "17312 lake", "city": "mount airy", "state": "ga", "zip": "305633373"}, {"name": "evelyn green", "street": "17312 lake ct", "city": "mount airy", "state": "ga", "zip": "30563"}], [{"name": "alice y myers", "street": "2810 oak", "city": "schoolcraft", "state": "mi", "zip": "490876858"}, {"name": "alice myers", "street": "2810 oak ct", "city": "schoolcraft", "state": "mi", "zip": "49087"}], [{"name": "randy q baker", "street": "18379 maple", "city": "croton on hudson", "state": "ny", "zip": "10520"}, {"name": "randy baker", "street": "18379 maple way", "city": "croton on hudson", "state": "ny", "zip": "10520"}]]}