name,street,city,state,zip
Homer J Taylor,1671 Park Ln,Wendell,ID,83355-4209
Emily Richardson,13937 Seventh,Andover,VA,24215
Brandon U Baker,9221 First,Moorhead,MN,56563-6431
Johnny Adams,4357 Hill,Ocoee,FL,34761-6852
Justin Castillo,1712 Pine,Las Vegas,NV,89126-8574
Roger Peterson,15977 Second,Buffalo,NY,14233-9117
Maggie Hernandez,448 First Ln,New Orleans,LA,70154
Kevin X Torres,14559 Fifth Pkwy,Denver,CO,80233
Jerry Price,16583 Washington Ct,Pittsburgh,PA,15227-4454
Roy Bailey,18377 Pine Pkwy,Channing,MI,49815-3516
Brandon R Sanchez,12323 Main,Stockbridge,VT,05772
Philip E Roberts,18034 Third,Harmony,ME,04942
Sophia W Carter,19416 Cedar,Freeburg,PA,17827
Jordan J Carter,715 Main,Hampton,CT,06247-5933
Kayla Smith,16184 Pine,Columbus,OH,43085
Sandra H Cox,13333 Eighth Rd,Round Rock,TX,78683-8104
Walter Phillips,12020 Third Dr,Carbondale,PA,18407-5230
Terry P Walker,2931 Elm Pl,Kansas City,MO,64121-8419
Dorothy A Smith,4379 Oak,Cape May Point,NJ,08212-8826
Bobby B Foster,4243 Fifth Way,Holmes Mill,KY,40843
Juan A Howard,10388 Washington Blvd,Bevier,MO,63532
Joan R Cook,13722 Fifth Dr,Laramie,WY,82070
Marilyn Edwards,7962 Fifth,Palm Bay,FL,32910
Jean Allen,17865 Lake,Windham,CT,06280-3451
Bryan Thomas,13311 View Pl,Fabius,NY,13063-9549
Brian James,12490 Second,Fort Worth,TX,76185
Marge X Cook,17715 Second Ln,Grand Island,NE,68803
Scott D Ruiz,13002 Lake Blvd,Chico,CA,95976
Bobby Miller,5056 Seventh Pl,Beaver Dams,NY,14812
Joshua A Rivera,6849 Seventh,Long Island City,NY,11109
Alexis Morris,3894 Park,Amanda,OH,43102-9565
Jeffrey Howard,2920 Ninth,Opelousas,LA,70571
Sean Green,13931 Hill,Westwego,LA,70094
Angela Nguyen,13743 Eighth Blvd,Fields Landing,CA,95537
Douglas N Scott,10200 Elm,Jackson,MO,63755-4186
Heather Campbell,18018 Second,Shiloh,OH,44878
Gloria Q Williams,7569 First Blvd,Matthews,MO,63867
Larry Murphy,5223 First,Morehead City,NC,28557-0195
Brittany Edwards,19558 Sixth,San Antonio,TX,78298
Douglas Ruiz,10704 Park Pl,McHenry,MS,39561
Lawrence Myers,10534 View Pl,Fillmore,CA,93016
Marie Hughes,13454 Elm Rd,Macon,GA,31203-5391
Stephen Bennet,3406 Seventh Rd,Fort Atkinson,IA,52144
Frances E Ross,8625 Maple,Whitewater,KS,67154
Christine Young,8166 Seventh Rd,Springville,AL,35146-7666
Lauren S Murphy,4371 Third Dr,Wichita Falls,TX,76302-2475
Margaret Wright,14186 First,Bradenton,FL,34201
Homer Hughes,3652 Cedar,Sneads,FL,32460-8678
Dorothy G Ross,10387 Oak Pl,Granville,TN,38564
Sandra Ruiz,19696 View,La Puente,CA,91746
Laura Howard,9039 Sixth,San Saba,TX,76877-2306
Ryan Mendoza,1258 Park Blvd,Chattanooga,TN,37401-4925
Roger S Cruz,19840 Evergreen Way,Roduco,NC,27969-3258
Natalie Brooks,8814 Maple,Dallas,TX,75234-0881
Amy I Gutierrez,7962 Maple,Middlesex,NY,14507-2463
Helen Thompson,13944 Sixth,Becker,MS,38825
Virginia Watson,11847 Eighth Way,Friedens,PA,15541
John J Ruiz,14186 View,Unionville,MD,21792-8807
Lauren Mitchell,4624 Sixth Blvd,Roundup,MT,59072
James M Cook,18444 Fifth Ct,Wilmington,DE,19803-4245
Andrew B Martin,2057 Fifth,Cedarville,MI,49719
Helen V Rivera,1373 Park,North Springfield,PA,16430-8332
Bobby Torres,6271 Main Rd,Beverly Hills,CA,90210-7403
Debra W Harris,15163 Third Pkwy,Tulsa,OK,74158-9825
Jeremy Peterson,4925 Fifth Dr,Snyder,TX,79550-1605
Angela Flores,2801 Evergreen Blvd,Barnesville,GA,30204
Jack Reyes,10120 Fifth,Tarpley,TX,78883
Emily Gomez,18945 Third,Bunker Hill,KS,67626
Judy V Smith,5945 View,West Point,MS,39773-8638
Gregory Jimenez,2063 Third Dr,Oriskany,NY,13424-9475
Dorothy B Kim,11631 Hill Ln,Bradford,PA,16701
Elijah Gray,17403 First,Perkins,OK,74059
Michelle Z Cook,6758 Main,Owego,NY,13827
Elijah Richardson,16047 Lake,Milano,TX,76556-9387
Austin R Thomas,8366 Evergreen Ct,Cliff Island,ME,04019-4379
Paul Hughes,2679 Pine,Scottsburg,IN,47170-5698
Gregory B Smith,3731 View Ln,Rufe,OK,74755-3329
Debra Diaz,2889 Second,Mount Sterling,IL,62353-1815
Lauren J Phillips,16386 First Rd,Scottsdale,AZ,85261-4578
Scott Jimenez,16748 Lake,Wynnburg,TN,38077
Timothy Phillips,19346 Second,Golden,IL,62339-8672
Ralph Y Ortiz,7453 Oak Way,Richland,SC,29675
Patrick U Hernandez,14919 Third,Columbus,IN,47202
Brian Williams,4254 Elm Dr,Santa Ana,CA,92711-5408
Donna Howard,14929 Main,State Line,IN,47982
Jordan R Evans,12112 Main Pkwy,Andover,IA,52701
Nicole Richardson,14049 Elm,York Springs,PA,17372
Sara T Mendoza,6328 Evergreen,Commack,NY,11725-8530
Samuel James,13951 Elm,Harrison,ID,83833-3452
Joan O Lewis,10629 Pine,Williamsburg,PA,16693
Marie I Harris,632 First Way,Sullivan,MO,63080
Madison J Morris,19975 Main Way,Bradford,AR,72020
Johnny P Rivera,17197 Sixth,Cost,TX,78614
Bobby Stewart,8524 First Pkwy,Waynesville,OH,45068-5771
Amanda N Flores,15764 Park,Bath,PA,18014-2137
Keith Hall,13675 Seventh,Delray Beach,FL,33445
Andrea Rodriguez,6837 Lake Ct,Newark,NJ,07195-4125
Austin L Morales,15685 Pine Way,Littleton,CO,80162
William Chavez,1606 Cedar Ct,Topmost,KY,41862
Marie G Wilson,8165 Elm Pkwy,Mack,CO,81525
Edward H Hill,661 Oak Ct,East Wakefield,NH,03830-3687
Hannah Williams,7051 Maple,Springfield,IL,62705-8509
Sharon Evans,19307 Pine Ct,Odin,MN,56160-9277
Lisa X Hernandez,17690 Sixth Rd,Las Vegas,NV,89147-6208
Alice Wood,11733 Third,Banner Elk,NC,28604-8263
Kayla A Thompson,11532 Washington Way,Green Bay,WI,54311-1066
Adam Cooper,15047 Seventh,Cool Ridge,WV,25825
Linda C Hughes,2212 Pine,Heber,CA,92249
Diane Moore,18557 Maple,Haverhill,MA,01832
Rebecca Edwards,14765 Seventh Dr,Oark,AR,72852-3628
Elizabeth White,19278 Park Pkwy,Wilson,OK,73463
Judy C White,8284 First Rd,Lemmon,SD,57638
Karen H Johnson,14656 Pine Blvd,Laporte,PA,18626
Robert T Lee,3669 Seventh Pkwy,Brimley,MI,49715-8401
Vincent G Garcia,8467 First,Fairview,IL,61432-5034
Logan O Gomez,10395 Elm Dr,Overton,NV,89040
Katherine B Jimenez,19744 Pine,Lockesburg,AR,71846-6650
Madison Cox,1412 Fourth Pl,Bakersville,NC,28705
Justin King,14532 Fourth,Champlain,NY,12919-3461
Matthew Cruz,15684 Elm Blvd,Bronte,TX,76933-5654
Melissa V Robinson,868 Washington Ln,McKean,PA,16426
Mary K Hall,12846 Lake,Buckner,IL,62819-8321
Victoria J Carter,15474 Pine,Louisville,KY,40253-6814
Paul Brown,7089 Elm,North Branch,MN,55056-5869
Charlotte D Kim,17900 First Pkwy,Hayden,AL,35079
Ethan Rivera,6865 Pine Pkwy,APO,NY,09002
William E Richardson,19381 Seventh,Durango,IA,52039-1154
Stephen Ward,322 First,Parksville,KY,40464
Kelly Anderson,8068 Fifth Ct,Birmingham,AL,35293-0625
Joan Wood,11764 View,Columbus,OH,43217
Daniel Y Ramirez,17775 Elm Pl,Juniata,NE,68955
Frank Nguyen,11959 Third,Paterson,NJ,07503-7072
Ethan Lee,6361 Main Rd,APO,NY,09603-2735
Andrea Williams,15326 Park,Falls Church,VA,22040
Dennis Sanders,11862 Pine Ct,Central City,PA,15926
Matthew Q Peterson,10346 First Blvd,Dallas,TX,75232
Scott Hill,4253 Washington Blvd,Dunn,NC,28334-0428
Dylan F Adams,5772 Oak Pkwy,APO,NY,09242
Noah Murphy,9687 Ninth Pkwy,Cove City,NC,28523-7012
Grace Young,4707 Fourth Pkwy,Naples,FL,34120
Joshua T Ruiz,15499 Cedar,Stockton,NJ,08559-1741
Sean P Castillo,9055 Evergreen Pkwy,Hampden,MA,01036-9516
Robert Ramos,9279 Main Dr,Astatula,FL,34705-1723
Danielle Kelly,2640 Park,China Spring,TX,76633-4852
Jonathan Cox,18596 Washington,Chickamauga,GA,30707
Helen Bailey,19279 Cedar,Beetown,WI,53802
Lauren Moore,13501 Oak,Hazel,KY,42049-6751
Aaron Q Sanchez,6573 Pine,Salado,TX,76571-4615
Juan L Roberts,4797 Second,Middletown,MD,21769
Gloria Mendoza,6679 Park Blvd,Atlanta,NY,14808-0129
Sophia Z Phillips,14074 Park,Leesville,LA,71496
Jack L Jimenez,13289 Park Way,Urbana,IL,61801
Emma Sanders,5870 Pine Pl,Thonotosassa,FL,33592-1217
Jennifer Z Johnson,12006 Evergreen,Pratts,VA,22731-3364
Ethan Gutierrez,5786 Pine Pkwy,Catherine,AL,36728
Jason Wood,1967 Main Rd,Whitney,NE,69367-7807
Henry Wright,9433 Hill,Shawnee,OK,74801
Homer Sanchez,8372 Eighth,Penryn,CA,95663
Eugene E Patel,5753 Sixth Pkwy,Houghton Lake,MI,48629
Carolyn Bennet,11222 Cedar,Springfield,IL,62701-3867
Christine K Baker,456 View,Korbel,CA,95550-1192
Michael Rivera,17590 View Way,Barceloneta,PR,00617
Anna Thomas,7777 Ninth Ct,Elgin,PA,16413-7662
Margaret S Williams,4940 Cedar Rd,Mazeppa,MN,55956-5531
Samuel A Diaz,14331 Lake,Stanton,IA,51573
Amanda N Hill,19496 View Ln,Gratis,OH,45330
Dylan C Long,19869 Hill,Cullen,VA,23934-4492
Maria M Ramirez,4138 Oak Way,Watertown,CT,06795-2641
Elizabeth L Campbell,14494 First,Larslan,MT,59244
Denise U Castillo,10197 Evergreen Pl,Spring Glen,NY,12483-2499
Teresa O Hill,12673 First Dr,White Marsh,VA,23183-2633
Ronald Walker,15307 Main Blvd,Bellaire,TX,77402-2789
Alan O Adams,18280 Pine,Castlewood,VA,24224
James X Evans,8727 Second Dr,Brownsville,KY,42210-2649
Keith Wright,16728 Evergreen,Eagle Nest,NM,87718
Mary Bailey,10305 Eighth Ln,Highgate Springs,VT,05460-5727
Olivia Martin,4964 Maple Way,Bucklin,KS,67834-4392
Logan Parker,18110 Ninth,Stone Mountain,GA,30088
Willie Hughes,8268 Fifth Ct,Oceanport,NJ,07757
Marge B Wood,1175 Ninth,Louisville,KY,40202-2905
Joyce Phillips,9289 Seventh Blvd,Orlando,FL,32809-9083
Mary Turner,13660 View,Sparta,GA,31087
Keith M Castillo,4193 Fifth Ln,Baton Rouge,LA,70874
Diane Hernandez,9724 Maple,East Meadow,NY,11554
Sarah S Ruiz,9946 Ninth,Cardwell,MO,63829-2350
Abigail Allen,8429 Third,Atlantic,IA,50022
Justin G Adams,18522 View,Steedman,MO,65077-4494
Ralph Sanders,1671 Maple Rd,Chicago,IL,60615-0691
Henry Wilson,16955 Fourth,New Lebanon,NY,12125-2827
Harold S Brooks,10186 Oak,Fort Lyon,CO,81038
Nancy Long,13891 Maple Pl,Detroit,MI,48222-5127
Ashley G Scott,17775 Second,North Royalton,OH,44133
Abigail Davis,2536 Park Rd,Bridgeport,IL,62417-1716
Cynthia Mitchell,241 Oak,Alpharetta,GA,30023-2943
Cynthia Brooks,6700 Fifth,Milwaukee,WI,53202-0571
Judith P Garcia,13146 Fifth,Samson,AL,36477-6380
Roy N Myers,15075 Eighth,Valley Ford,CA,94972
Michelle J Anderson,8149 Maple,Roxboro,NC,27574
Christina James,1716 Fourth,Millers Falls,MA,01349-2079
Ryan O Gomez,16220 Cedar Way,Lansing,MI,48930-2209
Diana M Reyes,15244 Pine,Atascadero,CA,93422-7566
Louis Walker,2125 View,Alberton,MT,59820-6598
Scott A Flores,3984 Park,Columbus,OH,43279-2944
Diana Wright,17499 Fourth Blvd,Ballston Spa,NY,12020
Kimberly Carter,3482 Lake,Macon,GA,31295-5229
Alan Taylor,15066 Third,Overland Park,KS,66251-0307
Brian H Young,10686 First,Cleveland,TN,37311-1397
Kimberly Ramos,16028 Hill,Hinckley,MN,55037-3514
David Mitchell,18620 Ninth,Stringer,MS,39481-6410
Sara Watson,11124 Second Ln,Bronx,NY,10460
Joyce Carter,19860 Evergreen,Buena Park,CA,90622-8999
Sean Richardson,15748 Seventh,Moorefield,NE,69039
Nicholas Scott,17417 Sixth,Diamond Point,NY,12824-4207
Hannah Bennet,13288 First,Kingsport,TN,37665
Christopher W Smith,5983 Washington Pl,Roseland,VA,22967
Philip Ross,13487 Hill Ln,Corona,NY,11368-5613
Catherine Chavez,8820 Washington,Kingdom City,MO,65262
Isabella X Long,7213 Lake Rd,Houston,TX,77085
Marge Evans,8494 Ninth Blvd,Bandera,TX,78003-0622
Ruth Hernandez,6152 Cedar,Lincoln,MA,01773-7898
Keith R Reyes,13159 Oak,Penns Creek,PA,17862-2559
Ann Diaz,1170 Hill Dr,Tulsa,OK,74127-3140
Bryan Baker,1695 Evergreen Way,Far Rockaway,NY,11695
Nicholas N Cooper,9229 Lake,Rock Spring,GA,30739
Louis B Harris,11554 First,Springfield,IL,62762
Timothy Miller,12233 View,Dupont,IN,47231
Patrick S Evans,7245 Pine,Huntingdon,PA,16652
Ralph E Davis,14413 Hill,Scranton,PA,18512-7105
Ralph Brooks,19485 Hill Ct,Stuart,FL,34996-5190
Alice Collins,10470 Washington,Miami,FL,33153-2231
Angela Lewis,2141 Sixth,Webbville,KY,41180
Amanda H Young,1965 First Blvd,Beverly Shores,IN,46301-2694
Julie Sanchez,1726 Fourth,Oakhurst,OK,74050
Katherine A Morris,9923 Hill,West Point,NE,68788-8440
Jean Campbell,4023 Evergreen,Philadelphia,PA,19130
Steven P Kelly,18955 Third,Atlanta,GA,30304-3628
Janice Kelly,17512 Lake Way,Stowe,VT,05672-5567
Jonathan Davis,1950 Third Dr,Sandston,VA,23150-8475
Debra Evans,14836 Seventh Blvd,Englishtown,NJ,07726-0183
Carl Campbell,4219 Cedar Way,Humphrey,NE,68642-7942
Christine Nelson,14234 Washington Pkwy,Tannersville,PA,18372-9325
Beverly Stewart,18462 Washington Dr,Riviera,TX,78379
Logan James,10309 First Pkwy,North Bergen,NJ,07047
Karen Lewis,15619 Ninth,Midland,MI,48641
Grace Price,1348 Ninth,River Falls,WI,54022
Albert Taylor,10719 Maple,Rockford,IL,61107
Laura Hughes,4653 Seventh,Winifred,MT,59489
Russell N King,17193 Second,Virginia City,NV,89440-9823
Benjamin Williams,2300 Fifth Pkwy,Haworth,OK,74740
Natalie W Gray,10484 Third,Adams Basin,NY,14410
Ronald S Hernandez,17885 Maple,Jackson,AL,36545-7826
Alan P Williams,8792 Second,Lafayette,LA,70502-0340
William Y Hughes,9261 Seventh,Corriganville,MD,21524-5614
Michael Diaz,16549 Park Ln,Palatine,IL,60074
Lisa Adams,12719 Pine Dr,Sun City Center,FL,33571-0794
Michelle L Johnson,592 Seventh,Anthony,TX,79821
Albert I Perez,1434 Lake Pkwy,Warren,ID,83671
Marge N Long,6221 Cedar,Slick,OK,74071
Judith A Peterson,12678 Fifth Rd,Peck,MI,48466-9726
Barbara Wright,15837 View Pl,Old Fort,TN,37362
Marilyn Phillips,5192 Oak Ct,Burbank,CA,91504
Joyce O Morales,8140 Evergreen,Gulfport,MS,39501
Jerry Brown,2442 Cedar Blvd,Pocatello,ID,83209-4610
Elijah X Nelson,4968 First,Wallops Island,VA,23337
Ethan Lee,19929 Sixth Pl,Pearl,MS,39208
Linda Hughes,6454 Fifth,Underwood,IN,47177-4754
Deborah S Cook,13844 Hill Way,Baton Rouge,LA,70884-1621
Natalie K Smith,3165 Seventh Ct,Rockport,WV,26169-7522
Lisa E Myers,1575 Elm,Silver Creek,NY,14136
Frances R Rivera,18099 Sixth,Belfast,TN,37019-0015
George D Rodriguez,15201 Seventh Pl,Beaumont,MS,39423
Jeffrey H Clark,19892 Washington Ln,Lanoka Harbor,NJ,08734-1259
Isabella Carter,12765 Maple,Anthony,KS,67003-0669
Ann K Phillips,18257 Evergreen Rd,Markle,IN,46770-2424
Amy Anderson,11966 Pine Pl,Milwaukee,WI,53259
Zachary I Long,15380 Main Dr,McBrides,MI,48852-7309
Katherine Sanchez,5209 Pine,Fort Worth,TX,76104-2031
Sarah T Campbell,12547 First,Clinton,IA,52732
Susan Ruiz,144 Oak Ln,Guide Rock,NE,68942
Abigail Richardson,14514 Seventh,Mesa,AZ,85210
Kathleen R Howard,6601 Hill,Cookville,TX,75558
Arthur L Howard,2069 Washington,Franklin,TN,37069
Rose B Allen,16100 Main,Rockport,WV,26169
Nathan Y Edwards,18500 Third Way,Hampton,VA,23669-3063
Carl D Reed,18265 Washington Ln,Chiefland,FL,32626-0790
Diane Carter,17492 Lake,Billingsley,AL,36006
Karen Gray,183 First Ln,Shawnee,KS,66217-9327
Hannah Price,16860 Evergreen Pl,Metairie,LA,70005-6770
Catherine T Walker,11846 Washington Ln,West Newton,IN,46183
Denise Ross,8911 Elm,DPO,NY,09864-3833
Willie I Foster,5830 Fifth,Clayton,KS,67629-4175
Grace Peterson,7409 Elm Ct,Franklin,IN,46131
Frank Lopez,2091 Eighth,Camp Pendleton,CA,92055-2967
Jennifer Z Jimenez,6101 Fourth Pl,Bel Air,MD,21014-6656
Melissa B Chavez,17992 Oak,Charlotte,NC,28260
Gloria Bailey,730 Pine,Islip,NY,11751
Grace Collins,985 Evergreen Rd,Reserve,MT,59258-6524
Olivia L Roberts,4079 Park,Columbia,SC,29209
Carl D Gray,18387 Elm Ct,Franklin,WI,53132-8434
Madison B Reed,12497 Washington,Laketon,IN,46943-8491
Judy B Walker,9992 Oak,Camden,MO,64017-3417
Anna Cooper,11704 Evergreen Way,Fulton,MS,38843-8102
Gerald Robinson,19446 Third,Chicago,IL,60628
Debra F Ortiz,19873 Eighth,Aurora,MO,65605-3420
Emma Torres,12504 Elm,Kansas City,MO,64154
Margaret Edwards,7129 View,Turrell,AR,72384
David X Wilson,8675 View,Lewisburg,WV,24901
Frances Hall,11706 Fifth Pl,Port Washington,NY,11050
Cheryl K Ramos,13129 Washington,Wauzeka,WI,53826
Christine Scott,11671 Oak,Davenport,IA,52804-1389
Christine Myers,19301 Sixth,Bismarck,ND,58505
Kimberly Wilson,18191 Cedar Dr,Beverly Hills,CA,90211
Joyce R Brown,6904 Park Pkwy,Buffalo,NY,14220-3791
Judith I Baker,15591 Lake,Williamsville,IL,62693-0430
Danielle Hill,367 Maple Pl,Mount Olive,WV,25185
Alexander Lopez,2114 Washington Rd,Lenox,AL,36454-0616
Rebecca R Johnson,6032 Second,Grass Creek,IN,46935-4532
Amy Q Jimenez,19840 Main,McIntosh,MN,56556
Maria Adams,1517 Cedar Rd,Topeka,KS,66608
Alexander B Price,13467 Maple Ct,Riverside,CA,92516-7184
Julie R Thomas,397 Evergreen,Staunton,VA,24401-8077
Larry O Martin,10801 Ninth,Skipperville,AL,36374
Tyler W Cook,7923 Fourth Rd,Cranston,RI,02920
Pamela G King,2255 View,Pine Lake,GA,30072-8338
Charles N Miller,18070 Pine Way,Hollister,OK,73551
Keith Sanders,4580 Evergreen,Calimesa,CA,92320-4407
Isabella Brown,19980 Third Pl,Slidell,LA,70469
Aaron Wilson,512 Pine,Clear Spring,MD,21722-1477
Sara G Wright,11864 Evergreen,Flournoy,CA,96029-9471
Frances Smith,10502 Elm,Ellisburg,NY,13636-8825
Christopher L White,5871 View,Kempton,PA,19529
Isabella K Phillips,485 Lake Way,Winfield,TN,37892-1982
Hannah Anderson,7411 Fourth Ln,New Richmond,OH,45157-2633
William P Clark,18695 Cedar,Heislerville,NJ,08324
Willie X Jimenez,15897 Eighth Ln,Eaton,OH,45320
Doris Harris,16497 Pine Pl,Orient,IA,50858-5518
William Martinez,14905 Eighth,Bronx,NY,10457
Judith F Chavez,12708 Park,Clyde,TX,79510
Christina Clark,4937 First,Boykins,VA,23827
Cynthia I Cook,6587 Pine Dr,Benson,AZ,85602-7533
Heather Sanchez,17635 Elm,Marydel,DE,19964
Steven J Murphy,12483 Fifth,Maryville,MO,64468
Jacqueline Rodriguez,19788 Main Pl,Cal Nev Ari,NV,89039
Deborah Patel,8323 First,Chesterton,IN,46304-2137
Victoria Peterson,9034 Maple,Brighton,CO,80601-7528
Brian Nelson,1997 Park Pl,Tiona,PA,16352-4993
Amber L Ramos,4595 Fourth,Peytona,WV,25154-7437
Louis Rogers,18846 Elm,Topeka,KS,66618
Julia E Moore,13869 Hill,Foxboro,WI,54836-1176
Jordan Reyes,16808 Eighth Pkwy,Mission Viejo,CA,92692
Peter S Long,16682 Sixth,Ashland City,TN,37015
Deborah Jones,14380 Ninth,Holly Springs,MS,38635
Mary Parker,6911 First Rd,Keene,NY,12942-0373
Sophia Walker,14022 Evergreen Ct,La Salle,CO,80645-5754
Ann Evans,10317 Ninth,Beverly Hills,CA,90211-5469
Doris W Peterson,1704 View Dr,South Houston,TX,77587-5865
Karen Cruz,16458 Elm Way,Plymouth,CA,95669
Marilyn Hughes,17343 Cedar,Creede,CO,81130
Wayne W Hernandez,6588 Seventh,Lake Benton,MN,56149
Andrew Z Torres,19013 Seventh Way,Hillsdale,PA,15746-8934
Justin L Long,2268 Fourth,Sumner,IA,50674-8989
Joyce Stewart,7742 Fourth Blvd,Aliso Viejo,CA,92698-2894
Ethan F Kelly,17744 Third Dr,Deer Park,AL,36529
Gabriel Green,10874 Elm,Allendale,NJ,07401
Dennis Bailey,549 Hill,Elk Creek,MO,65464-0436
Dorothy Kelly,5106 Seventh,Callicoon Center,NY,12724
Madison I Roberts,6922 Seventh,Hamburg,IL,62045-8491
Patricia Perez,8959 Oak Ln,Pensacola,FL,32534-3767
Madison B Cox,9518 Eighth,Bowstring,MN,56631-4888
Margaret Ruiz,18312 Maple Pkwy,Woodbury,VT,05681-8756
Sophia Q Ortiz,9919 Fourth Dr,Siloam,NC,27047
Donald I Adams,13964 Cedar Ln,San Jacinto,CA,92582
Kelly K Lopez,17466 Second,Ripley,TN,38063-6663
Jennifer Kelly,1870 Main Dr,Albuquerque,NM,87184-5255
Hannah A Kim,9811 Seventh,Rebersburg,PA,16872
Christian D Nguyen,4641 Elm,Kimball,SD,57355
Dylan B Clark,6635 Eighth Ln,Mount Hope,WI,53816
Marge L Lee,13716 Ninth,Corryton,TN,37721
Henry Morris,17555 Elm,Montchanin,DE,19710
Albert Bailey,16874 Main,Lysite,WY,82642-5063
Sandra Evans,5672 Cedar,Bartlett,KS,67332
Peter P Hughes,2361 Park,Sequoia National Park,CA,93262-0960
Kelly Wilson,11858 Washington,Bellevue,NE,68005
William N Johnson,9705 Lake Way,East Montpelier,VT,05651
Russell Jimenez,11005 Pine Way,Salt Lake City,UT,84184-7920
Peter M Ortiz,19854 Washington,New Lebanon,OH,45345
Nathan Stewart,10512 Elm Way,Mount Victory,OH,43340-3493
Lisa I Hernandez,17034 Hill Way,Cranston,RI,02921
Emma Ross,15704 View Pkwy,APO,FL,34044-3793
Sophia Morales,7743 Ninth,Pursglove,WV,26546
Lawrence T Diaz,16494 Fifth,Washington,DC,20043
Matthew A Williams,8490 Fourth,Nunica,MI,49448-8354
Linda H Kim,7186 Maple Ct,Midway,UT,84049
Judy Ortiz,4763 Lake Blvd,Pontiac,MI,48342
Dorothy Watson,9798 Hill Rd,Lexington,KY,40588
Theresa Lopez,14809 Third Rd,Palm Bay,FL,32911-2208
Patrick Thomas,10433 Hill,Beach Lake,PA,18405
Jacqueline Wilson,5071 Oak,Ulster Park,NY,12487
Alexander Hernandez,3304 Fifth,Eighty Eight,KY,42130
Amanda Nelson,14384 Second Rd,Bayonne,NJ,07002
Logan M Reyes,4998 Sixth,Lansing,MI,48916
Julia Hall,9514 Fourth,Palo Verde,AZ,85343
Samantha G Jimenez,15404 Elm,Piffard,NY,14533-5566
Elizabeth Castillo,9858 Eighth Pkwy,Mattawan,MI,49071
Theresa R Jackson,8521 View,Alton,UT,84710
Kelly S Stewart,18864 Evergreen,Marble Hill,MO,63764-7673
Jeremy King,13575 Cedar,Inverness,FL,34451-3095
Louis E Robinson,2640 First,Rhodesdale,MD,21659
Ethan D Perez,382 Main,New Bedford,MA,02746-9774
Megan F Patel,6019 Elm Way,Forest Knolls,CA,94933
Austin Jackson,10143 Park Pkwy,Orange,NJ,07050
Lawrence Green,8144 Evergreen,Temperance,MI,48182
Mark Davis,4217 Eighth Ct,Forest Hill,WV,24935-6045
Christian M Rodriguez,16131 Lake,Key Colony Beach,FL,33051
Gary Roberts,11837 Maple,Ozark,AR,72949-9901
Tyler Morris,14825 Second Dr,Baxter,TN,38544
Jean B Sanders,1586 Elm,West Greenwich,RI,02817-2412
Betty Martinez,5196 Cedar Rd,Hidden Valley,PA,15502
Gerald Brooks,2757 Second,Searsboro,IA,50242
Raymond Stewart,12654 Lake Ln,Dayton,MD,21036-3774
Justin Jimenez,1217 Lake Rd,Newport News,VA,23606-9669
Jason T Hernandez,18028 Fourth Blvd,Commerce,TX,75429
Hannah Nelson,7987 Ninth Dr,Oacoma,SD,57365
Billy Nelson,2671 View Way,Washington,DC,20586-7841
Brandon Martinez,12224 Fifth Rd,Petty,TX,75470-6343
Paul H Taylor,11540 Washington Dr,Lisbon,IA,52253
Jason Ramos,4251 Park Ln,APO,NY,09756-4029
Charles Reyes,11727 Fifth Dr,Newton Center,MA,02459
Jose I Martin,146 Oak Way,Taylor,WI,54659
Jeffrey L Murphy,13998 Ninth Pl,Wilmington,DE,19808
Wayne L King,4363 Washington,Deland,FL,32723-8482
Daniel V Mitchell,19007 Lake,Homer Glen,IL,60491-9600
Zachary K Edwards,18941 Eighth,Memphis,TN,38135
Ryan S Hill,6254 Second Dr,Canfield,OH,44406-7889
Jennifer Cook,15303 Evergreen,Woods Hole,MA,02543
Diane K Bennet,3160 Fifth Way,La Grange,IL,60525
Theresa W Hill,3783 Sixth Pl,Folsom,CA,95630
Samantha Walker,5635 Seventh Blvd,Ogden,UT,84414
Edward Gutierrez,3497 Oak,Joint Base Mdl,NJ,08641
Bobby G Williams,3903 Hill,Saint Thomas,PA,17252-6941
Jason Baker,9825 Hill,Fresno,CA,93703
Ruth Cooper,13029 Third,East Norwich,NY,11732-1081
Jose Edwards,1771 Washington,Reserve,NM,87830
Benjamin I Ruiz,6952 Maple Ct,Eldred,IL,62027-5441
Kenneth L Cook,15355 Lake,Filion,MI,48432
Hannah G King,12357 Second,West Babylon,NY,11707-3587
Terry Jimenez,18526 Lake Blvd,Dravosburg,PA,15034
Frances C Diaz,3738 Lake,Los Ojos,NM,87551
Rebecca Z Morales,14987 Fifth,Lansing,MI,48913
Jennifer Johnson,19273 Washington Pkwy,Cincinnati,OH,45277-3400
Julie Mendoza,1035 Fifth Way,Plover,IA,50573-9783
Daniel R King,15381 Ninth Rd,Lando,SC,29724-8462
Brenda F Collins,16828 Fourth,South Amboy,NJ,08879-4396
Stephen H Rodriguez,451 View,Daniels,WV,25832-3779
Brenda C Mendoza,339 Elm,East Rochester,NY,14445
Jeremy Martin,9690 Fifth Pl,Idaville,PA,17337
Ruth Carter,11420 Second Ln,Blue Ridge,GA,30513
Sandra Hill,10077 Second,Charlotte,VT,05445
Nicole C King,5864 Washington Rd,Sacramento,CA,94283
Alexis Garcia,17799 Elm,Potrero,CA,91963
Catherine Cooper,9074 Maple Pl,Tampa,FL,33621
Rose O Parker,2065 Ninth Pkwy,Utica,NY,13505
Kayla Y Hernandez,6602 Pine,Goochland,VA,23063-9025
Philip T Castillo,10737 Second Rd,San Francisco,CA,94104-4983
Teresa Alvarez,1251 Oak,San Pablo,CA,94806-8722
Alexis Cox,14884 Washington Ln,Gates,TN,38037-7470
Margaret I Thompson,16499 Fifth Way,Reno,NV,89555
Beverly Watson,4122 Fifth,Hull,TX,77564-4352
Hannah V Carter,13610 Second Ln,Malden on Hudson,NY,12453
Randy Gutierrez,3255 Evergreen Rd,Virginia Beach,VA,23467-5019
Rose P Hughes,12695 Seventh Pl,Rimrock,AZ,86335-2896
Samuel V Castillo,10935 Washington Ln,Winter Harbor,ME,04693-2082
Gary Long,3465 Pine,Cochecton,NY,12727-3225
Anna Collins,12331 Elm Pl,Sebewaing,MI,48759-2085
Edward Ward,3915 Seventh Blvd,Sussex,NJ,07461-7474
Andrew Chavez,16874 Oak Rd,North Hollywood,CA,91618
Sarah Ramos,15267 Eighth Pkwy,Knightsville,IN,47857-6901
Catherine Z Ruiz,7731 Sixth,Texhoma,OK,73949
Betty Thompson,8747 Cedar,Lafayette,NJ,07848
George Davis,14718 Maple Blvd,De Armanville,AL,36257-0077
Timothy Mitchell,140 Third,Perkinsville,NY,14529
Rose Torres,7 Eighth Ct,Gouverneur,NY,13642-0972
Arthur R Roberts,15801 Pine Ln,Clarkfield,MN,56223-6993
Karen Hill,18447 Fourth,Johnsonville,IL,62850-8132
Donald Perez,7173 Cedar Dr,Glendale,AZ,85311
Austin Sanchez,19180 Maple,Big Bear City,CA,92314
Michelle V Walker,16131 Evergreen Dr,Miami,FL,33137-7011
Jonathan F Richardson,8826 Lake,Osterville,MA,02655-4186
Billy W Walker,318 Lake Dr,Anson,TX,79501-0016
Joshua Cox,17088 View,Towson,MD,21284-8072
Kathleen O Jones,13078 Sixth Ln,Stockton,UT,84071-1399
Lauren O Mitchell,14008 Maple Rd,Timewell,IL,62375
Nicholas L Smith,4494 First,Burnsville,MS,38833-3722
Gloria P Gomez,4273 Eighth,Goshen,AL,36035
Brenda Mitchell,7673 Park,Millerton,PA,16936-7835
Laura S Wood,6779 Washington Pl,Ashville,AL,35953
Theresa P Castillo,17031 Pine,Greenwood,AR,72936-9971
Rose Ward,5930 Elm,Villa Park,CA,92861-7505
Cynthia Edwards,19021 Fifth Pl,Wingate,MD,21675
Edward Mitchell,16952 Seventh,Lava Hot Springs,ID,83246-7006
Maria Morris,19129 Fifth Way,Barnard,MO,64423-7737
Brenda D Ruiz,13953 Maple Blvd,Opolis,KS,66760
Ann E Scott,111 Ninth,Flynn,TX,77855-9694
Brian Jackson,7775 Washington,Wheeler,MS,38880-7383
Noah Torres,1120 Cedar Pl,Dallas,TX,75234
Willie F Rodriguez,13024 View Ln,Skowhegan,ME,04976-1181
Rose Myers,1560 Evergreen,San Clemente,CA,92672
Daniel W Thomas,3584 Maple,Mount Berry,GA,30149-8705
Tyler Ross,8890 Eighth Pl,Ben Wheeler,TX,75754-8902
Jordan K Clark,10267 Cedar Ct,Plumsteadville,PA,18949-8567
Joseph N King,17206 Washington,DPO,NY,09823
Emily Richardson,3942 Ninth Ct,Oak Hall,VA,23396-5373
Cynthia Y Parker,19998 Sixth Ct,Weesatche,TX,77993-1375
Ryan Collins,16828 First,Milan,KS,67105-9939
Justin Gomez,14826 Third,Houston,TX,77044-1115
Gloria E Cook,2748 Park,Hartland,MN,56042-7447
Christian Rodriguez,6461 Second,Cornettsville,KY,41731
Kyle Brown,17957 Main,Cissna Park,IL,60924
Kimberly Y Adams,10862 Lake,Elmwood,WI,54740-5511
Jose C Mendoza,6609 Maple Pl,Providence,RI,02902-3138
Bobby Ross,9524 Pine Dr,Nicholasville,KY,40356-1472
Martha W Rivera,5298 Fourth Pkwy,Bridgeville,DE,19933-0820
Terry H Lopez,16184 Main Ln,Dayton,OH,45481-2757
Jeffrey Y Ramirez,10769 Second Dr,El Paso,TX,88580
Elijah Baker,1775 Oak,Coleman,TX,76834-5898
Janet I Davis,7696 View,Watauga,SD,57660-2411
Elijah Stewart,17191 Sixth Ct,Juniata,NE,68955
Cynthia Hughes,15525 First,Warren,ME,04864
Diane E Taylor,5399 First,Smartsville,CA,95977-6851
Tyler Ramirez,12390 Fourth Pkwy,Lake Worth,FL,33462
Christian Reyes,15074 Sixth Blvd,West Jordan,UT,84081
Tyler Lee,15032 Park Ct,Buda,IL,61314-9334
Albert Castillo,6788 Main Pkwy,Trent,SD,57065-3942
David White,13417 View,Grantsville,UT,84029-8017
Jack Gonzales,3053 Ninth,Aubrey,AR,72311
Bobby Miller,4329 Main,Inglewood,CA,90306-7258
Jennifer Wood,8218 Evergreen Dr,Brownstown,IN,47220-2783
Christine D Howard,16324 Maple,Fayette,UT,84630-4966
Carl Mendoza,2918 Third,Palatine,IL,60055-4225
Grace Jackson,8852 Fifth,Haworth,OK,74740
Stephen Perez,8638 Third Way,Waverly,NE,68462-9621
Christine Simpson,2322 Fifth,Random Lake,WI,53075
Bryan J Castillo,12976 Hill Pl,Elizabethton,TN,37643-4986
Cynthia T Nguyen,9797 Hill,Thedford,NE,69166-5933
Lisa X Miller,15114 Eighth Rd,Pittsburgh,PA,15270-6859
Joshua X Chavez,17352 Park,Reading,VT,05062-2028
Jordan Wilson,6742 Pine Pkwy,Emerson,KY,41135
Brittany Wright,4004 Cedar,Greenville,KY,42345
Nicholas K Williams,5534 Main Way,Fulda,MN,56131
Alice D Hughes,10510 Lake Ln,Fresno,CA,93764
Theresa W Robinson,10936 Oak Dr,Vallejo,CA,94589-5600
Brian G Sanders,7235 Lake,Lees Summit,MO,64002-1979
Natalie Rivera,3883 Seventh,Collierville,TN,38017
Melissa T Peterson,2264 Eighth,Saint Marys,OH,45885
Laura B Cruz,8209 Washington Way,Branchport,NY,14418-3255
David Richardson,17813 Eighth Blvd,Ransom,KS,67572
Alice H Gonzales,9889 Seventh Blvd,Pittsburgh,PA,15234
Denise Davis,5956 Sixth,Ridgeview,SD,57652-3614
Cynthia K Carter,11855 Washington,Glendive,MT,59330-0433
Judy Gonzales,15309 Seventh Pkwy,Fargo,ND,58107
Megan K Rivera,8256 Sixth,Jacksonville,FL,32224-0013
David T Garcia,9970 Hill Dr,East Peoria,IL,61635
Eric Allen,8091 Washington,South Jordan,UT,84095-8811
Cynthia J Lopez,19706 Eighth,Tulsa,OK,74170
Amber King,12982 Third,Los Angeles,CA,90091-9998
Ryan Parker,10824 Oak Ln,Pembroke,ME,04666-4238
Gabriel Nelson,14489 Second,College Station,TX,77843-4320
Nicole Sanchez,8049 Park,George,IA,51237-3739
Arthur F Thomas,6958 Oak Rd,Cleveland,OH,44197-6791
Ethan Torres,15178 Oak Ct,Durant,FL,33530-7963
Lisa King,1730 Fourth Rd,Allendale,SC,29810-6052
Janice P Flores,16148 Fifth Rd,Owensville,MO,65066-4404
Laura V Gray,17757 Fifth,East Freetown,MA,02717
Alice A Campbell,104 Hill,Thurston,NE,68062-5081
Nicholas N Ramirez,1332 Fifth Dr,Chicago,IL,60639-9325
Evelyn O Walker,2690 Ninth,White Plains,KY,42464
Donald Gray,16502 Hill Ct,Greenville,SC,29610-1273
Johnny K Wood,6810 Ninth,San Anselmo,CA,94979-5072
Harold Martin,19123 Cedar,Brewerton,NY,13029-6621
Paul Davis,3400 Park Way,Sophia,NC,27350
Juan Y Gonzales,15877 Oak,Valley Park,MS,39177
James Harris,8808 Maple,Clermont,FL,34711-8683
Jennifer Wilson,16172 Evergreen Dr,Graysville,IN,47852
Sean X Robinson,6842 First Blvd,Saint Louis,MO,63109-7298
Jessica Y Patel,606 Eighth Dr,Lynchburg,VA,24505-8768
Jason Q Watson,5366 Pine Blvd,Winston Salem,NC,27104
Gary W Evans,1028 Ninth,Hometown,IL,60456-9926
Mark Long,324 Park,Chariton,IA,50049-2148
Kelly O Martin,18198 Cedar Blvd,Hope,ID,83836
Michelle O Hall,9849 Evergreen Rd,Pearl River,NY,10965-2992
Sophia M Ramos,15946 Fourth Pl,Dayhoit,KY,40824-5827
Betty C Rogers,10219 Ninth Way,Bronxville,NY,10708
Russell Howard,15992 Evergreen,Ute Park,NM,87749
Andrew Long,14608 Washington,Simla,CO,80835
Donald F Foster,934 Second Way,Milwaukee,WI,53217
Hannah Rivera,16593 First Blvd,Walton,IN,46994
Cheryl Garcia,14756 Maple Dr,Columbus,OH,43215
Ronald O Robinson,12749 Park Way,Dover,PA,17315-6176
Catherine J Jimenez,4212 First,Dearborn,MI,48126
Heather S Foster,12647 Ninth Ln,Smiths Station,AL,36877-0240
Carolyn S Watson,4733 Washington,Hematite,MO,63047
Jordan D Evans,13902 Fifth,Beulah,CO,81023-9759
Brian N Myers,16769 Evergreen,Gilbert,AZ,85297-0274
Joyce Gonzales,16796 Second,Bladenboro,NC,28320
Judith Williams,8875 Sixth,Adrian,GA,31002-3105
Dorothy P Hill,18127 Second,Cornell,WI,54732-9472
Harold I Kelly,3897 Elm,Audubon,NJ,08106-5571
Virginia V Gutierrez,6007 Washington,Glendale,UT,84729
Bryan Richardson,7114 Maple Pl,Bay Saint Louis,MS,39521-5171
Paul V Hughes,12127 Main Ct,McWilliams,AL,36753
Theresa Nelson,15596 Fourth,Burson,CA,95225
Ralph Smith,9056 Third Ln,Swink,CO,81077-7116
Donna Davis,1426 Eighth,Dallas,TX,75236
Albert Cruz,11704 Oak,Dallas,TX,75251
Theresa Z Gonzales,1306 Fourth Pkwy,Pescadero,CA,94060-0020
Marilyn H Richardson,11980 Third Dr,Nashville,TN,37206-1413
Sara X Torres,142 Hill Dr,Houston,TX,77216-7211
Christopher U Foster,11914 First Way,Dublin,IN,47335
Eric N Hughes,18411 Third Pkwy,Boulder,CO,80303-9550
Rachel Cox,4844 Eighth Way,Mastic Beach,NY,11951
Martha Cooper,298 Ninth,Pipe Creek,TX,78063-3685
Brandon J Smith,14000 Sixth,Hobbs,NM,88241
Christian Lopez,2052 Cedar Pl,New York,NY,10029-0991
Kyle Morris,11546 Park Ct,Kalamazoo,MI,49008
Anthony L Martinez,139 Third,Augusta,GA,30999
Stephanie Wood,16268 First,Roanoke,VA,24011-3882
Brian D Young,3200 Cedar,Wakefield,LA,70784-3139
Beverly Torres,19066 Main,Rio,WI,53960-6395
Janet E Walker,14588 Second,Bel Air,MD,21014
Robert Peterson,8852 Cedar,Manorville,NY,11949-7747
Timothy N Rodriguez,2086 Cedar Way,Martinez,CA,94553
Louis J Morgan,8837 Washington Ct,Patrick Air Force Base,FL,32925-8796
Kayla U Ross,14059 Eighth,Cherokee,OK,73728-2748
Elijah Campbell,13236 Main,Oradell,NJ,07649
Edward Castillo,8453 Sixth Pkwy,New Vineyard,ME,04956-1064
Albert Rogers,10486 Maple Blvd,Mineola,IA,51554-2342
Jacob James,943 Third,Caguas,PR,00726-1421
Marilyn Hughes,10207 Eighth Way,Hammondsville,OH,43930
Kyle Wilson,7964 Washington Pkwy,Prairie Village,KS,66208-3255
Willie T Clark,3127 Main,Joliet,IL,60434-8043
Arthur Reyes,13498 Eighth,Lansford,PA,18232-3043
Bart L Ramos,8785 Pine Way,Novato,CA,94945
Donald Lopez,11462 Maple Blvd,Mount Hope,AL,35651-1898
David W Wilson,8449 Park,Ragland,AL,35131
Kyle L Perez,4919 Maple,Blytheville,AR,72316
Donald Cooper,12998 Pine,Otis,LA,71466-1117
Maria B Ramirez,7903 Main Pl,Kewaunee,WI,54216-9774
Pamela H James,18684 Lake,Cincinnati,OH,45204-5607
Bruce K Harris,10784 Evergreen Dr,Nobleboro,ME,04555
Gregory Morris,5606 Pine Dr,Trion,GA,30753
Emily I Jones,8535 Park Rd,Klemme,IA,50449-1523
Terry O Adams,4236 Ninth,Los Gatos,CA,95030
Terry X Johnson,16623 First Rd,West Lebanon,NH,03784-9512
Richard O Morales,6346 Elm Pkwy,Sandy Springs,SC,29677-6094
Elizabeth Peterson,10949 Oak Blvd,Rollins Fork,VA,22544-4218
Ryan Martin,12561 Ninth,Surry,VA,23883-9579
Gregory Rogers,16748 Park Pl,Visalia,CA,93279-2706
Thomas Sanders,15283 Seventh,Omaha,NE,68117-3341
Sandra Hughes,10154 Park Way,Dale,WI,54931
Diane Bennet,15732 Evergreen Pkwy,Austin,TX,78724
Sophia A Patel,963 View Pl,Evansville,IN,47719
Jeffrey M Kelly,7822 Ninth Way,Myrtle Beach,SC,29575-5739
Jordan Bennet,11904 Fifth,Pataskala,OH,43062-5337
Richard P Hall,11649 First,Van Nuys,CA,91408
Donald G Ward,13708 Seventh,Lindsay,CA,93247
Gary Howard,12428 Seventh Rd,Benjamin,TX,79505
Anthony F Torres,17733 Cedar Blvd,Guilford,NY,13780-3675
Henry B Hill,13238 Hill Ln,Wellsville,PA,17365-9253
Vincent Smith,10758 Second,Deal Island,MD,21821-6781
Sandra T Morris,12716 Second,APO,FL,34051-8394
Austin Cruz,6494 Cedar,New Russia,NY,12964
Margaret E Collins,16098 Second,White Oak,NC,28399
David Williams,6942 Fifth,Kansas City,MO,64111-0102
Nicole Ross,3091 Pine,Colome,SD,57528
Alan S Lewis,16846 Eighth,Gnadenhutten,OH,44629-4282
Christine H Nelson,7726 Ninth,Morrisonville,WI,53571
Joshua Carter,18785 Fifth,Lemoore,CA,93245
Tyler J Nguyen,19803 Hill,Altus,AR,72821
Eugene M Johnson,9263 Washington,Lewisville,ID,83431
Victoria Nelson,2971 Main Blvd,Fairmount,IN,46928-3491
Joan Y Perez,17368 Pine Rd,Richmond Hill,GA,31324-5357
Carolyn O Johnson,8443 Cedar,Portville,NY,14770
Janet Perez,19844 Maple,Hyattsville,MD,20787
Eric Ortiz,595 Maple Pkwy,Summerfield,FL,34491
Douglas W Wright,18171 Pine Rd,Grantham,NH,03753
Joseph Q Nelson,12939 Hill,Abington,PA,19001
Zachary Lee,11027 Pine,Verona,IL,60479-9902
Sarah Patel,8347 Washington Pl,Greenville,TX,75403-0853
Lawrence P Hernandez,19347 Fourth Ln,Hollywood,SC,29449-3143
Cheryl J Thompson,14288 Third Pkwy,Bellbrook,OH,45305
Cynthia Rivera,15804 Pine,Greenbackville,VA,23356
Stephen Stewart,16064 Pine Way,Inwood,IA,51240-7724
Bruce X Nelson,19129 Cedar Ct,Dayton,OH,45405
Susan Ward,9177 Hill,Midland,GA,31820-0889
Frances Y Garcia,5183 Maple Pkwy,Asheville,NC,28810
Austin T Reyes,8277 Fourth,Long Beach,CA,90848-6764
Bart L Castillo,6669 Hill,Rumely,MI,49826-4267
Alan G Reed,4289 First Blvd,Wilmington,DE,19809-4724
Karen L Morris,17401 Second,Downing,MO,63536
Nicholas S Roberts,11861 Park,Highmount,NY,12441
Roger Wood,8255 View Dr,Livonia,NY,14487-7977
Catherine P Hernandez,17641 Eighth Blvd,Salisbury Center,NY,13454-1821
Debra Z Kim,9237 Park,Reno,PA,16343
Marilyn Y Howard,16484 Washington Dr,Tyro,KS,67364
Vincent Castillo,525 Washington,Orleans,NE,68966
Jacqueline K Robinson,15296 First,Lane,SD,57358
Logan Adams,9693 Evergreen,Springfield,WI,53176-9329
Paul S Watson,7327 Hill,Grantsville,UT,84029-6269
Helen D Perez,18419 Elm Pl,Breaks,VA,24607-8828
Gregory Q Kelly,15488 View,Neillsville,WI,54456
Martha O Rivera,9305 Second Blvd,Miami Beach,FL,33239-9534
Shirley T Parker,10124 Eighth,Grain Valley,MO,64029
Samantha Ruiz,3811 Second,Omaha,GA,31821
Homer Wright,4435 Pine Ct,El Paso,TX,79926
William Robinson,1759 Evergreen,Branch,MI,49402
Evelyn N Garcia,6416 Park Pl,Seneca Castle,NY,14547
Julie F Thompson,15004 Elm Way,Trimont,MN,56176
George C Lee,13777 Pine Ct,Hampton Falls,NH,03844-6499
Lisa A Flores,6787 Seventh,Staffordsville,KY,41256
Pamela Adams,14132 Pine,Transfer,PA,16154
Barbara Kelly,7007 Park Dr,Springville,CA,93265
Amy U Cruz,4387 Evergreen Rd,Quincy,IL,62301-0684
Janet Collins,17227 Maple,Boca Raton,FL,33487
Olivia G Morris,14842 Main Ct,Varney,WV,25696-9820
Joan Nelson,10115 Washington,Balm,FL,33503-6958
Michael D Evans,2528 Elm Way,Sandy Hook,MS,39478
Hannah Castillo,19014 Maple,Foxboro,MA,02035-6894
Julie Wright,10319 Oak Blvd,Huey,IL,62252-1826
Lawrence Rodriguez,18368 Pine,Corte Madera,CA,94925
Gary Y Baker,10796 Park,Nevada,OH,44849
Maggie Jackson,17097 Sixth Pkwy,Honor,MI,49640-2203
Margaret T Martinez,9754 Maple,Shenandoah,VA,22849
Charlotte Walker,9484 Park,Charlotte,NC,28272
Homer E Nguyen,7366 Sixth,Oakville,CT,06779-0237
Marie M King,16437 Park,Ponce de Leon,MO,65728-0720
Jeremy K King,12461 Washington,Scarbro,WV,25917
John A Nelson,1266 Park Blvd,Center Lovell,ME,04016
Arthur W Roberts,11780 Fifth,San Francisco,CA,94105-9801
Richard W Scott,8619 Hill Way,Bradley,FL,33835
Kenneth J Smith,1922 Park Pl,Lowndesboro,AL,36752-9255
Terry Y Torres,15587 Fourth Ct,SaintJohn,VI,00830-1510
Angela E Baker,4308 Ninth Way,Helena,MT,59623-4138
Kevin Torres,16728 Evergreen,Beecher City,IL,62414
Anthony Roberts,5249 Fourth Ln,Manorville,PA,16238
Victoria W Roberts,2166 Second,Sneedville,TN,37869-1747
George Jones,17878 Hill Dr,Dayton,MT,59914
Stephanie K Kim,15978 View,Bayville,NY,11709
Daniel K James,17347 Evergreen,Lac du Flambeau,WI,54538-6562
Michael Bailey,12986 Cedar,Smyrna,NC,28579
Ann X Green,2151 Oak Dr,Westport,KY,40077
Kathleen K Castillo,5317 Lake Rd,Luther,IA,50152
Jonathan Richardson,18907 Elm Rd,Sun Valley,ID,83353
Barbara Wilson,16042 Pine,Ryland,AL,35767-3488
Andrea T Reed,15488 Park Rd,Seltzer,PA,17974
Randy J Cox,15652 Third Rd,Lodi,NJ,07644
Frances Allen,7645 Fourth,Cincinnati,OH,45233-7637
Brian Foster,2815 View Way,Columbia,MO,65212-6569
Margaret C Gutierrez,9590 Third,Orrick,MO,64077-5796
Keith Phillips,14756 View Rd,Millboro,VA,24460-5463
Martha L Hernandez,2359 Pine,Victorville,CA,92395-6767
Debra Ruiz,7750 Maple Ln,Lansing,MI,48917
Christopher D Carter,5830 Hill,Catoosa,OK,74015
Beverly Hughes,5633 Ninth,Osage,MN,56570
Debra K White,5573 Eighth,Cassopolis,MI,49031-3403
Daniel Edwards,14895 Lake Ct,Howardsville,VA,24562
Natalie T Thomas,7719 Fifth,Alleyton,TX,78935
Richard Murphy,8196 Ninth Way,Shartlesville,PA,19554-5252
Abigail Myers,17334 Washington Ln,Troy,NH,03465-9103
Alexander Ruiz,8749 View Dr,Salfordville,PA,18958-0614
Joseph L Lopez,4119 Lake Pl,Brady,NE,69123
Frank Moore,18482 Lake Blvd,San Antonio,TX,78233
Noah Kelly,6807 Sixth,New York,NY,10107
Gloria Lee,10887 Evergreen Way,Montpelier,VT,05604-8066
James E Hernandez,144 Seventh Blvd,Fort Smith,AR,72904-9137
Roy H Cruz,5177 Ninth,Logansport,LA,71049
Vincent G Stewart,10982 Ninth Pkwy,Lickingville,PA,16332
Arthur G Cox,1633 Third Ln,Wallsburg,UT,84082-7555
Jonathan Y Sanders,10028 Elm Blvd,Fairfax,SC,29827-8048
Janice Bailey,7457 Seventh,Miami,FL,33126
Albert Collins,4343 Cedar Pl,Chatfield,MN,55923-3556
Steven Roberts,16263 Pine Ct,Indianapolis,IN,46278-8677
Joyce Bennet,7385 Ninth,Bullhead City,AZ,86430
Samuel Gutierrez,19030 Evergreen Pkwy,Bovina,TX,79009-7474
Brian Lopez,10538 Pine Ct,Canton,MN,55922-6108
Jeremy R Torres,118 Third,Norway,IA,52318
Matthew Sanders,11940 Washington,Denver,CO,80202-6205
Patrick Peterson,17246 Cedar Dr,La Plata,NM,87418-0419
Karen Miller,13472 Fourth,Freeland,MI,48623
David H Parker,11119 Fifth,Centerburg,OH,43011-5916
Evelyn Jimenez,4457 Cedar Dr,Billings,MT,59106-1348
Brian Miller,4844 Lake Pl,Millwood,GA,31552
Rachel Brooks,1860 Elm Pkwy,White Pigeon,MI,49099
Ann Johnson,4575 Main,Albuquerque,NM,87107
Kayla Y Martin,9808 Elm,Lingle,WY,82223-2901
Patricia H Cox,14143 First,Fostoria,KS,66426-6018
Ryan V Roberts,16452 Park Blvd,Saint George,GA,31562-4056
Carl Hill,8837 Fifth,Albion,PA,16401
Johnny K Howard,11889 View Blvd,East Stroudsburg,PA,18302-0161
Kyle Z White,1964 Sixth Pl,Fresno,CA,93755
Logan Castillo,8543 Evergreen,Dover,MA,02030-3879
Donna Y Cruz,13502 Main Ct,Evanston,IL,60208-0264
Matthew W Howard,19403 Seventh Ln,Frankfort,KY,40604-0825
Joshua Z King,17957 Maple Ct,Columbus,OH,43260-5494
Mark O Murphy,12510 Fifth Pl,Palco,KS,67657
Randy M Edwards,18506 Pine Dr,Gilbert,AZ,85296-5794
Zachary Evans,1278 Sixth Pl,Houston,TX,77014-6180
Bobby Reyes,1958 Seventh,Owatonna,MN,55060
Ethan Lewis,16582 View,Chester,NH,03036-4779
Keith O Smith,4791 Evergreen Way,Buffalo,NY,14261
Adam Edwards,15899 Cedar Pkwy,Toledo,OH,43606-4025
Daniel Jimenez,2175 Sixth Dr,Pine Valley,NY,14872
Kelly Myers,13106 Elm Way,Horseshoe Bend,AR,72512
Betty F Reyes,12506 Sixth,Milo,IA,50166
Wayne Torres,11197 First,Grassflat,PA,16839
Wayne Nguyen,9063 Third,Richmond,VA,23230
David U Price,13931 Evergreen Rd,FPO,NY,09363-0562
Amanda Walker,4317 Pine,Sioux City,IA,51104-4783
Jean V Brooks,9515 Second,Stanley,ND,58784
Daniel X Brooks,8300 Maple Ct,Muncie,IL,61857-9561
Peter Gomez,18024 Park Dr,Chiefland,FL,32626-5392
Bruce Wright,5131 Maple,Georgetown,SC,29442-9367
Diane Simpson,6951 Hill Rd,Jupiter,FL,33477-8752
Stephen T Nguyen,7198 Seventh,Hill City,SD,57745
Judith H Ward,10238 Third,Saint Benedict,PA,15773
Bart Hall,13764 Pine,Phillipsville,CA,95559-2003
Brian Y Green,19167 Ninth,Columbus,OH,43221-4314
Jack B Perez,17861 View Pl,Edgar,WI,54426
Heather Wilson,6850 Fifth,Hoopa,CA,95546-5794
Amber Q Bennet,5736 Washington Pl,Camp Pendleton,CA,92055-3906
Denise Sanders,15376 Park Dr,Earl,NC,28038-9595
Natalie Brooks,14820 Main Ln,Tucson,AZ,85710
Kathleen Thompson,18614 Hill,Bismarck,IL,61814-0168
Maria Stewart,3773 Evergreen,Baileyton,AL,35019-8583
Robert L Gutierrez,13596 Second,Gastonia,NC,28053
Jeremy Morales,1733 Evergreen Pkwy,Prospect Park,PA,19076
Kyle V Lopez,19922 Second,Fox,AR,72051
Bryan Anderson,11397 Fifth,Minneapolis,MN,55447-3553
Albert D Foster,4165 Fourth Pl,Norcross,GA,30093
Nancy A Reyes,13459 Park Ct,Cherry Hill,NJ,08002-6404
John Lopez,11957 Eighth Pkwy,Smoot,WY,83126-3120
Karen Y Moore,1367 Second Pkwy,Saint Charles,MO,63303-2698
Jesse Morales,535 Maple Blvd,Indianapolis,IN,46240
Theresa Rogers,5618 Sixth,Levittown,PA,19054-5796
Pamela Sanders,9544 First Blvd,Nesquehoning,PA,18240
Thomas R Lewis,18371 Evergreen,Orlando,FL,32869-8619
Ann B Murphy,18746 Pine Rd,Coulters,PA,15028
Bobby N Smith,19477 Maple,Keatchie,LA,71046
Tyler K Ward,12441 View Way,Fleetwood,NC,28626
Roy Foster,8810 Elm,Chicago,IL,60632
Michael A Rodriguez,15858 Fourth Ct,Sacramento,CA,95864
Linda Sanchez,17800 Sixth,Green Bay,WI,54306-2317
Grace F Sanders,5796 Fourth,Forreston,TX,76041-8866
Jeremy W Davis,11964 Park,Cherry Plain,NY,12040
Nicole T Wood,10438 Second,Pleasant Prairie,WI,53158
Gregory H Ortiz,14701 Third Pkwy,Sanger,TX,76266-2354
Nathan Allen,11543 Pine,Payette,ID,83661
Austin M Cook,16396 Eighth Pl,Smithton,IL,62285
Danielle P Hall,16004 Main,Bay Shore,MI,49711-1283
Heather Y Young,8582 Third,Elliottsburg,PA,17024-5931
Donald A Torres,4755 Fifth Way,Freedom,WI,54131-9681
Christopher M Adams,8467 Fifth Ct,Grove,OK,74344-1235
Denise C Wright,10315 Ninth,Chino Valley,AZ,86323-6192
Alexis Baker,16565 Elm Pkwy,Erie,PA,16530
Ann Lewis,17244 Evergreen,Swansea,SC,29160
Heather F Perez,4248 Fifth Dr,Hume,CA,93628
Michael G Bennet,16637 Cedar,Springfield,MA,01105
Patricia W Kelly,13310 Lake Rd,Albany,NY,12288-8207
Kevin Perez,6900 Pine,Goshen,CT,06756
Andrew Gray,16085 Hill,Atkinson,NC,28421
Brian Z Kelly,5417 Fifth Ln,Chesnee,SC,29323
Megan Allen,10091 Second,Kenansville,NC,28349-2182
Amber Roberts,8873 First Ln,APO,NY,09890
Alexis Thompson,2423 Main Pl,Endicott,NY,13763
Danielle Miller,19445 Seventh,Charleston,WV,25329
Emma R Thomas,7593 Cedar,Cleveland,NM,87715-4855
Christian Wright,14409 Maple,Diamond,MO,64840
Diana Ross,4679 Fourth,Bloomsburg,PA,17815-1481
Jack Wright,3295 Washington,Immokalee,FL,34143
Maggie Rodriguez,3720 View,Miami,FL,33152
Teresa R Kim,15205 Sixth Pl,Sparks,NV,89441
Grace T Turner,6139 Fourth Blvd,Des Moines,IA,50306
Jason Taylor,12717 Park,Lansing,IA,52151-4604
Sophia K Ward,3893 Second,Springville,PA,18844-3529
Gregory N Bailey,4214 Seventh Way,Wonewoc,WI,53968
Richard L Cox,8997 Third Pkwy,La Jolla,CA,92038-4160
Cheryl Miller,1814 Sixth Dr,Mesa,AZ,85206-4341
Albert Wilson,14846 Fifth Pl,Rockville,MD,20853-6782
Kelly Thomas,11707 Main Way,Soddy Daisy,TN,37384-3458
Jerry Allen,16193 Third,Howard Lake,MN,55575
Juan Simpson,7989 Seventh,Uniontown,OH,44685
Gerald Lopez,18047 Washington Ln,North Garden,VA,22959
Nicole I James,1241 Fourth Rd,Almond,WI,54909-1384
Gloria Thomas,11928 Elm Dr,Parksville,SC,29844-9382
Benjamin Ramirez,19118 First,Johns Island,SC,29457-2984
Linda M Wright,15555 Park,Big Creek,CA,93605
Stephen Alvarez,1631 View,Tucson,AZ,85717-8862
Willie Miller,7173 Main Rd,Clintondale,NY,12515
Alice M Howard,15960 View Blvd,East Pittsburgh,PA,15112-3778
Nancy A Gomez,10507 Cedar,Philadelphia,PA,19123-1959
Lawrence Richardson,17977 Main,Riverhead,NY,11901
Margaret H Bennet,6499 Pine,Tunnelton,IN,47467-9387
Beverly Alvarez,13743 Main,Winterville,MS,38782
Johnny Phillips,3490 Lake Ln,Alvaton,KY,42122-9207
Marie Rodriguez,16130 Cedar Ln,Baldwin Place,NY,10505-5008
Shirley O Gonzales,6559 Second,Brookport,IL,62910-9207
Emily R Carter,10404 Fourth Ln,Upper Falls,MD,21156-5856
Carl Gray,10531 Seventh,Walker Valley,NY,12588-0298
Johnny F Johnson,10985 Sixth Pl,Woodworth,ND,58496
Harold O Castillo,9432 View Dr,Center Ossipee,NH,03814
Alexander O Torres,568 Main Ln,Shawnee,WY,82229-7599
Benjamin A Watson,4184 Second Dr,Norfolk,VA,23529-8846
Kathryn Diaz,16522 Fourth Blvd,Phillips,WI,54555-3068
Abigail I Howard,9179 Main Dr,East Irvine,CA,92650-8221
Kyle Morales,11369 Elm,Penasco,NM,87553-6621
Natalie Garcia,8709 Second Pl,West Palm Beach,FL,33417
Rebecca J Allen,10381 Ninth Pl,Lake George,MI,48633
Jason Phillips,11848 Pine Pl,Pleasantville,NY,10570-0028
Keith X Richardson,12102 Park Pl,Hammond,WI,54015-1540
Alexander Reed,12677 Main Pkwy,Alhambra,CA,91899
Russell Y Campbell,15481 Lake,West Lafayette,OH,43845-8253
Janet Thomas,16856 Ninth Ct,Cuba,OH,45114-8640
Raymond Lee,9429 View Rd,Hanover,PA,17332
Julie L Reyes,12206 Elm,Fargo,ND,58103
Robert P Johnson,4720 Lake,Amarillo,TX,79166-0331
Karen Lee,9757 Ninth,Asheville,NC,28804
Samantha Q Mitchell,8106 Fourth Blvd,Valatie,NY,12184-7149
Russell W Morgan,17879 First,Tonawanda,NY,14150-7262
Ashley Q Baker,17720 Cedar Way,Henning,IL,61848
Christina B Gonzales,19286 Sixth,East Blue Hill,ME,04629
Austin Long,4967 Washington,Waterbury,CT,06723
Virginia I Johnson,14965 Hill Pkwy,Margate,FL,33093
Judy F Bennet,7142 Evergreen,Rison,AR,71665-8542
Karen A Hall,11930 Main,Grand Haven,MI,49417-5578
Shirley M Collins,2709 Fifth,Hayden,IN,47245-2743
Shirley Evans,5507 Park,Mascoutah,IL,62258-9118
James W Myers,11712 Maple,McHenry,ND,58464
Paul I Ramirez,16965 Second,Bowling Green,MO,63334-7144
Eric B Hughes,8490 Sixth Rd,Daphne,AL,36526-4193
Logan Cox,4042 Park Dr,Utica,MS,39175-0728
Linda Wood,12771 First Ct,Ingalls,IN,46048
Steven King,4816 Pine,Houston,TX,77091-0221
Elizabeth Lopez,14889 Main Pl,Atlanta,GA,30380-8606
Roger Cooper,19937 Main Ct,White Pigeon,MI,49099
Thomas Young,16402 Hill,Frederika,IA,50631-3568
Philip I Myers,8675 Park Rd,Walnut Springs,TX,76690-3498
Johnny Q Thompson,19476 Maple,Rosedale,LA,70772
Terry X Adams,2854 Eighth Blvd,Clayton Lake,ME,04737
Olivia E Walker,13815 Evergreen,Jamaica,IA,50128-2085
Charlotte Martinez,12946 First,Portsmouth,NH,03803
Sharon O Nelson,4749 Elm,Capitol Heights,MD,20790
Ashley Brown,16443 Fourth,South Fork,PA,15956
Bart B Scott,6158 Park Dr,Fairhope,AL,36532-5078
Homer R Smith,14037 Maple,Cushing,TX,75760-9257
Keith S Flores,18267 Oak,Monument,KS,67747
Edward J Campbell,14750 Lake,Reno,OH,45773-2600
Albert Lee,420 Hill Ln,Sioux City,IA,51111-9478
Matthew Wright,9969 Elm,Woodbine,IA,51579
Julie Murphy,12179 View Way,Sandia Park,NM,87047-7599
Justin Lee,5719 Eighth,Durham,CT,06422-4392
Barbara V Bennet,11610 Ninth,Grand River,IA,50108-5825
Charles F Wood,18221 Evergreen,Maryville,TN,37804
Cynthia Gomez,1386 First,Blanket,TX,76432
Matthew E Morales,15125 Eighth,Dennis,TX,76439-5836
Gregory L Rodriguez,5042 Third,Sardis,OH,43946-7388
Gregory U Cox,8915 Pine,Goldenrod,FL,32733-2327
Donald Richardson,14191 Sixth,Washingtonville,PA,17884
Amy C Cook,12899 Oak Rd,Lothian,MD,20711-2862
Amanda Ruiz,18114 Hill,Cedar Knolls,NJ,07927
Jerry Sanchez,4757 Second,Laceys Spring,AL,35754-7907
Bart Z Mendoza,4014 First,Stanfordville,NY,12581-5099
Mary Z Gutierrez,6967 Second Dr,Springerville,AZ,85938
Joyce N Mitchell,13702 Park Ct,Dupont,CO,80024
Alan King,8959 Seventh,Charlotte,NC,28265-1184
Kenneth Young,10450 Second,Harmony,PA,16037
Homer P Miller,11233 Eighth Way,San Diego,CA,92135
Amber Simpson,2713 Washington,Homer City,PA,15748
Amber F Sanchez,2321 Park Pkwy,Maumelle,AR,72113-2165
Grace Q Williams,9987 Third Dr,Sandy Springs,SC,29677-2833
Richard C Turner,7413 Cedar,Birmingham,AL,35290-3803
Jacob Patel,9373 Main Dr,Shawmut,ME,04975-1002
Elijah Perez,8684 Park,Venus,PA,16364-8497
Richard R Hill,17138 Hill,Richmond,VA,23274-4622
Noah J Rogers,13316 Eighth Pl,Redwood City,CA,94062-6909
Logan R Price,18245 Sixth,Evansville,IN,47710-9655
Patrick H Allen,18525 Sixth Ct,Crawfordville,GA,30631-7706
Theresa Rodriguez,6064 Fifth Ct,Francisco,IN,47649-9675
Samantha Hall,7208 Eighth,Rutland,OH,45775
Jerry Q Johnson,9333 Pine,Cape Girardeau,MO,63703-4093
Patrick Cooper,1511 Cedar Pkwy,Cape Coral,FL,33910-7795
Philip Z Edwards,12520 Pine Pkwy,Stewart,OH,45778-3948
Virginia E Richardson,6608 Fourth Ct,Litchfield,MI,49252-2033
Judith Lewis,10734 Park Pkwy,Rockaway Beach,MO,65740
Jonathan C Morgan,7864 Lake,Waupun,WI,53963-6169
Carol S Reed,12111 First Pl,Fryeburg,ME,04037
Richard Rogers,17128 Sixth,Rock Falls,IL,61071
Billy Alvarez,8096 Elm Ct,Chicago,IL,60687
Evelyn Roberts,17091 Third Dr,Brashear,TX,75420-1288
Lawrence B Torres,12004 Evergreen Ct,Allen,OK,74825-9645
Peter C Sanchez,18732 Hill,Texarkana,AR,71854-2782
Amanda Nelson,1071 Third Dr,Bay,AR,72411
Kelly E Price,11343 Fifth Blvd,Washington,DC,20265
Donald Rogers,6211 Maple,Reedville,VA,22539-9301
Susan Gutierrez,4031 Maple Blvd,Mecca,IN,47860
Martha Garcia,1822 View Pkwy,Schenectady,NY,12325-6475
Sarah Howard,12283 Ninth,Tyro,VA,22976
Peter A Turner,9074 View Pl,Westons Mills,NY,14788
Justin W Ortiz,2950 Seventh,Georgetown,SC,29440-4437
Christina Ortiz,3431 Fifth,Charlotte,NC,28203
Bobby K Hall,2403 Park Dr,Otisco,IN,47163
Kenneth D Kelly,17188 Lake,Newtonville,MA,02460-4880
Bryan Gonzales,19330 Pine Ln,Dewey,IL,61840-7536
Douglas Kim,5414 Third,Williamsburg,VA,23188-4256
Keith C Campbell,9563 Evergreen,Squirrel Island,ME,04570-9542
Timothy E Bennet,6153 Elm Blvd,Grand Ridge,IL,61325-8506
Ann Q Howard,13622 Evergreen Pkwy,Santa Barbara,CA,93106-7197
