name,street,city,state,zip
Jeffrey Brooks,1792 Fifth,Hiawatha,IA,52233-1865
Louis Ramos,17552 Park Dr,Erie,IL,61250
Steven I Johnson,17338 Lake Rd,Kingston,MO,64650-5742
Vincent W Walker,13593 Pine Rd,New York,NY,10081-9817
Eric N Campbell,9821 Pine Way,Des Moines,IA,50360
Joan W Patel,8997 Elm Rd,Decatur,GA,30034
Linda J Rodriguez,8370 Fifth Ln,Treloar,MO,63378
Carol N Johnson,11322 Park Ct,Freeport,MI,49325-5836
Helen P Ross,6370 Eighth,Dwale,KY,41621
Sara Johnson,6924 Pine Pkwy,Long Beach,CA,90844
Emma Davis,398 Pine Blvd,Pittsburgh,PA,15212-3701
Larry Kim,15063 Sixth Dr,Steele,MO,63877-6661
Diana Phillips,7466 Washington,Jerseyville,IL,62052-0119
Jose Rogers,19334 Oak,Rosman,NC,28772
Julia G Kim,16292 Evergreen,Quay,NM,88433
Roger Brooks,16973 Park Rd,La Salle,MI,48145-0839
Samuel W Harris,11642 Park Dr,Memphis,TN,38174
Marilyn C Hughes,8859 Third Pl,Hartington,NE,68739
Sophia I Gutierrez,653 Oak,Lansing,IA,52151
Wayne Howard,4116 Cedar,Belview,MN,56214
Thomas R Garcia,9630 Seventh,White Bluff,TN,37187
Cynthia Y Price,8442 Pine,Chaseburg,WI,54621-6029
Eric Gray,3091 View,Houston,TX,77005-2872
Gary Morales,14707 Maple,Salt Lake City,UT,84117-7678
Janet Rogers,11942 Fifth Rd,Albany,MO,64402-4774
Rebecca Wood,8685 Evergreen,DPO,NY,09726-8181
Judy Hughes,11203 Ninth Way,North Norwich,NY,13814
Willie Ruiz,15229 Ninth Pkwy,Ipswich,MA,01938
Jesse Richardson,16313 Maple,Wilmington,NY,12997-1536
Heather Turner,9757 Evergreen Pkwy,Guaynabo,PR,00971-8785
Michael I Flores,10629 Pine,Upper Marlboro,MD,20792-7785
Dylan A Diaz,6908 Cedar Rd,Alexandria,VA,22303-3562
Edward Q Wilson,2400 Elm Rd,Utica,NY,13503
Zachary Sanders,19 Main,Clifton,ID,83228-7363
Isabella Y Anderson,15099 Elm Ln,Park City,UT,84060
Lisa H White,1327 Second Pkwy,Frostburg,MD,21532-5769
Jennifer Ward,2965 View,Edgewater,FL,32132
Justin V Rodriguez,12332 Oak,Chadwick,IL,61014-4491
Raymond O Cruz,13331 Ninth Ct,Left Hand,WV,25251
Kayla Gutierrez,4023 First,Hershey,NE,69143
Scott Collins,18215 Maple,South Webster,OH,45682-1240
Samantha Kim,13080 Second Dr,Fort Lauderdale,FL,33394
Judith L Wood,6963 Pine Dr,Kansas City,MO,64132-6755
Mark Jackson,7041 Cedar,Cecil,AR,72930-5459
Marilyn V Perez,14900 Hill,Lubbock,TX,79423
Kimberly Ramirez,10582 Main Dr,Omaha,NE,68116
Christine I Allen,16876 Lake Way,Otway,OH,45657
Theresa Q Wilson,19206 Oak,Coleraine,MN,55722
Jennifer Nelson,15828 Main,Manchester,NH,03105
Elijah E Anderson,2124 Hill,Arnold,KS,67515
Theresa Reed,14696 Cedar,Boswell,IN,47921
Joe Martinez,14377 Ninth Pkwy,South Bay,FL,33493-8325
Ronald Ward,4706 Oak,Forsyth,MO,65653
Christian Perez,15773 Cedar Pkwy,Canton,OH,44711-9129
Emma Wood,12263 Elm,Clarence,MO,63437-7212
Justin N White,5489 Fourth Rd,Houston,TX,77019-9558
Grace Q Ruiz,18229 Lake Way,Birmingham,AL,35220-7797
Peter Richardson,4170 Elm,Grant,MI,49327
Harold Ward,19522 Park Way,Lemoore,CA,93246
Linda U Bailey,9139 Elm,Fairview,NC,28730
Brittany B Lee,2237 Main Blvd,Wyoming,IA,52362-1283
Christine U Sanchez,19142 Second,Bonfield,IL,60913-3717
Brian S Harris,1164 Fifth,West Chester,PA,19381
Melissa Thompson,15900 Fifth,Cresco,PA,18326
Sharon T Peterson,16110 Fourth,Eldorado,OK,73537
Raymond Ramirez,19009 Washington Ct,Hialeah,FL,33018
Gary White,3834 Washington,Plainview,NE,68769-4865
Jonathan Jackson,18465 Main,Minneapolis,MN,55421-2480
Cynthia Y Price,14548 Oak Blvd,Vining,MN,56588-5344
Judith Robinson,2293 Ninth,Milton,KS,67106-4595
Janet W Rogers,3805 Park Rd,Plano,TX,75074
Jack Z Myers,9772 Eighth Blvd,Clayville,NY,13322-3534
Jordan Castillo,9728 Ninth Pkwy,New Castle,AL,35119-2350
Gloria L Cooper,1426 Evergreen,Secaucus,NJ,07096
Jonathan P Cruz,9041 Oak Dr,Naples,FL,34102
Joe Wright,5455 Fourth Dr,Cedar Bluff,AL,35959
Alice Reed,3720 Cedar Ln,Morris,IN,47033-8958
Marge Price,9170 Third Pl,Oakfield,ME,04763
Janice Morris,17491 First Ln,Kirby,WY,82430
Donna P Sanchez,17339 Maple Ct,Masonville,IA,50654-3736
Alexander H Green,12640 Lake,Fort Wayne,IN,46818
Adam K Gutierrez,5467 Oak Ct,Sparr,FL,32192-6518
Emily G Garcia,10021 Park Way,El Paso,TX,88562
Marge R Gray,3913 Pine Blvd,Appleton,WI,54911-1030
Michael Kelly,17723 Sixth Blvd,Henderson,NV,89002-1332
Cynthia Morgan,8960 Fourth,Houston,TX,77220
Sophia Anderson,5871 Evergreen,FPO,NY,09733
Donna T Gomez,12864 Hill,Mill Valley,CA,94942-0313
David X Chavez,5262 Maple Rd,Millville,CA,96062
Catherine Hall,12820 Washington,Port Kent,NY,12975-5843
Carl B Ross,5140 Fifth Ct,Winchester,AR,71677-3765
Scott N Hall,19697 Washington Rd,Rainbow City,AL,35906
Frances T Campbell,16403 Ninth Rd,Kingsport,TN,37665
Joseph C Alvarez,2933 Eighth,Monroe,NE,68647-0269
Susan K Brooks,13522 Pine Ln,Summersville,KY,42782
Samantha K Evans,3523 Evergreen,Hague,VA,22469
Rebecca D Ross,4117 Main,FPO,FL,34089-6409
Marge J Martinez,13391 Washington Pkwy,Rushville,MO,64484
Samantha G Collins,13322 Fifth,Franklin,TN,37065-3725
Thomas W Price,1215 Pine Blvd,Basin,WY,82410
Lauren U Cook,10727 Eighth,Skull Valley,AZ,86338-0909
Martha A Cox,1941 Seventh Blvd,Gould City,MI,49838
Sarah C Chavez,16695 Third,Meridale,NY,13806-1422
Michelle D Mitchell,3067 Cedar,Anacoco,LA,71403-8033
Donald O Wilson,3570 Lake,Detroit,MI,48260-5242
Roy Miller,9374 Park,Van Dyne,WI,54979
Brittany P Ross,19167 Ninth,Glenwood,WV,25520-1231
Jacqueline Brown,6229 Fourth,Harrisburg,PA,17177
Cynthia M Cox,6267 Main Pl,Memphis,TN,38135-1638
Amy W Hernandez,14947 First,Arlington,NE,68002-4545
Sandra Ramirez,17948 Seventh,Benson,AZ,85602
Maggie Morgan,13752 Fourth Pkwy,Saint Martin,MN,56376
Albert U Wilson,17284 Second Rd,APO,FL,34050
Susan U Flores,13274 Ninth Dr,Catawissa,MO,63015-1221
Dylan Sanchez,4662 Ninth,DPO,NY,09489-1411
Angela M Gomez,238 Sixth Pl,Grant,FL,32949
Stephen Taylor,6708 Second,Lubbock,TX,79408-0386
Charlotte O Martin,14381 Cedar Pkwy,Peralta,NM,87042
Frank A Parker,13289 Elm,Waterboro,ME,04087
Rachel Davis,5648 Second Way,Ridgely,TN,38080-3509
Kathleen Hill,13367 Sixth Dr,Groves,TX,77619
Homer Mendoza,7763 Elm Way,Tilton,IL,61833-0442
Christian Morris,15044 Cedar Pkwy,Rosepine,LA,70659
Mary Brown,14638 Seventh Dr,Lamoille,NV,89828-9405
Madison L Long,4235 Oak,Swan,IA,50252
Matthew Sanchez,7923 Evergreen Pl,Henagar,AL,35978
Ashley Jones,11954 Cedar,Olcott,NY,14126-6721
Homer Richardson,213 Fourth,Atlanta,NY,14808
Brian A Thomas,10598 Eighth Pkwy,Alamogordo,NM,88310-4419
Marie Clark,12433 Washington,San Jose,CA,95117-1569
Carolyn Q White,1938 Lake,Ouray,CO,81427-7220
Christopher H Smith,10483 Ninth Rd,Endwell,NY,13762
Richard O Hill,14505 Elm,Louisa,KY,41230-3377
Gloria E Wright,3321 Lake,Bloomdale,OH,44817
Bart Z Nelson,16807 Evergreen Way,Richfield,UT,84701
Martha Rivera,7140 Second,South Lee,MA,01260
James H Cox,18508 Fifth Pl,Eldorado,IL,62930-4667
Amy W Edwards,7503 Washington,DPO,CA,96530-4125
Gerald Clark,16293 Maple,Jeffersonville,IN,47131
Willie Parker,6235 Second,Lyon Station,PA,19536-1954
Janet D Wood,10847 Ninth Rd,Pickstown,SD,57367-7685
Janet B Martinez,668 Main,Axtell,KS,66403
Amber K Flores,10262 Oak,Durham,NC,27722
Ashley M Evans,8569 Oak,Theresa,NY,13691
Walter White,1573 Elm Rd,Eads,CO,81036
Brenda Hall,14338 First,Jones Mills,PA,15646
Christian N Thompson,12340 Cedar Way,Kearny,AZ,85137-3956
Kenneth Ruiz,13038 Cedar Ct,Bartow,WV,24920-9409
Marie Nelson,202 Cedar Blvd,Fort Myers Beach,FL,33931
Charlotte I Ward,14738 Park Ln,Sag Harbor,NY,11963-2384
Bart Edwards,2040 Sixth,Butte,NE,68722
Logan K Hernandez,9122 Lake,Minneapolis,MN,55412-0657
Bruce D Ross,14372 Elm,Weslaco,TX,78599
Jessica M Peterson,19374 Oak,Alvord,TX,76225
Nicholas S Cox,18078 Oak Pl,Beardstown,IL,62618
Ralph Roberts,413 Oak Dr,Pine Grove,PA,17963-0657
Deborah Y Morris,3926 Fifth,Warren,MI,48088-4154
Matthew Bennet,4941 Maple Dr,San Diego,CA,92150-6265
Jose D Watson,16739 Hill Ct,Asbury Park,NJ,07712-4483
John Peterson,12584 Lake Ct,Cope,CO,80812
Russell Smith,9971 Ninth Pl,Warwick,RI,02888
Dylan Taylor,19657 Hill,Williamsfield,OH,44093
Cynthia Thomas,14525 Second,Boca Raton,FL,33499-6795
Joshua W Perez,7870 Pine,Sioux Falls,SD,57106
Carl G Long,2523 First,New Hyde Park,NY,11042-9255
Jordan Martin,6838 Washington Blvd,Bass Harbor,ME,04653
Deborah James,16616 Eighth,Brookfield,MA,01506-4878
Harold Wilson,9950 Elm Blvd,Granville,ND,58741-9668
Dennis Myers,19744 Fifth,Rothville,MO,64676-6713
Andrea Gonzales,9005 Cedar Dr,Toledo,OH,43656
Ashley Wilson,10432 Cedar Pkwy,Columbus,ND,58727
Bryan P James,19545 Eighth Dr,Oakfield,TN,38362
Bart Q Patel,295 Cedar,Waterford,MI,48328-6871
Brittany W Patel,11188 Second,Calvin,WV,26660
Charlotte Perez,14845 Maple Pkwy,Neelyville,MO,63954-9068
Elizabeth U Lopez,14616 First,Warrenton,NC,27589
Kathryn E Myers,4346 Main Ln,Stockholm,WI,54769
Lisa J Murphy,17860 Elm,Vinita,OK,74301
Michelle K Edwards,1008 Maple Pkwy,Denbo,PA,15429
Daniel Gray,1603 Cedar Pl,Cliffwood,NJ,07721-0179
Lisa Myers,18985 First,Rubicon,WI,53078-3505
Alice Ross,2192 Park Dr,Worthington,MO,63567
Brenda Morgan,13709 Third Ln,Nedrow,NY,13120
Mark Howard,3131 Sixth,Stamford,CT,06926
Kathryn Price,13983 Evergreen Pl,Ellabell,GA,31308-7932
Henry Peterson,12584 Hill Ct,Marietta,NC,28362-1346
Beverly Nguyen,12574 Ninth Ct,SaintThomas,VI,00802
Diana B Anderson,17371 First,Clear Creek,IN,47426
Diane Kim,14421 Second Dr,Bronx,NY,10452
Joan V Simpson,11566 Evergreen Dr,Four Oaks,NC,27524-0686
Jessica Harris,2102 First,Gas City,IN,46933-1500
Ruth Gutierrez,7921 Elm,Bella Vista,AR,72714
Megan Hernandez,16827 Lake,Amherst,NH,03031
Kayla Rogers,4915 Hill Rd,Melvern,KS,66510
Roy Cruz,3864 View,Waukegan,IL,60087-4660
Christina Rogers,17041 Lake,Kent,OH,44243-5140
Jean U Hughes,178 Maple,Wilmington,DE,19807
Janet J Young,5741 Pine,San Juan,PR,00935-4175
Louis Turner,17631 Eighth Way,Lexington,TN,38351-9314
Michelle Nelson,10178 Hill,De Smet,SD,57231-1209
Austin Castillo,18649 Ninth Rd,Afton,VA,22920
Philip S Ruiz,365 Third Way,Chicago,IL,60613-2665
Louis Nguyen,16945 Washington Ct,Stambaugh,MI,49964
Brenda Green,17661 Park,Jackson,AL,36545
Kelly A Brown,7490 Fourth Dr,Memphis,TN,38141
Charles P White,12119 Third Blvd,Washington,DC,20551-2505
Megan Perez,19028 Maple Ln,Poplarville,MS,39470-3772
Isabella R Hill,1955 Third,Princeton,IA,52768
Cynthia W Nelson,16996 Park Dr,Barstow,IL,61236
Jack Reyes,1351 Sixth,Long Branch,TX,75669-0324
Johnny O Evans,4971 Seventh,Riverdale,GA,30296-6860
Helen Jones,4242 Eighth,Fairland,IN,46126-7427
Justin Baker,5699 Maple Way,Joplin,MO,64801-6650
Timothy X Rogers,11936 Sixth,Pasadena,MD,21123
Alan X Peterson,5994 Hill,Chagrin Falls,OH,44022-9869
Ashley R Miller,9505 Cedar Blvd,Carey,OH,43316-4217
Louis T Foster,11444 Cedar Pl,Rockwell,IA,50469-0057
Alexis Jackson,15447 Elm,Hackensack,NJ,07602
Janice T Davis,16894 Main,Springfield,IL,62757-6696
Katherine C Johnson,4644 Second,Lowpoint,IL,61545
Diane H Clark,13975 Pine,Clovis,CA,93619-1661
Jeremy B Phillips,15733 Oak,Throckmorton,TX,76483
Susan Scott,17542 Lake Ct,Chandler,AZ,85248-3885
William J Alvarez,8298 Elm,Columbia,SD,57433
Evelyn Thompson,15314 Sixth,Tulsa,OK,74101-4825
Christine U Ross,10142 Main,New Hartford,IA,50660
Danielle S Young,4762 Seventh Rd,Jesse,WV,24849
Donna Ross,13117 Pine,Springfield,OH,45501
Nicole N Hill,10165 Fifth Rd,Havelock,IA,50546-3574
Henry E Howard,19662 Evergreen Pl,APO,NY,09829
Brenda Ruiz,18924 Eighth,Kell,IL,62853
Evelyn Gomez,9442 Hill,Aurora,CO,80010-3192
Debra F Sanchez,16658 Pine,Sheffield Lake,OH,44054-9322
Joshua Williams,3890 Ninth Ln,Munson,PA,16860-5819
Doris Young,4658 Fourth Way,Grosse Pointe,MI,48236-5987
Andrea C Hernandez,18560 Park Pl,Rinard,IL,62878-1570
Marge Carter,17587 Maple Dr,Athens,AL,35613
Joan Jones,347 Lake Blvd,Wilmington,DE,19890-2086
Russell Phillips,16533 Fifth,Virden,IL,62690
Tyler L Lewis,549 Fourth,Bloomington,IN,47406
Amber Morris,19244 Evergreen,Clearwater,FL,33760
Mary Price,7127 Main,Lucerne Valley,CA,92356
Helen Ruiz,16623 Fourth,Buena Vista,NM,87712
John W Rodriguez,5519 First Ct,Florida,NY,10921
Pamela R Wilson,10311 Ninth Pkwy,Silverton,ID,83867-7053
Maria Adams,17878 View,Bonita,LA,71223
Alice P Perez,17175 Main,Arlington,KS,67514
Nicholas V Nguyen,8472 Fifth,Ceres,NY,14721
Ryan Y Williams,3720 Lake Way,Covington,OH,45318-7821
Kathryn T Nguyen,18744 Ninth,Wilkinson,IN,46186
Judy Sanders,2847 Hill,Venice,CA,90294-1774
Alan Bailey,14626 Oak Dr,Winnfield,LA,71483
Bart Young,16952 Sixth,Manchester,NH,03103-0783
Frank R Kelly,6487 Park Way,Rew,PA,16744
Dorothy Y Martinez,11272 Maple,Roundup,MT,59073-2818
Judith A Richardson,18466 View,Goodland,MN,55742-6481
Karen Hernandez,12148 Sixth,Plattekill,NY,12568
Maria B Moore,2267 Maple,Hammondsville,OH,43930
Steven Ramirez,10654 Ninth Dr,Greensboro,NC,27406
Amber L Rodriguez,8751 Pine,Holiday,FL,34690-4163
Elizabeth W Green,13184 Seventh Pl,Upper Marlboro,MD,20773
Scott G Miller,13593 Park,Henderson,NV,89011
James Y Simpson,6897 Evergreen,Denver,CO,80230-7715
Natalie Miller,1318 Elm,Albuquerque,NM,87106-4158
Diana O Cruz,6221 Maple,Walhalla,ND,58282-1384
Nicole F James,18571 Main Ln,Luxor,PA,15662-3288
Deborah D Parker,17445 Oak,Clarksville,MD,21029-2239
Rebecca J Scott,11861 Elm,San Juan,PR,00937
Angela Moore,2464 Park Dr,Graham,AL,36263
Angela G Cooper,13244 Sixth,Midland,OH,45148
Alexander K Morales,8310 Washington Dr,Labadieville,LA,70372-8737
Larry Chavez,9762 Second Pl,Carson City,NV,89721-3293
Carol Cook,14671 Third,Kincheloe,MI,49784-6778
Marge James,6511 Elm Dr,Vestal,NY,13851-2582
Sarah M Wilson,10172 Fourth Rd,Shallowater,TX,79363
Nathan Q Kim,15248 Second Pkwy,Harmonsburg,PA,16422
Brenda L Brown,3151 Maple,Pflugerville,TX,78660
Hannah Brown,10371 Evergreen,Essex,MD,21221
Jose Mendoza,15503 View,Divide,MT,59727
Kyle G Gutierrez,13760 Main Way,Avon Lake,OH,44012-4091
Christian I Richardson,8319 Eighth,Lanham,MD,20703-5302
Elizabeth S James,19981 Evergreen Ct,Tillar,AR,71670-5546
Larry M Ruiz,12577 Maple,El Paso,TX,79968
James I Chavez,8041 Ninth,Prairie Hill,TX,76678-1171
Rose O Martin,6737 Evergreen,Ozark,AL,36360-3147
Sean Cox,3222 Seventh Pkwy,Clearwater,FL,33769-3928
Cynthia D Perez,19722 Sixth,Coalinga,CA,93210-7146
Christine V Scott,3046 Fifth Blvd,Pacific Grove,CA,93950-4156
Paul Z Reed,15158 Evergreen Blvd,Dexter,MN,55926-6787
Gregory Taylor,13649 Third,Nashua,NH,03060
David E Richardson,9150 Maple Way,Cottekill,NY,12419-3818
Cynthia Collins,17191 Ninth Blvd,Lismore,MN,56155
Jesse Davis,19178 Main,APO,NY,09114-3147
Olivia F Kim,9617 First,Sodus,NY,14551
Lauren Ortiz,17967 Third,Osburn,ID,83849
Diana X Taylor,24 Sixth,East Meredith,NY,13757-2896
Roger M Patel,17603 Elm,Livingston,CA,95334-0522
Stephanie F Gutierrez,14055 Lake Ln,Melvin,IL,60952-2867
Peter King,12534 Sixth Blvd,Florence,SC,29505
Kelly Y Roberts,675 Oak,Saratoga,WY,82331-2534
Henry G Rogers,1668 Eighth,DPO,NY,09614
Vincent E Gray,4202 Main Blvd,Fairfax,VA,22037
Helen Parker,11208 Elm,Austin,TX,78753
Gabriel U Campbell,6517 Pine Way,Smyrna,GA,30081-3246
Juan Mendoza,14037 Main,Hempstead,NY,11550
Billy Evans,2074 Eighth,Hutchinson,MN,55350-1809
Ethan Bennet,6608 Elm Ct,Winter Haven,FL,33888-0358
Ronald White,7232 Elm,Union City,OK,73090
Randy U Long,13577 Washington Ct,La Porte,IN,46350-7543
Patrick I Murphy,13671 Elm Ct,Danville,OH,43014
Diane Perez,13772 Third Rd,Waukegan,IL,60085-6671
Peter R Adams,316 Third Pl,Gideon,MO,63848-6776
Ann Z Reed,12309 Fifth Ln,Creola,OH,45622
Ashley Y Chavez,7590 Third Ln,Anaheim,CA,92850-7802
Evelyn R Garcia,5372 Park,Billings,MT,59117
Judith Smith,9820 Third Rd,Las Cruces,NM,88005-3220
Megan Y Long,616 Cedar Pkwy,Stockertown,PA,18083
Kathryn E Miller,2917 Lake Pkwy,Parkersburg,WV,26101-8897
Jose Carter,17389 Fourth,Athens,GA,30602-6832
Ann Green,3015 Cedar Pkwy,Magnolia,TX,77354-6018
Donna Diaz,9344 Second Pkwy,Coulters,PA,15028-3880
Madison P Miller,3458 Evergreen Blvd,Kents Store,VA,23084
Julie F Murphy,498 Ninth,Dallas,TX,75208
Richard Kim,1064 Park Ct,Shirleysburg,PA,17260-2199
Helen F Bailey,2277 Park Pl,Lorain,OH,44053
Joe Morgan,13579 Seventh Blvd,Lubec,ME,04652-2656
Albert C Morgan,3624 Eighth Rd,Enid,OK,73705-3144
Scott N Campbell,14873 Second Dr,Atlantic Highlands,NJ,07716
Hannah C Phillips,9830 Ninth,Neihart,MT,59465-5346
Kevin Rogers,4676 Eighth,Corning,AR,72422-0817
Catherine Y Alvarez,233 Main,Newcastle,NE,68757
Alexis Garcia,11191 Fifth Dr,Norvelt,PA,15674
Diana P Hill,18464 First,Ithaca,NY,14853-8457
Judith Moore,5373 Cedar,Mission,KS,66201
Rebecca Martin,18441 Evergreen,Indianola,NE,69034-3755
Billy Evans,75 Lake,Ann Arbor,MI,48105-2683
Dorothy S Wright,1908 Third,Atlanta,GA,30348-0805
Albert K Green,19153 Park,Bellefonte,PA,16823
Scott X Cooper,2240 Eighth Pkwy,Penns Creek,PA,17862-9148
Douglas Torres,12413 Washington Pl,Williston,FL,32696-7847
Henry Gonzales,11044 Sixth,APO,NY,09016
Helen B Gonzales,14276 Cedar Ln,Leesville,OH,44639
Jesse Scott,11101 Hill,Hewitt,WI,54441-2041
Isabella Castillo,314 Park,Turrell,AR,72384
Marilyn E Martin,19071 Washington Ct,Dayton,TX,77535-8485
Catherine Cook,18705 Maple Pl,Maysville,MO,64469-5343
Roger E Cooper,1744 First,Gorum,LA,71434-0646
Carl U Cook,2735 Cedar,Jersey Shore,PA,17740-8107
Benjamin Q Wood,9400 Third,Charlotte,MI,48813-7496
Brittany D Johnson,18516 Main,Alexandria,VA,22301-1242
Dylan X Baker,18745 Fourth Pkwy,Falmouth,IN,46127-0578
Janice Murphy,10798 Eighth Pl,Jackson,MS,39204
David Campbell,11469 Lake,Rio Grande,PR,00745-6104
Karen Ruiz,1217 Eighth Pl,Pender,NE,68047
Joan Morris,12377 Pine,Rancho Cordova,CA,95742
Doris Castillo,6684 Pine Pl,Wilmington,OH,45177
Janet L Sanchez,7847 Second Ln,Calmar,IA,52132-5793
Joseph Z Ramos,10515 View,Gainestown,AL,36540-5593
Catherine D Lewis,2717 Cedar,San Antonio,TX,78255-8443
Shirley Richardson,13475 Sixth Way,Cadiz,KY,42211-1494
Vincent Stewart,6751 Elm,Oakland,FL,34760-9146
Harold L Young,16664 Fifth Ln,Anderson,IN,46011-8542
Billy X Evans,625 Main Rd,Kykotsmovi Village,AZ,86039-4288
Jonathan Foster,9765 Ninth,North Charleston,SC,29415-4551
Karen U Harris,18087 Hill Blvd,Rock Hill,SC,29731
Sean Lewis,8499 Park Way,Athol Springs,NY,14010
Gabriel Lopez,17858 Seventh,Okeechobee,FL,34972-4592
William Patel,6294 Ninth,Tyler,AL,36785-8704
James Ortiz,4790 Fourth Ln,Greenwood,SC,29648-2268
Jesse K Scott,5556 Maple Rd,Brainerd,MN,56401-5520
Evelyn Jackson,6141 Second,Huntington Beach,CA,92648-7161
Donald Hill,2480 View,Benet Lake,WI,53102-0117
Austin Morales,8205 Pine,Roan Mountain,TN,37687-2842
Evelyn Q Harris,6751 Pine,Webb,IA,51366-5281
Gabriel T Evans,8578 Evergreen,Austin,TX,78727-1171
Helen D Patel,11824 Seventh Pl,Brainerd,MN,56401-2690
Kayla Jimenez,14341 View,Fort Smith,AR,72902
Emma Robinson,19248 Lake,East Hampton,NY,11937
Andrea Lewis,812 Hill Ln,Henderson,AR,72544-7902
Anna Morris,819 Third Rd,Reynolds,GA,31076
Samantha P Kim,5891 Oak,Springfield,LA,70462-4382
Megan X Hall,1557 Evergreen Pkwy,Hyannis Port,MA,02647
Doris O Ward,6983 Cedar Rd,Waggoner,IL,62572-2804
Arthur A Gray,5029 Fifth,Holmes,NY,12531
Samantha Sanchez,12679 Fifth Dr,Spangler,PA,15775-9812
Lauren Collins,3691 Sixth,Gotham,WI,53540
Gloria Perez,16598 Hill Ct,New Bethlehem,PA,16242
Megan M Phillips,10801 Hill Way,Fletcher,OK,73541
Lisa Castillo,8436 Park Rd,Martins Creek,PA,18063
Jean Williams,7838 View,Wetumpka,AL,36092-9924
Thomas Martinez,10109 Washington,Meadview,AZ,86444
Melissa T Simpson,5678 Cedar,Durant,IA,52747-3028
Thomas U Ramos,11786 View,Newark,NJ,07104
Kimberly Hill,15370 Sixth Pl,Atlanta,GA,31196
Kimberly Stewart,16098 Elm,Castleton on Hudson,NY,12033-6077
Ethan R Mitchell,8884 Second Way,Dallas,TX,75236-2922
Sarah Y Mendoza,15090 Eighth,Stem,NC,27581-5055
Noah K Brooks,2157 Eighth,Yeagertown,PA,17099
Patricia S Rodriguez,10395 First Rd,Gatesville,TX,76598-0050
Debra Peterson,13265 View,Dunbridge,OH,43414-2982
Jose Alvarez,7942 Seventh Blvd,Ville Platte,LA,70586-3823
Lauren T Rogers,3491 Sixth,Snover,MI,48472-6305
Megan Castillo,16214 Evergreen Rd,Ewan,NJ,08025-0882
Helen H Edwards,8636 Ninth Blvd,Ravenna,KY,40472
Wayne Castillo,13087 Oak Ln,Boston,MA,02298-0871
Maria W Miller,8826 Fifth,Kingsport,TN,37660-1152
Keith U Parker,19647 Elm Pl,Bivins,TX,75555
Lauren G Thompson,8007 Lake,Lafe,AR,72436
Noah Turner,13773 Cedar,Clothier,WV,25047-7231
Betty Jimenez,8741 View,Columbus,GA,31917-1962
Vincent Y Moore,4116 Evergreen,Darby,PA,19023-8382
Carolyn Cooper,14730 Ninth Way,APO,CA,96343-3190
Kimberly V Howard,13238 Evergreen Blvd,Winthrop,MN,55396-6239
Angela Brooks,15550 View,Bentleyville,PA,15314-0180
Jennifer F Roberts,673 Sixth,Ponca,AR,72670-6381
Jordan S Mendoza,2630 Evergreen Rd,Morristown,OH,43759-8479
Noah O Turner,8804 Seventh Blvd,Fort Lauderdale,FL,33334
Michelle Roberts,5697 First Pl,Miami,IN,46959
Marilyn B Cook,9619 Ninth,Acme,LA,71316-9390
Christine Johnson,10221 Main,Newark,OH,43058-6632
Gerald Hall,18209 Main Dr,San Antonio,TX,78294-9468
Randy Bennet,10255 Park,Nalcrest,FL,33856-7617
Rachel Gonzales,3235 Sixth Dr,Rochester,NH,03868
Alexis Miller,4420 Elm,Sebec,ME,04481
Austin P Carter,4623 Cedar,Rockingham,NC,28379
Gerald Y Allen,4714 Cedar Ln,Oxford,MA,01540
Robert H King,3458 Third,Brittany,LA,70718
Jessica F Patel,11973 Pine Dr,Frankfort,KY,40619-8501
Peter B Price,6472 Lake,Rozet,WY,82727-2824
Judith Z Adams,11928 Third,Franklin Park,NJ,08823-7157
Ann Green,15295 Pine Blvd,Fowler,KS,67844
Nancy Harris,10666 Cedar Dr,Hoffman Estates,IL,60169
Gerald L Young,17260 Fifth Dr,Upper Lake,CA,95485-6532
Jerry Wright,14530 Third Pl,Marana,AZ,85653-6792
Angela Richardson,10398 Lake Ct,Rollinsford,NH,03869
Noah H Nelson,7939 Sixth,Castaic,CA,91310-4121
Eugene H Davis,17208 Maple Pl,Auburndale,FL,33823
Cheryl Gutierrez,2359 Third,Cardinal,VA,23025
Jessica Z Lee,19736 Eighth Ct,Oklahoma City,OK,73131
Larry Anderson,5614 Cedar Ln,Tarrytown,NY,10591-3310
Olivia Q Carter,9108 Hill Dr,Tollesboro,KY,41189
Nicole Thomas,16422 Maple Blvd,Milford,UT,84751
Rebecca N Taylor,16828 Oak,El Paso,TX,79996-7810
Kimberly Z Watson,16990 Sixth Way,Warriormine,WV,24894
Kayla Turner,1704 Park Pkwy,San Jose,CA,95193-5698
Benjamin Q Myers,14915 Fourth,Argonne,WI,54511-9503
Joshua M Howard,2196 Seventh,Oatman,AZ,86433-4633
Evelyn O Lopez,13209 Maple Ln,Estillfork,AL,35745
Denise S Mendoza,18811 Cedar Way,Buckeye,WV,24924-6345
Samantha Cooper,5659 Fifth Dr,Chapel Hill,NC,27599
Alexander G Hill,6289 Pine,Knoxville,TN,37901
Diana Rogers,5435 Second Ct,Saint Cloud,FL,34771-2518
Judy Hernandez,6445 Washington Pkwy,Ocate,NM,87734
Anna Brown,12148 Main Dr,Huger,SC,29450-5039
Pamela Ruiz,15317 View,Coal Township,PA,17866-8241
Justin T Cook,7540 Second,Weldon,IA,50264
Helen P Perez,7681 Fourth Pl,Vista,CA,92085
Keith Wright,4742 Lake,New York,NY,10179-3610
Pamela Brown,14664 Maple,Salina,UT,84654
Alan J Long,6961 Ninth Blvd,Monteview,ID,83435-7060
Jack H Hernandez,19528 First,Penns Grove,NJ,08069
Timothy U Nelson,5968 Oak Rd,Hayes,SD,57537-7250
Sara N Clark,1818 Eighth Dr,Saint Hilaire,MN,56754-7213
Shirley Reyes,11279 Ninth Ln,Panama City,FL,32409
Judy R Rogers,7926 Ninth,El Monte,CA,91734
Austin Ward,3032 First Way,Otto,NY,14766
Sean R Jones,14530 Second,Richmond,TX,77469
Jerry Perez,13972 Lake Dr,Old Mission,MI,49673-7001
Teresa D Gomez,17005 Third,Glendale,AZ,85310
Catherine Cox,10304 Ninth Ln,Garrison,UT,84728-9796
George I King,17464 Seventh Pl,La Vergne,TN,37089-9349
Joseph Ross,906 Maple Ct,Macon,GA,31209
Jose Gomez,18953 Pine,Rothschild,WI,54474-9042
Jason Castillo,7813 Fourth Blvd,Sandy Point,VA,22577-4888
Sophia Brown,18420 Main,Dennard,AR,72629-7414
Ruth A Thomas,4174 Fourth Rd,Lemont Furnace,PA,15456
Jerry Williams,15507 First,Hewitt,TX,76643
Roger Anderson,14912 Third Blvd,East Fultonham,OH,43735-3915
Angela Price,11119 Oak,Board Camp,AR,71932
David Robinson,8990 Fourth Dr,Kerhonkson,NY,12446-6334
Andrew O Reed,3526 Evergreen Pkwy,Boothbay Harbor,ME,04538-7587
Amy Taylor,2034 Park Rd,Lima,MT,59739
Ronald Phillips,722 Maple Dr,Glen Dale,WV,26038-1369
Isabella R Thompson,7881 Evergreen,Brookeland,TX,75931-2067
Bryan G Adams,15325 Hill Pl,Menifee,CA,92586
Marge Kim,12363 Oak Ln,Schooleys Mountain,NJ,07870
Lisa G Rivera,18062 Cedar Dr,Gorham,KS,67640
Gloria Torres,6035 Washington Way,Moretown,VT,05660-4810
Abigail M Jones,6581 Park Ln,King and Queen Court House,VA,23085
Dylan Johnson,18777 Oak,Endeavor,WI,53930
Anthony F Lewis,16544 Cedar Blvd,Groton,MA,01471
Theresa M Wilson,1007 Hill,Sugarcreek,OH,44681-9501
Grace Ortiz,7829 Evergreen,Sidney,MI,48885
Bryan N Diaz,15823 Park Ln,Woodway,TX,76712-7325
Ralph Gray,12291 Third,Topmost,KY,41862-3045
Judy Nguyen,4408 Second,Box Elder,MT,59521
Amber D Brown,1481 Lake,Grimsley,TN,38565-2644
Judy Gomez,9828 Fifth Pkwy,Kensington,MN,56343-8017
Benjamin Lee,13262 View,New Haven,CT,06520
Amy Chavez,15551 Fourth Blvd,Hi Hat,KY,41636
Samuel O Young,8606 First Dr,Brunswick,TN,38014
Christian J Flores,397 First,Jacksonville,FL,32222
Stephanie Kelly,9908 Pine,Lake Park,IA,51347
Ruth Cooper,17737 Eighth,Hiltons,VA,24258-3746
Charles A Gutierrez,10924 Fifth,Lumberton,NJ,08048
Diane F Ross,3993 Third Blvd,Pine Ridge,SD,57770-7355
Andrea E Gray,14997 Park Pkwy,Madison,AR,72359-0350
Bobby X Adams,13269 First,Cassville,WI,53806
Bruce Chavez,6703 Park,Calpella,CA,95418-5499
Kathleen Y Bailey,558 Cedar,Hester,LA,70743
Jason K Price,14762 Fifth,North Garden,VA,22959-5452
Donna B Gray,2696 Main,Detroit,MI,48238-6057
Laura Scott,3996 Second Pl,Wapello,IA,52653
Brittany Martinez,3998 Elm Pkwy,Cannon Ball,ND,58528-6355
Philip D Adams,17175 Ninth,Wataga,IL,61488-4874
George White,11958 Lake Rd,Grand Junction,CO,81504-3820
Anthony Ramos,10635 Pine Blvd,Farmington,MI,48331
Carol T White,6234 Elm,Forked River,NJ,08731-3650
Olivia Adams,5544 Sixth,Port Arthur,TX,77640-7720
Harold U Scott,2542 Maple,Orlando,WV,26412-3266
Daniel C Bennet,2144 Park,Saint Marie,MT,59231
Catherine Collins,12243 Seventh,Lakeland,FL,33815-2485
Rose B Wilson,6929 Washington Ln,Webster,PA,15087
Tyler Scott,15752 Evergreen Pkwy,Tucson,AZ,85723
George Jones,9078 Second,Norwich,OH,43767
Brenda King,14824 Evergreen Ct,Henryville,IN,47126-5646
Noah G Phillips,4581 View Rd,Montezuma,GA,31063
John J Rivera,10947 Washington,Onia,AR,72663
Isabella F Wilson,14334 Park,Cairo,WV,26337-3177
Roy Gomez,3531 Oak,Waterbury,CT,06705
Julie W Collins,16148 Washington,Hyattsville,MD,20783
Richard O Johnson,13649 Eighth Ln,Hudson,WI,54016-7012
Michael Turner,10089 Washington Ln,Saint Louis,MO,63103
Jean Gomez,10909 First,Sebastian,FL,32958
Stephen Torres,4599 Park Way,Cogan Station,PA,17728-9025
Helen Parker,12698 Washington,Hampton,VA,23630
Cheryl Q Jackson,15563 Eighth Rd,Grand Portage,MN,55605
Ronald S Harris,12876 Elm,Owaneco,IL,62555
Linda Ruiz,14879 Seventh,Columbus,OH,43230-9535
Ethan Davis,18100 Pine,Cooksville,MD,21723-4413
Aaron Campbell,2123 Ninth,Pagosa Springs,CO,81147
Ryan Green,10315 Oak,Findlay,OH,45839
Nathan T Alvarez,7223 Ninth,East Waterboro,ME,04030-1269
Gary E Smith,7604 Seventh Way,Sanford,FL,32772
Samantha D Price,6181 Maple Ct,Wendell Depot,MA,01380-7420
Sandra W Gonzales,1524 Lake,Homer,OH,43027
Edward F Smith,11944 Elm Dr,Ryder,ND,58779
Jesse Parker,12978 Washington,DPO,NY,09730-5498
Emily Gomez,12331 Seventh Dr,Harrisburg,PA,17106-8192
Homer D Wood,9491 Park Way,New Britain,CT,06052-1666
Susan J Brooks,8788 Second Ct,Miami,FL,33111
Emily B Williams,14939 Ninth Ln,Trent,TX,79561-7396
Janice Baker,11378 Elm Ln,Friendship,TN,38034
Robert Simpson,3937 Evergreen Rd,Skaneateles,NY,13152
Jerry Phillips,14476 Seventh,Ferndale,NY,12734
Bryan N Campbell,5532 Evergreen Dr,Independence,MO,64058-4868
Benjamin N Rivera,4322 Seventh,Mandaree,ND,58757
Jennifer Gomez,953 Park,Mount Pleasant,PA,15666-2979
Frances Mendoza,11334 First,Cliff Island,ME,04019-4964
Arthur G Diaz,8983 Second,Colwell,IA,50620
Lauren Gray,9508 Oak,Arco,ID,83213-5488
Evelyn G Collins,8317 Main,Middleburg,VA,20118-4951
Christina K Turner,10248 Pine,Parkersburg,IL,62452
Randy I Long,17833 Cedar,Troy,NC,27371-4662
Willie Morgan,11426 Fourth Blvd,Baton Rouge,LA,70837
Judith Baker,635 Lake Dr,Woodside,DE,19980
Kathryn L Smith,11964 Park,De Mossville,KY,41033
Edward M Scott,17593 Fifth Dr,Hyattsville,MD,20788-3171
Kyle M Carter,11174 Lake Ln,Berkshire,NY,13736-7216
Anna Nguyen,635 Fifth,Boise,ID,83705
Abigail C Carter,19086 Sixth,Traskwood,AR,72167
Teresa Castillo,8687 Ninth Ln,Detroit,MI,48222-6368
Patricia B Ward,19818 Fourth,Peoria,AZ,85385-6472
Maggie Evans,3983 Third Ct,New Orleans,LA,70178-2577
Logan Baker,12382 Pine Pkwy,Seaford,VA,23696
Natalie H Williams,11564 Evergreen,Cleveland,OH,44198
Brittany Martin,15978 Eighth Blvd,Elizabeth,NJ,07202-8384
David Robinson,19396 View,Shepherd,TX,77371-0273
Keith Baker,19149 Main,Havana,FL,32333-1341
Louis Harris,9341 Elm Blvd,Wright City,OK,74766
Joyce L Wright,14019 Fourth,Memphis,TN,38145
Adam Morgan,1104 Main Rd,Oakville,CT,06779
Brian Wood,2018 Eighth Blvd,Lynchburg,VA,24504-4165
Logan E Hughes,17281 Oak Pl,Freeman,WV,24724
Linda Y Kim,5140 Oak Blvd,Sibley,IA,51249-4178
Carol Turner,4180 View,Holtsville,NY,11742
Daniel Y Young,18146 Cedar Blvd,French Settlement,LA,70733-9493
Dylan Mendoza,6645 Main,Milton,PA,17847
Dennis Thomas,2417 Pine,New York,NY,10175-7276
Ruth J Howard,17149 View Dr,Earleton,FL,32631-7612
Victoria Diaz,4507 Evergreen Ln,Portland,ME,04104
Johnny Miller,18303 Ninth,Bayonne,NJ,07002
Frank Cox,5418 Elm Pkwy,Somerset Center,MI,49282-3275
Dylan Edwards,10396 Sixth,Pueblo,CO,81012-1902
Abigail Torres,8022 Seventh Ct,Carol Stream,IL,60128
Debra Z Mitchell,9656 Washington,Lake View,IA,51450-1460
Ruth King,15242 Third,Huntley,MT,59037
Christine Q Reyes,14468 Seventh Ct,Fritch,TX,79036-4839
Amanda Reed,9949 Cedar Dr,Huson,MT,59846-4259
Helen T Castillo,2232 Fourth,Buffalo,MO,65622
Isabella Q Cox,9635 Ninth Pkwy,West Mineral,KS,66782-9545
Keith N Anderson,11435 Washington Pl,Liberty,NY,12754
Mary K Turner,5651 Eighth Way,Haverhill,MA,01830
Amy R Wilson,8244 Maple,Massena,IA,50853-6724
Charlotte P Sanders,10052 Eighth Ct,Geyser,MT,59447-9930
Joan Anderson,15455 Oak,Columbus,OH,43204
Patricia Q Price,18928 Main,Oriskany,NY,13424-0571
Raymond Cook,1851 View Pkwy,Continental Divide,NM,87312
Donald Gutierrez,19347 Evergreen Blvd,McCallsburg,IA,50154-9454
Lisa Scott,4558 Sixth Ln,Waupun,WI,53963
Kimberly G Brown,16619 Seventh,Fremont,IA,52561
Martha Hughes,7910 Eighth,Coleman,GA,39836
Debra Y Long,266 Fifth,Croton on Hudson,NY,10521
Frances Gutierrez,19460 Evergreen Blvd,Kansas City,MO,64999
Ralph H Edwards,10051 Fourth Ln,Randolph,MA,02368-7907
Christian B Lee,14151 Sixth,Pittsburgh,PA,15279-3872
Virginia N Torres,19651 Second,Monument,CO,80132
Jeremy Rodriguez,8665 Main Rd,Crowley,LA,70526-4431
Joe Evans,18183 Ninth,Jordan,NY,13080
Barbara C Sanders,10640 Evergreen,Henderson,MN,56044
Larry A Nelson,17432 Second,Sparta,MO,65753-8175
Amber M Gray,8501 Maple,Teterboro,NJ,07608-8384
Gloria Howard,19619 Cedar Pl,Prior Lake,MN,55372-8792
Marge Lewis,70 Sixth Blvd,Granger,WY,82934
Joan King,15733 First,Saint Petersburg,FL,33733
Grace Y Watson,3277 Fourth Blvd,Wichita,KS,67210-9362
Jack Wright,3322 Second Pl,Petersburg,MI,49270-9498
Ruth Richardson,3918 Evergreen Pkwy,Athens,LA,71003
Carolyn X Ruiz,4928 Maple Blvd,Los Angeles,CA,90072
Isabella Jackson,14525 Park Rd,Orlando,FL,32830
Eric Edwards,7123 Ninth,Pitman,PA,17964-8175
Denise Evans,13379 Ninth Ct,Burson,CA,95225-4010
Patricia Z Campbell,7931 First Dr,APO,CA,96550-7142
Ryan T Lopez,1336 Elm Pkwy,Kannapolis,NC,28083-2650
Vincent W Thomas,3126 Lake,Rio Rancho,NM,87124-1387
Margaret Q Hughes,7294 Eighth,Slidell,LA,70458-2173
Steven Brown,14551 Second,Shiloh,TN,38376
Douglas H Robinson,9175 Pine Pkwy,Albany,OH,45710
Paul Collins,3814 Seventh Ct,Hills,MN,56138-5773
Anna Roberts,13658 Oak,Malibu,CA,90263
Homer O Morgan,13550 Fourth Rd,Temple,TX,76502-2237
Benjamin Ward,15741 Main Ct,Westminster,MA,01473
Jennifer Ward,11461 First,Kimball,NE,69145-5062
Judith S Peterson,19962 Washington,Renfro Valley,KY,40473
Robert Allen,13645 Fifth,Lynn,MA,01904-8685
Beverly K Hernandez,7688 View,Topeka,KS,66608
Gloria Peterson,12863 Pine,Madison,WI,53744
Karen Morgan,10468 Ninth,Offerman,GA,31556
Dennis Gutierrez,12186 Third,Aurora,MN,55705
Kevin Evans,19066 Third Pkwy,Harrisburg,PA,17110-8578
Philip Ward,691 Park,El Paso,TX,79902-1542
Stephen E Cox,11518 Lake Rd,Mobile,AL,36688-5825
Adam Morales,660 Hill,Osyka,MS,39657-1742
Vincent Ruiz,9813 Fifth Ln,Sherburne,NY,13460
Nicholas A Turner,4390 Seventh,Badger,CA,93603-4184
Jean Q Adams,15815 Fifth,Wadesboro,NC,28170
Cheryl O Gutierrez,1267 Ninth Ln,Side Lake,MN,55781
Joseph Long,11602 Fifth Dr,New Berlinville,PA,19545
Doris K Sanchez,13471 Park,Bigelow,AR,72016-5394
Olivia W Turner,9222 Second Ct,Orlando,FL,32886-4938
Karen X Cooper,6864 Cedar,Sylmar,CA,91342
Janice Chavez,6494 Cedar Rd,De Witt,AR,72042
Logan Bennet,4666 Evergreen Pl,Coppell,TX,75019
Frances R Chavez,16572 Seventh,Vermilion,IL,61955
Pamela Z Ross,18682 Washington Blvd,Island Park,NY,11558
Gloria Williams,7344 View Pkwy,Cincinnati,OH,45253-0708
Madison Davis,10815 Sixth Ct,Simon,WV,24882
George S Brooks,7284 Elm,Lake Geneva,WI,53147-2462
Debra Cook,5617 View,Montgomery,LA,71454
Bart M Cox,15204 Hill Blvd,Canoga Park,CA,91305-3700
Rose K Howard,3688 Third Pl,San Antonio,TX,78230
Deborah Jimenez,11386 Cedar Blvd,Ogallala,NE,69153
William Z Clark,13330 Main,Memphis,TN,38159
Susan A Bennet,19859 Oak Way,Dillon Beach,CA,94929-2113
Margaret S Torres,14199 Oak Rd,Cleveland,AR,72030
Eugene Collins,16486 Hill Pl,Berino,NM,88024-3994
Jonathan Robinson,16868 Fourth,Ashburnham,MA,01430
Megan R Torres,5132 Pine,Edgefield,SC,29824-8326
Anthony F Ramos,11139 Second,Mondovi,WI,54755
Danielle N Taylor,5233 Seventh,Endicott,NY,13761-6097
Carol Baker,623 Eighth,Clearfield,PA,16830-4872
Matthew Richardson,13392 Lake,Baroda,MI,49101-8553
Nicholas D Hughes,15086 Main,Aurora,CO,80019
Gerald Lopez,9169 Pine,New Leipzig,ND,58562-1388
Noah O Mitchell,3998 Maple,Windsor Mill,MD,21244
Ralph G Martin,3776 Seventh,Wheeling,MO,64688-8400
Laura J Hughes,18376 Cedar Blvd,Orlando,FL,32836-2569
Michelle D Rodriguez,12863 Fifth,Bensalem,PA,19020
Logan Scott,11372 Cedar Way,Winfred,SD,57076-5838
Megan S Richardson,1094 Fourth Blvd,Sykeston,ND,58486
Janice Morris,9627 Second,Napoleon,ND,58561-5280
Brian A White,11447 Eighth,Virginia Beach,VA,23461
Paul Q Ramirez,19000 View Blvd,La Monte,MO,65337
Carolyn Wright,17396 Park,Sidnaw,MI,49961-8312
Harold Sanders,18792 View Pl,Breezewood,PA,15533-4551
Mary Morales,11276 View,Danvers,IL,61732-5435
Sara Smith,3572 Maple Pl,Versailles,OH,45380-2728
Beverly Parker,8835 Seventh,Mount Kisco,NY,10549
Jose Campbell,19122 Oak,Lowell,AR,72745
Eric S Wood,5343 Third,Natural Bridge,AL,35577
Roy P Garcia,19334 Park,Granger,IN,46530
Jacqueline Z Edwards,739 Washington Blvd,Raymond,IL,62560-7670
Stephanie G Rogers,18396 Washington,El Paso,TX,88567
Robert Jones,2558 Fifth,Pungoteague,VA,23422
Christopher Green,17199 Maple Pl,Springfield,IL,62701
Madison K Clark,2202 Fourth Way,Brandon,WI,53919
Christina Ramos,9141 Second,Madison,WI,53711-8672
Stephanie Martinez,3495 Third Blvd,Mears,MI,49436-6924
Lauren M Rivera,17481 Maple Rd,Jacksonville,FL,32220
Kenneth Kelly,12829 Main,Philadelphia,PA,19185
Emma H Myers,9842 Third Ln,Dothan,AL,36305-3339
Lauren H Brown,7418 Fourth Ct,Amherst,VA,24521
Tyler N Robinson,3033 First,Bascom,OH,44809
Madison W Morris,2223 Second Pl,Coventry,VT,05825
Michael O Morales,12158 Fourth,Santa Ana,CA,92707-9647
Victoria Campbell,10835 Third Pkwy,North Salem,NH,03073
Bobby D Torres,4149 Fourth Ct,Fairforest,SC,29336
Anna Green,1246 Ninth,Isabel,KS,67065-3664
Robert J Sanchez,15759 Eighth Way,Lone Jack,MO,64070
Shirley A Nelson,15245 Seventh Ln,Mounds,IL,62964-5517
Joan Lee,13585 Park,Georgetown,MS,39078-1424
Ronald Ramos,17414 View,Leonard,MN,56652-2498
Denise L Peterson,19070 Evergreen,Fowler,IL,62338-5383
Brandon Q Howard,9944 Fifth,Jewell,OH,43530-6558
Randy L Hill,7971 Main Way,Houma,LA,70361-0028
Henry H Mitchell,10174 Eighth,Merced,CA,95341-7634
Andrea Gonzales,14508 Maple Pkwy,Ranier,MN,56668-8106
Justin Torres,12343 Pine Rd,Mesa,AZ,85275-2932
Rachel L Campbell,736 View,Old Fort,NC,28762
Bart T Flores,8745 Seventh,Creighton,PA,15030-6761
Ruth Watson,19844 Maple Blvd,Braceville,IL,60407-8815
Juan W Gomez,12693 Evergreen Ln,Lake Village,AR,71653
Philip Anderson,11029 Park Way,Albuquerque,NM,87114-8002
Ashley Chavez,15623 Elm,Eagle Rock,VA,24085-0153
Robert Howard,3072 Ninth Blvd,Heafford Junction,WI,54532
Mary Parker,8335 Eighth Blvd,Pine Hill,AL,36769
Kayla Davis,18010 Fifth,Westfield,ME,04787-3950
William U Ward,11266 Fourth,Pine Valley,NY,14872
Rose Cooper,16729 Washington,Marietta,GA,30069-9945
Tyler U Sanchez,13643 Third Ct,Harper,IA,52231
Louis F Castillo,3619 Sixth Rd,Dulles,VA,20189-9540
Kathryn H Castillo,2783 Ninth Ln,Gordon,PA,17936-2855
Nicholas H Gonzales,7114 Fourth,Melbourne,FL,32940
Alan S Sanders,17045 Washington,San Francisco,CA,94132-1916
Wayne E Gray,14045 Evergreen Rd,Ben Hur,VA,24218-8538
Rachel James,14464 Washington,West Sacramento,CA,95691-8117
Wayne J Peterson,7469 First Dr,Tipton,IN,46072-6378
Brian Thomas,10466 Eighth Ln,Springfield,MO,65801
Danielle Q Roberts,5425 Third,Hamlet,NC,28345-8849
Arthur Scott,10535 Seventh,Fieldon,IL,62031-3283
Doris W Sanchez,7475 Oak Dr,Sidney,MT,59270-7297
Diana Gomez,11052 Evergreen Pkwy,Riverside,CA,92516
Bart P Williams,13906 Sixth Blvd,North Las Vegas,NV,89032
Sharon Y Myers,7964 Seventh,Anaheim,CA,92825
Kathryn Lewis,8502 Fifth,Colorado Springs,CO,80997-4208
David S Morgan,2330 Evergreen,Vera,OK,74082
Gary Smith,5672 Seventh,Indianapolis,IN,46206
Peter O James,18223 Cedar,Venice,IL,62090
Dorothy Wright,9078 Evergreen Rd,McKinleyville,CA,95519
Bryan Thompson,9499 Elm Blvd,Manchester,OH,45144
Tyler Taylor,3186 Second,Quincy,OH,43343
Frances P Foster,14226 Hill Way,New York,NY,10109-4917
Bobby Kim,16590 View,Cleveland,OH,44108
Deborah Q Sanders,11042 Ninth Rd,Cardale,PA,15420-5531
Deborah X Evans,17416 Evergreen Ct,Roberts,ID,83444
Donna Howard,2782 Washington,Summit Station,PA,17979
Christopher Campbell,6854 Main Dr,San Diego,CA,92163
Louis Harris,15753 Fourth Pkwy,Harrison,SD,57344-0705
Eugene E Smith,8539 Third,Reagan,TN,38368
Julie B Sanders,7668 Sixth Pl,Baring,MO,63531
Ryan U Young,10195 Eighth Way,Jenkinsville,SC,29065-4905
Cheryl Ross,14573 Pine,Sylvania,AL,35988
Barbara Evans,6413 Second,Buncombe,IL,62912-7315
Gary B Patel,5746 Lake,Brookings,SD,57006-2882
Jordan Patel,3105 Park,Ulen,MN,56585-0828
Olivia Y Kelly,6269 View Ct,White Lake,MI,48383
Brian O Foster,443 Pine,Gilman,MN,56333
William L Mitchell,2016 Elm,Manley,NE,68403
Stephanie E Reed,8818 Eighth Rd,Saint Louis,MO,63116-7470
Tyler O Walker,409 Cedar,Pioneer,OH,43554-9231
Charlotte Cook,12960 Fifth Way,Tampa,FL,33675-9240
Kayla Brooks,12731 Fourth Way,Fort Wayne,IN,46854
Vincent O Scott,5874 Sixth Ln,Bruno,NE,68014
Thomas Garcia,2008 Eighth Pkwy,Mount Pleasant,SC,29466-3496
Anna F Williams,19325 Hill Way,Charleston,SC,29412
Bart Castillo,10122 Pine,Seneca,WI,54654-4772
Martha Carter,13668 Cedar Ln,Wichita,KS,67209
Karen Adams,19650 Lake,Boomer,NC,28606-8282
Marilyn Edwards,13076 Park,Clarksdale,MS,38614-3664
Linda Ramirez,8385 Third,Cedar Glen,CA,92321
Kathleen Cox,17559 Maple,Loup City,NE,68853-4745
Christina Nguyen,17194 Evergreen,Belle Mead,NJ,08502
Kayla Ortiz,3153 Oak Pl,Eagle Bend,MN,56446-2893
Joseph L Murphy,5754 Oak Pl,Albany,NY,12222-4823
Teresa Hall,4626 Washington Ct,Shortt Gap,VA,24647-4088
Ronald Ramirez,37 Cedar,Fairland,IN,46126
Brenda H Wilson,15435 First Pkwy,Randlett,OK,73562-7478
Andrew N Green,14005 Evergreen,New Roads,LA,70760
Jacob Harris,6871 Seventh Rd,Knoxville,GA,31050
Natalie P Morris,19345 Fifth,Oscoda,MI,48750-0409
Benjamin Kim,15837 Hill,Arlington,IA,50606
Kevin O Edwards,7145 Ninth Pkwy,Independence,MO,64053
Keith R Jackson,13368 Park Rd,Herron,MI,49744
Natalie Myers,3231 Oak Pkwy,Chester Gap,VA,22623-6543
Jose Myers,6707 Sixth Way,Des Moines,IA,50364
Frances Diaz,8258 Main,New London,IA,52645-9373
Paul Kim,22 Main,Solvang,CA,93464
Jessica Adams,13051 Sixth,New Haven,MO,63068-8989
Jose X Thomas,18163 View Ct,Low Moor,IA,52757
Joe Adams,1759 Ninth Dr,Tremont,MS,38876
Homer Jackson,3291 First Ct,Gold Hill,NC,28071-4938
Albert U Jackson,13424 Second Pl,Clifton,NJ,07014-2662
Julie C Diaz,5399 Pine,Roxbury,NY,12474-2566
Shirley Turner,18756 Lake Dr,Elkhart,TX,75839-7819
Ralph Green,13877 Third Rd,Hartley,TX,79044
Natalie Ramirez,6366 Fifth Pl,Salisbury,MD,21804
Ronald L Reed,15560 Second,Corning,CA,96021
Raymond G Jackson,15975 Third,Huntington,WV,25708
Timothy H Ward,12655 First,DPO,FL,34001-4793
Maria Z Green,4169 First Way,Liberty Corner,NJ,07938-3377
Elijah Morgan,8307 Elm,Wofford Heights,CA,93285
Madison Edwards,2830 Maple,Caldwell,WV,24925
Lawrence W Cook,3559 Third Way,Broadlands,IL,61816
Jacqueline Baker,7158 Oak,Yankeetown,FL,34498
Gloria Carter,11180 Main Pl,Wanatah,IN,46390-1139
Brittany Nguyen,1397 Park,Richfield,WI,53076
Jacob Q Reyes,12490 Elm,Saint Paul,MN,55144-5305
Joseph B Kelly,5674 Park Rd,Canastota,NY,13032
Gary Nguyen,7787 Sixth Ln,Lynchburg,VA,24501
Kayla Lewis,11114 Fourth,Violet,LA,70092-6133
Kathryn Edwards,9714 Main,Selkirk,NY,12158-9148
Diana N Flores,2041 Washington Pl,Brooklyn,NY,11232-5699
Elijah J Green,10463 Sixth Pkwy,West Liberty,IL,62475-1237
Charlotte Peterson,639 Washington,Louisville,GA,30434
Sean F Jackson,4496 Washington Blvd,Marysvale,UT,84750-2432
Joan Peterson,16718 Oak,Wilmington,NY,12997-4182
Mark Richardson,4512 View,McDowell,KY,41647-7833
Jason Wilson,5190 Ninth Blvd,El Paso,TX,79949
Ethan U Morales,14133 Main,Crooksville,OH,43731-3378
Diana A Peterson,19437 Second Dr,DPO,NY,09737-0658
Anna Phillips,5170 Eighth Pl,Burlison,TN,38015
Samuel Q Nguyen,14692 Main,Kansas City,MO,64199
Natalie L Johnson,3253 Second Ln,Boscobel,WI,53805-3850
Carol V Ramirez,4845 Second,Enfield,CT,06083
Linda C Collins,2041 Maple,Clinton,OH,44216-7888
Scott K Rodriguez,19760 Fifth Pkwy,North Anson,ME,04958-4871
Nathan Reed,8773 Oak Dr,Hazleton,IN,47640
Noah Morris,18353 Park Pkwy,McLouth,KS,66054-0882
Russell Parker,9729 Elm Pkwy,Saint Petersburg,FL,33747-5751
Emily Y Brooks,17084 Park,Lake Village,AR,71653-7445
Jessica Wood,4085 Elm Way,Homer,NY,13077
Logan J Clark,9106 Ninth Rd,Davisville,MO,65456
Homer Harris,16365 Seventh,Zolfo Springs,FL,33890
Doris Torres,12661 Seventh Dr,New Orleans,LA,70115
Charlotte Z Perez,834 Cedar,Dallas,TX,75394
Andrea Hernandez,17270 Park Dr,Mountain Home,ID,83647-1771
Katherine V Diaz,5779 Seventh Rd,Los Angeles,CA,90065
Angela Campbell,9796 Evergreen Blvd,Kearneysville,WV,25430-9132
Sarah I Clark,14006 Ninth Ln,Berwick,PA,18603
Olivia Ramirez,323 Cedar Way,Dana,NC,28724
Barbara K Hall,2660 Elm,Tyner,KY,40486-9233
Isabella B Gonzales,8099 Cedar Blvd,Hiseville,KY,42152
Joseph O Campbell,10122 Elm Dr,Saint Nazianz,WI,54232-2297
Martha E Reyes,19566 Lake,Russells Point,OH,43348
Nancy J White,5212 First Blvd,Bellaire,TX,77402-4566
Doris H Rodriguez,1740 Sixth,Bath,SC,29816
Michael K Mendoza,3255 Evergreen,Flemington,WV,26347-9442
Carol D Martin,5083 Second Ct,Burlington,IL,60109-2806
Nathan Murphy,7341 Washington Rd,Rockhill Furnace,PA,17249
Judith Price,8860 Oak Ln,Richmond,VA,23222
Rachel K Ramos,11308 Elm,Happy Camp,CA,96039
Maria Brown,15271 Third Ct,State College,PA,16804-9023
Albert N Reyes,16686 Ninth Way,Emeryville,CA,94662-0952
David G Rivera,3270 Third,Fostoria,KS,66426
Sophia Q Gutierrez,2818 Washington Blvd,Waco,TX,76710
Emma Johnson,12084 Lake Blvd,Clarkston,GA,30021
Diana T Anderson,18023 Seventh Way,Bluffton,GA,39824
Ashley W Sanchez,17697 Park Ct,Drayden,MD,20630
Joan Allen,13218 Ninth Pl,Savonburg,KS,66772
Arthur O Ramirez,19561 Pine Way,Garfield,MN,56332-8201
Samantha E Chavez,17583 First,Lugoff,SC,29078-3303
Joseph U Sanders,5351 Oak,Colfax,ND,58018
Ethan M Gonzales,14711 Cedar,Oak Run,CA,96069
Kimberly S Green,9333 Sixth,South Dennis,NJ,08245
Randy Gray,13635 Maple,Dallas,TX,75326-4090
Kyle Richardson,729 Evergreen Blvd,Vero Beach,FL,32963-6238
Ethan Walker,11411 Washington,Creswell,NC,27928
Willie F Moore,13817 Eighth Ct,Day,FL,32013
Zachary Green,15551 Fifth Pl,Emigsville,PA,17318
Kenneth U Kim,3602 Oak Ct,Langdon,ND,58249
Anthony D Gomez,14567 Third,Cannel City,KY,41408
Laura N Murphy,13196 Second,Katy,TX,77494-1879
Dylan S Jackson,2239 Maple,Middle River,MN,56737-5558
Homer Roberts,10523 Cedar Blvd,Perry,ME,04667-2174
Bart Ward,8449 Maple Blvd,Delphos,OH,45833
Diane Morales,13032 Oak,Jacksonville,OH,45740-9276
Christopher R Reed,16637 Washington,Vestaburg,PA,15368-2803
Donald G Perez,11420 Eighth Way,Deerwood,MN,56444
Daniel Johnson,9112 View,New York,NY,10103
Marilyn Chavez,1694 Third,North Las Vegas,NV,89036-3368
Kathleen Ruiz,15191 Fifth Pkwy,Mappsville,VA,23407
Joan L Rivera,6329 Washington Ct,Decker,MT,59025
Charlotte Turner,8219 Washington Ln,Choudrant,LA,71227-3181
Cynthia Garcia,10389 Cedar Way,Liberty Center,IA,50145-9112
Betty Q Myers,3291 Maple Rd,FPO,CA,96598-1617
Kathleen B Lee,16116 Third,London,KY,40750-3412
Walter Bennet,871 Fifth,Alva,WY,82711-8165
Sophia X Miller,14006 Cedar,Arcadia,CA,91006-3781
Paul Ramos,8610 Park,Hatfield,PA,19440-8080
Richard W Clark,6206 First Rd,Bromide,OK,74530
Bruce Taylor,8162 Washington,Pratt,KS,67124-3767
Laura Baker,16051 Hill Ln,Tampa,FL,33684-3684
Scott U Sanchez,8404 View Pkwy,Houston,TX,77291
Virginia A Myers,17523 Cedar Blvd,Ada,OH,45810
Brittany Q Harris,19382 Fourth,Wood Dale,IL,60399
Kimberly G Smith,12582 Evergreen Way,Moorpark,CA,93021-4766
Brandon Z Roberts,1117 Ninth,Corsicana,TX,75110-2124
Andrea H White,13982 Pine,Cape Neddick,ME,03902-6153
Sean Martin,15038 Second,North Hollywood,CA,91612-3124
Bart N Ramirez,750 Second Blvd,Bangor,ME,04401
Charles Edwards,7516 View,Churchville,MD,21028
Elijah Y Evans,15106 Elm Way,Solon,ME,04979-9117
Vincent P Kelly,2259 Ninth Pl,Abbott,TX,76621-8920
Kayla Howard,9625 Evergreen,Venice,FL,34284
Margaret Reyes,11453 Hill Dr,Las Vegas,NV,89103
Linda G Davis,19719 Washington,Posen,IL,60469
James M Sanchez,6491 Sixth Ct,Woodruff,SC,29388-3948
Anthony G Murphy,19942 Third Rd,Cleveland,UT,84518-1854
Albert Q Morris,6472 Fifth Way,Houston,TX,77242-5066
Samantha Moore,6940 Oak Blvd,Ermine,KY,41815
Roy L Rogers,17270 Sixth,Morven,NC,28119
Elijah Torres,9408 Maple,Columbia,SC,29220-7420
Harold Q Peterson,18802 Cedar Dr,Upper Marlboro,MD,20792
Marilyn D Ramos,12838 Elm Blvd,Merkel,TX,79536
Andrea U Anderson,2745 Park,Jewell,KS,66949-2591
Elijah Jackson,4888 Evergreen,Tuolumne,CA,95379-2585
Nicholas B Rivera,10789 Fifth,Festus,MO,63028
Nancy T Sanders,9415 Hill Rd,Liberty,MS,39645
Linda Patel,6417 Lake,Coatsville,MO,63535
Jennifer A Gray,16444 Pine,Barboursville,WV,25504-1805
Elijah Parker,14146 Fifth Blvd,Star Junction,PA,15482-6859
Betty Brown,2337 Seventh,Bluffton,IN,46714
Benjamin Clark,13613 Second,Lena,MS,39094-2045
Jordan Richardson,12519 Fourth Way,New Rumley,OH,43984-0296
Kathleen Garcia,13622 Sixth,Slate Run,PA,17769-2258
Dorothy Y Roberts,1539 Fifth,West Augusta,VA,24485
Rachel W Ross,12015 Maple Pkwy,Rehoboth,MA,02769-9747
Janet Diaz,1279 Maple,Williamsburg,KY,40769-0622
Susan I Chavez,5788 Park Dr,Excello,MO,65247
Jose U Davis,7966 Elm,Brent,AL,35034-8243
Jerry G Gomez,18680 Pine Dr,Oxford,NE,68967-8366
Wayne L White,113 Fifth Pl,Monticello,GA,31064
Olivia Castillo,16041 First,Morristown,OH,43759-5813
Kimberly A Robinson,13262 Fourth Dr,Dunkirk,IN,47336-3041
Michelle Foster,2288 Fourth Ct,Telford,PA,18969
Evelyn U Nguyen,13565 Eighth,Charlotte,NC,28228
Helen Ruiz,9310 Fourth,West Wendover,NV,89883-6240
Henry Lewis,3165 Cedar Ct,East Bernard,TX,77435-8170
Kayla Castillo,4978 Oak,Bretz,WV,26524
Kenneth Gray,2636 Fourth Pkwy,Monument,NM,88265
Zachary Hernandez,19129 View Pkwy,Geneseo,IL,61254-0762
Diana Williams,19681 Ninth Rd,Sheridan,MO,64486-5052
Samantha Gonzales,11983 Third Way,Thedford,NE,69166
Joyce Cooper,17165 Washington,Gerton,NC,28735-4805
Ashley Q Richardson,17535 Seventh,Boston,MA,02133-8498
Gloria W Allen,14268 Washington Ct,Bois D Arc,MO,65612-3113
Pamela Z Wright,14092 Lake Ct,London,TX,76854
Doris Murphy,9749 Oak,Unity,IL,62993-2246
Alexander W Wood,1046 Second,Huntly,VA,22640-0646
Sandra Hughes,7425 Evergreen Pkwy,Dewitt,IL,61735-9318
Angela A Miller,1094 Pine Blvd,Princeton,NJ,08544
Kimberly Wood,14887 Ninth,Madison,WI,53774-3451
Maria Q Parker,10981 Fifth,Wallace,CA,95254
Richard Kelly,3166 Sixth,Whittington,IL,62897
Julie E Lewis,10485 Cedar,Blunt,SD,57522
Sophia J Miller,10100 Second,Black Hawk,SD,57718-5349
Dylan Morales,17763 First,Sneedville,TN,37869
Carl Walker,3933 View,Worley,ID,83876-2534
Natalie Nguyen,737 Main,Chattanooga,TN,37401-7432
Julie Smith,19360 Seventh Way,Chesterville,OH,43317-7378
Isabella E Clark,2562 Evergreen,Lexington,KY,40502
Bobby Jones,16067 Maple Blvd,Regent,ND,58650
Jesse M Phillips,8874 Main Rd,Charleston,WV,25305
Elijah Y Cooper,13015 Pine Way,New Weston,OH,45348-9582
Eric X Brown,18666 View,San Carlos,CA,94070-4582
Abigail Gutierrez,18311 Fifth Rd,Butte des Morts,WI,54927
John Walker,12334 Sixth,Ringold,OK,74754-7345
Larry W Mendoza,16316 Lake,Gays,IL,61928
Carol Hughes,12100 Washington,Sioux City,IA,51111
Henry X Rogers,7057 Park,Washington,DC,20251-0874
